{"type": "FeatureCollection", "features": [{"type": "Feature", "properties": {"longitude": 70.4916901202, "latitude": 41.3668658169}, "geometry": {"type": "Point", "coordinates": [70.49169011990318, 41.36686581660422]}}, {"type": "Feature", "properties": {"longitude": 70.4898048295, "latitude": 41.3681470021}, "geometry": {"type": "Point", "coordinates": [70.48980482972917, 41.3681470024822]}}, {"type": "Feature", "properties": {"longitude": 70.3989086688, "latitude": 41.3292455648}, "geometry": {"type": "Point", "coordinates": [70.39890866880006, 41.32924556473108]}}, {"type": "Feature", "properties": {"longitude": 70.4022997806, "latitude": 41.3274705245}, "geometry": {"type": "Point", "coordinates": [70.40229978021074, 41.32747052424537]}}, {"type": "Feature", "properties": {"longitude": 70.4139466606, "latitude": 41.3167506075}, "geometry": {"type": "Point", "coordinates": [70.41394666080981, 41.31675060725479]}}, {"type": "Feature", "properties": {"longitude": 70.4190659769, "latitude": 41.3194184919}, "geometry": {"type": "Point", "coordinates": [70.41906597691337, 41.319418491969884]}}, {"type": "Feature", "properties": {"longitude": 70.4138857163, "latitude": 41.3131605615}, "geometry": {"type": "Point", "coordinates": [70.41388571645268, 41.313160561310895]}}, {"type": "Feature", "properties": {"longitude": 70.4118310247, "latitude": 41.3118330444}, "geometry": {"type": "Point", "coordinates": [70.41183102458217, 41.3118330441597]}}, {"type": "Feature", "properties": {"longitude": 70.400504102, "latitude": 41.2991352537}, "geometry": {"type": "Point", "coordinates": [70.40050410208272, 41.29913525358916]}}, {"type": "Feature", "properties": {"longitude": 70.4019145259, "latitude": 41.3019608323}, "geometry": {"type": "Point", "coordinates": [70.40191452593467, 41.30196083262638]}}, {"type": "Feature", "properties": {"longitude": 70.4062676861, "latitude": 41.2954199548}, "geometry": {"type": "Point", "coordinates": [70.40626768620479, 41.29541995456731]}}, {"type": "Feature", "properties": {"longitude": 70.4102551808, "latitude": 41.2969113326}, "geometry": {"type": "Point", "coordinates": [70.41025518033234, 41.29691133269188]}}, {"type": "Feature", "properties": {"longitude": 70.3938328841, "latitude": 41.3168503282}, "geometry": {"type": "Point", "coordinates": [70.39383288438017, 41.31685032857985]}}, {"type": "Feature", "properties": {"longitude": 70.4098111584, "latitude": 41.3417708089}, "geometry": {"type": "Point", "coordinates": [70.40981115805857, 41.34177080867596]}}, {"type": "Feature", "properties": {"longitude": 70.4139466606, "latitude": 41.3406628534}, "geometry": {"type": "Point", "coordinates": [70.41394666080981, 41.340662852908395]}}, {"type": "Feature", "properties": {"longitude": 70.4184086497, "latitude": 41.3408360748}, "geometry": {"type": "Point", "coordinates": [70.41840864983936, 41.340836074924994]}}, {"type": "Feature", "properties": {"longitude": 70.5614447862, "latitude": 41.4178902071}, "geometry": {"type": "Point", "coordinates": [70.561444786148, 41.417890207267305]}}, {"type": "Feature", "properties": {"longitude": 70.5655802883, "latitude": 41.4170349144}, "geometry": {"type": "Point", "coordinates": [70.56558028799992, 41.41703491422999]}}, {"type": "Feature", "properties": {"longitude": 70.5768288542, "latitude": 41.4364753515}, "geometry": {"type": "Point", "coordinates": [70.57682885436822, 41.43647535115656]}}, {"type": "Feature", "properties": {"longitude": 67.5661919958, "latitude": 39.031259886}, "geometry": {"type": "Point", "coordinates": [67.56619199576403, 39.031259886134876]}}, {"type": "Feature", "properties": {"longitude": 67.6406876256, "latitude": 39.0102911933}, "geometry": {"type": "Point", "coordinates": [67.6406876252338, 39.01029119348385]}}, {"type": "Feature", "properties": {"longitude": 67.6430557447, "latitude": 39.008126329}, "geometry": {"type": "Point", "coordinates": [67.64305574432717, 39.00812632926676]}}, {"type": "Feature", "properties": {"longitude": 67.6482098863, "latitude": 39.0097499834}, "geometry": {"type": "Point", "coordinates": [67.64820988667697, 39.009749983275185]}}, {"type": "Feature", "properties": {"longitude": 67.4694626005, "latitude": 38.9331592129}, "geometry": {"type": "Point", "coordinates": [67.46946260091835, 38.933159213127226]}}, {"type": "Feature", "properties": {"longitude": 67.5167379198, "latitude": 38.8517667554}, "geometry": {"type": "Point", "coordinates": [67.51673791941948, 38.85176675573126]}}, {"type": "Feature", "properties": {"longitude": 67.5622197371, "latitude": 38.8877742403}, "geometry": {"type": "Point", "coordinates": [67.5622197370513, 38.887774239889325]}}, {"type": "Feature", "properties": {"longitude": 67.6085721865, "latitude": 38.8809971164}, "geometry": {"type": "Point", "coordinates": [67.60857218655724, 38.880997116223966]}}, {"type": "Feature", "properties": {"longitude": 67.612322434, "latitude": 38.8853955434}, "geometry": {"type": "Point", "coordinates": [67.61232243413309, 38.88539554386932]}}, {"type": "Feature", "properties": {"longitude": 67.6116912257, "latitude": 38.8888619084}, "geometry": {"type": "Point", "coordinates": [67.6116912260693, 38.88886190875013]}}, {"type": "Feature", "properties": {"longitude": 67.6170543191, "latitude": 38.8923314925}, "geometry": {"type": "Point", "coordinates": [67.61705431870189, 38.892331492304606]}}, {"type": "Feature", "properties": {"longitude": 67.6226133046, "latitude": 38.8898208045}, "geometry": {"type": "Point", "coordinates": [67.62261330436058, 38.88982080458652]}}, {"type": "Feature", "properties": {"longitude": 67.7308154534, "latitude": 38.9983531716}, "geometry": {"type": "Point", "coordinates": [67.73081545307076, 38.998353171761494]}}, {"type": "Feature", "properties": {"longitude": 67.5198781807, "latitude": 38.8858771343}, "geometry": {"type": "Point", "coordinates": [67.51987818113321, 38.88587713442229]}}, {"type": "Feature", "properties": {"longitude": 67.5224639579, "latitude": 38.7483681655}, "geometry": {"type": "Point", "coordinates": [67.52246395774552, 38.74836816575828]}}, {"type": "Feature", "properties": {"longitude": 67.489152488, "latitude": 38.7172382048}, "geometry": {"type": "Point", "coordinates": [67.48915248819685, 38.71723820507913]}}, {"type": "Feature", "properties": {"longitude": 67.5089816767, "latitude": 38.7139379854}, "geometry": {"type": "Point", "coordinates": [67.50898167686296, 38.71393798544972]}}, {"type": "Feature", "properties": {"longitude": 68.1799288103, "latitude": 38.8701150921}, "geometry": {"type": "Point", "coordinates": [68.1799288105662, 38.870115091937976]}}, {"type": "Feature", "properties": {"longitude": 68.1818746729, "latitude": 38.8679798373}, "geometry": {"type": "Point", "coordinates": [68.18187467277801, 38.86797983699995]}}, {"type": "Feature", "properties": {"longitude": 70.3966613499, "latitude": 41.3322365452}, "geometry": {"type": "Point", "coordinates": [70.39666135024117, 41.33223654528041]}}, {"type": "Feature", "properties": {"longitude": 70.3905364535, "latitude": 41.3346128875}, "geometry": {"type": "Point", "coordinates": [70.3905364535945, 41.3346128877746]}}, {"type": "Feature", "properties": {"longitude": 71.0069510057, "latitude": 42.2611709768}, "geometry": {"type": "Point", "coordinates": [71.00695100608414, 42.26117097665929]}}, {"type": "Feature", "properties": {"longitude": 71.0463245231, "latitude": 42.285336473}, "geometry": {"type": "Point", "coordinates": [71.04632452315826, 42.28533647319972]}}, {"type": "Feature", "properties": {"longitude": 71.0668968778, "latitude": 42.2744645958}, "geometry": {"type": "Point", "coordinates": [71.06689687738901, 42.27446459596439]}}, {"type": "Feature", "properties": {"longitude": 71.0882001553, "latitude": 42.2792250095}, "geometry": {"type": "Point", "coordinates": [71.08820015561275, 42.279225009726474]}}, {"type": "Feature", "properties": {"longitude": 71.0908324568, "latitude": 42.2799768593}, "geometry": {"type": "Point", "coordinates": [71.09083245685247, 42.27997685914477]}}, {"type": "Feature", "properties": {"longitude": 71.1236872529, "latitude": 42.2722292061}, "geometry": {"type": "Point", "coordinates": [71.1236872533641, 42.272229206013094]}}, {"type": "Feature", "properties": {"longitude": 71.1321565301, "latitude": 42.2796564184}, "geometry": {"type": "Point", "coordinates": [71.13215652970013, 42.279656418109255]}}, {"type": "Feature", "properties": {"longitude": 71.1330686532, "latitude": 42.2775027415}, "geometry": {"type": "Point", "coordinates": [71.13306865359556, 42.27750274145842]}}, {"type": "Feature", "properties": {"longitude": 71.0937004412, "latitude": 42.2777337388}, "geometry": {"type": "Point", "coordinates": [71.09370044162216, 42.27773373862118]}}, {"type": "Feature", "properties": {"longitude": 71.0941779284, "latitude": 42.2770180974}, "geometry": {"type": "Point", "coordinates": [71.09417792856863, 42.27701809770707]}}, {"type": "Feature", "properties": {"longitude": 71.0884664463, "latitude": 42.276352272}, "geometry": {"type": "Point", "coordinates": [71.08846644666926, 42.27635227203979]}}, {"type": "Feature", "properties": {"longitude": 71.0853382926, "latitude": 42.2752561358}, "geometry": {"type": "Point", "coordinates": [71.0853382925282, 42.2752561360619]}}, {"type": "Feature", "properties": {"longitude": 71.0818244761, "latitude": 42.276075975}, "geometry": {"type": "Point", "coordinates": [71.08182447581896, 42.27607597512622]}}, {"type": "Feature", "properties": {"longitude": 71.1167483837, "latitude": 42.2196225903}, "geometry": {"type": "Point", "coordinates": [71.11674838393083, 42.21962259041027]}}, {"type": "Feature", "properties": {"longitude": 71.1184257107, "latitude": 42.2182897202}, "geometry": {"type": "Point", "coordinates": [71.11842571037829, 42.21828972049428]}}, {"type": "Feature", "properties": {"longitude": 71.1374088899, "latitude": 42.2095981728}, "geometry": {"type": "Point", "coordinates": [71.13740888970852, 42.20959817311723]}}, {"type": "Feature", "properties": {"longitude": 71.1482916202, "latitude": 42.2128888145}, "geometry": {"type": "Point", "coordinates": [71.14829161996232, 42.2128888149669]}}, {"type": "Feature", "properties": {"longitude": 71.1503005356, "latitude": 42.2265705894}, "geometry": {"type": "Point", "coordinates": [71.15030053544143, 42.22657058976097]}}, {"type": "Feature", "properties": {"longitude": 71.2242090329, "latitude": 42.1639112484}, "geometry": {"type": "Point", "coordinates": [71.22420903262082, 42.16391124800572]}}, {"type": "Feature", "properties": {"longitude": 71.2412598171, "latitude": 42.1702150647}, "geometry": {"type": "Point", "coordinates": [71.24125981708693, 42.17021506477346]}}, {"type": "Feature", "properties": {"longitude": 71.1236673576, "latitude": 42.2333697612}, "geometry": {"type": "Point", "coordinates": [71.1236673576625, 42.23336976120555]}}, {"type": "Feature", "properties": {"longitude": 70.8369464639, "latitude": 41.945346871}, "geometry": {"type": "Point", "coordinates": [70.83694646430791, 41.94534687076151]}}, {"type": "Feature", "properties": {"longitude": 70.8315920769, "latitude": 41.9435012951}, "geometry": {"type": "Point", "coordinates": [70.8315920771127, 41.9435012955484]}}, {"type": "Feature", "properties": {"longitude": 70.8249317418, "latitude": 41.9391299814}, "geometry": {"type": "Point", "coordinates": [70.82493174210629, 41.93912998156344]}}, {"type": "Feature", "properties": {"longitude": 70.8283272068, "latitude": 41.9353412671}, "geometry": {"type": "Point", "coordinates": [70.82832720713498, 41.93534126728571]}}, {"type": "Feature", "properties": {"longitude": 70.8996156458, "latitude": 42.0520079353}, "geometry": {"type": "Point", "coordinates": [70.89961564554568, 42.05200793491832]}}, {"type": "Feature", "properties": {"longitude": 70.9020153253, "latitude": 42.050335155}, "geometry": {"type": "Point", "coordinates": [70.902015325447, 42.0503351545438]}}, {"type": "Feature", "properties": {"longitude": 70.9052638711, "latitude": 42.0461530115}, "geometry": {"type": "Point", "coordinates": [70.90526387093098, 42.04615301115257]}}, {"type": "Feature", "properties": {"longitude": 71.0030957042, "latitude": 42.0524321841}, "geometry": {"type": "Point", "coordinates": [71.00309570420342, 42.05243218379832]}}, {"type": "Feature", "properties": {"longitude": 71.1218330706, "latitude": 42.2123580512}, "geometry": {"type": "Point", "coordinates": [71.12183307073968, 42.212358051283104]}}, {"type": "Feature", "properties": {"longitude": 71.1237616397, "latitude": 42.2107248263}, "geometry": {"type": "Point", "coordinates": [71.12376163988785, 42.21072482668944]}}, {"type": "Feature", "properties": {"longitude": 71.0388734936, "latitude": 42.1407252982}, "geometry": {"type": "Point", "coordinates": [71.03887349341704, 42.140725298433836]}}, {"type": "Feature", "properties": {"longitude": 71.0320105626, "latitude": 42.1550752648}, "geometry": {"type": "Point", "coordinates": [71.03201056273736, 42.15507526501153]}}, {"type": "Feature", "properties": {"longitude": 71.0395524715, "latitude": 42.1511359925}, "geometry": {"type": "Point", "coordinates": [71.03955247166931, 42.15113599253209]}}, {"type": "Feature", "properties": {"longitude": 71.0298191844, "latitude": 42.1133910019}, "geometry": {"type": "Point", "coordinates": [71.02981918470766, 42.11339100199319]}}, {"type": "Feature", "properties": {"longitude": 70.9987052003, "latitude": 42.1280493053}, "geometry": {"type": "Point", "coordinates": [70.99870520048466, 42.12804930563101]}}, {"type": "Feature", "properties": {"longitude": 70.9976935263, "latitude": 42.1285011451}, "geometry": {"type": "Point", "coordinates": [70.99769352613538, 42.12850114481205]}}, {"type": "Feature", "properties": {"longitude": 71.0856719059, "latitude": 42.103588492}, "geometry": {"type": "Point", "coordinates": [71.0856719059338, 42.10358849241504]}}, {"type": "Feature", "properties": {"longitude": 71.0887050649, "latitude": 42.1002597982}, "geometry": {"type": "Point", "coordinates": [71.08870506468702, 42.10025979845096]}}, {"type": "Feature", "properties": {"longitude": 71.0895173852, "latitude": 42.0995741319}, "geometry": {"type": "Point", "coordinates": [71.08951738541907, 42.0995741319407]}}, {"type": "Feature", "properties": {"longitude": 71.0942049946, "latitude": 42.1032069729}, "geometry": {"type": "Point", "coordinates": [71.0942049945649, 42.10320697302342]}}, {"type": "Feature", "properties": {"longitude": 71.1270927851, "latitude": 42.1260664225}, "geometry": {"type": "Point", "coordinates": [71.12709278540376, 42.12606642282719]}}, {"type": "Feature", "properties": {"longitude": 71.1036249282, "latitude": 42.1388994802}, "geometry": {"type": "Point", "coordinates": [71.10362492804802, 42.138899480426744]}}, {"type": "Feature", "properties": {"longitude": 71.1034535212, "latitude": 42.1418835396}, "geometry": {"type": "Point", "coordinates": [71.10345352086335, 42.14188353979358]}}, {"type": "Feature", "properties": {"longitude": 71.2345798921, "latitude": 42.2247289021}, "geometry": {"type": "Point", "coordinates": [71.23457989214836, 42.224728902317054]}}, {"type": "Feature", "properties": {"longitude": 71.2333278756, "latitude": 42.2206559925}, "geometry": {"type": "Point", "coordinates": [71.2333278757809, 42.220655992380216]}}, {"type": "Feature", "properties": {"longitude": 71.2576229577, "latitude": 42.1957602806}, "geometry": {"type": "Point", "coordinates": [71.25762295743357, 42.195760280512616]}}, {"type": "Feature", "properties": {"longitude": 71.264658098, "latitude": 42.2008395816}, "geometry": {"type": "Point", "coordinates": [71.2646580983926, 42.200839581281684]}}, {"type": "Feature", "properties": {"longitude": 71.0937317621, "latitude": 42.1448508814}, "geometry": {"type": "Point", "coordinates": [71.09373176231105, 42.14485088166293]}}, {"type": "Feature", "properties": {"longitude": 71.0050174502, "latitude": 42.1708547577}, "geometry": {"type": "Point", "coordinates": [71.00501745019523, 42.17085475794079]}}, {"type": "Feature", "properties": {"longitude": 71.0305272863, "latitude": 42.1733567977}, "geometry": {"type": "Point", "coordinates": [71.03052728660504, 42.17335679777807]}}, {"type": "Feature", "properties": {"longitude": 70.3881673657, "latitude": 41.3015190098}, "geometry": {"type": "Point", "coordinates": [70.38816736593122, 41.301519010094296]}}, {"type": "Feature", "properties": {"longitude": 70.3885362634, "latitude": 41.2988400008}, "geometry": {"type": "Point", "coordinates": [70.38853626333793, 41.298840000765495]}}]}