{
"type": "FeatureCollection",
"name": "uzb_admbnda_adm0_2018b_recovered",
"features": [
{ "type": "Feature", "properties": { "ADM0_EN": "Uzbekistan", "ADM0_RU": "Республика Узбекистан", "ADM0_UZ": "O'zbekiston Respublikasi", "ADM0ALT1EN": "Republic of Uzbekistan", "ADM0_PCODE": "UZ" }, "geometry": { "type": "MultiPolygon", "coordinates": [ [ [ [ 71.83504, 39.98598 ], [ 71.8287, 39.98936 ], [ 71.82378, 39.99205 ], [ 71.8226, 39.9945 ], [ 71.82265, 40.00039 ], [ 71.82188, 40.00574 ], [ 71.81761, 40.01311 ], [ 71.81631, 40.02027 ], [ 71.81495, 40.02685 ], [ 71.81228, 40.02938 ], [ 71.8063, 40.0298 ], [ 71.79641, 40.0293 ], [ 71.79168, 40.02786 ], [ 71.7897, 40.02446 ], [ 71.78974, 40.01916 ], [ 71.79093, 40.01141 ], [ 71.78982, 40.00324 ], [ 71.78603, 39.99761 ], [ 71.77917, 39.9916 ], [ 71.77106, 39.98744 ], [ 71.7592, 39.98355 ], [ 71.74241, 39.98235 ], [ 71.73095, 39.98137 ], [ 71.72517, 39.97764 ], [ 71.72161, 39.97376 ], [ 71.71916, 39.96686 ], [ 71.72009, 39.96267 ], [ 71.72576, 39.95992 ], [ 71.73315, 39.95882 ], [ 71.74221, 39.95879 ], [ 71.74646, 39.95673 ], [ 71.75039, 39.95233 ], [ 71.75349, 39.94741 ], [ 71.75825, 39.94354 ], [ 71.76041, 39.9428 ], [ 71.76349, 39.94318 ], [ 71.76613, 39.94594 ], [ 71.77742, 39.96225 ], [ 71.78436, 39.96885 ], [ 71.78669, 39.96928 ], [ 71.78969, 39.96907 ], [ 71.79711, 39.96267 ], [ 71.80262, 39.95875 ], [ 71.80703, 39.95786 ], [ 71.81159, 39.95813 ], [ 71.81549, 39.95904 ], [ 71.82806, 39.957 ], [ 71.83737, 39.95341 ], [ 71.84213, 39.94954 ], [ 71.84662, 39.94923 ], [ 71.85647, 39.95504 ], [ 71.85454, 39.95753 ], [ 71.85294, 39.96235 ], [ 71.85432, 39.96697 ], [ 71.85804, 39.97202 ], [ 71.86326, 39.97697 ], [ 71.87385, 39.98272 ], [ 71.8789, 39.98649 ], [ 71.88013, 39.98994 ], [ 71.87895, 39.99238 ], [ 71.87537, 39.99381 ], [ 71.86632, 39.99384 ], [ 71.85994, 39.99133 ], [ 71.85024, 39.9867 ], [ 71.84476, 39.98531 ], [ 71.8387, 39.98514 ], [ 71.83504, 39.98598 ] ] ], [ [ [ 71.03487, 40.18452 ], [ 71.02354, 40.19002 ], [ 71.01517, 40.19194 ], [ 71.00996, 40.19163 ], [ 71.00455, 40.18998 ], [ 71.00382, 40.18464 ], [ 71.00465, 40.17697 ], [ 71.00494, 40.16012 ], [ 71.00503, 40.14194 ], [ 71.00604, 40.13043 ], [ 71.00725, 40.12025 ], [ 71.00826, 40.10873 ], [ 71.00783, 40.09934 ], [ 71.00588, 40.0914 ], [ 71.00497, 40.08473 ], [ 71.00644, 40.07655 ], [ 71.0127, 40.05929 ], [ 71.02105, 40.04458 ], [ 71.03168, 40.0277 ], [ 71.03788, 40.02256 ], [ 71.04623, 40.02063 ], [ 71.06171, 40.02024 ], [ 71.08316, 40.01943 ], [ 71.10083, 40.0162 ], [ 71.10671, 40.01417 ], [ 71.1114, 40.01048 ], [ 71.11218, 40.00369 ], [ 71.10956, 39.99714 ], [ 71.10713, 39.99192 ], [ 71.10155, 39.98894 ], [ 71.09196, 39.98826 ], [ 71.084, 39.98679 ], [ 71.08089, 39.98297 ], [ 71.08043, 39.97963 ], [ 71.08263, 39.97678 ], [ 71.09575, 39.97184 ], [ 71.10186, 39.96603 ], [ 71.10302, 39.96191 ], [ 71.10086, 39.9587 ], [ 71.09356, 39.95584 ], [ 71.08249, 39.95054 ], [ 71.07567, 39.94495 ], [ 71.07089, 39.93518 ], [ 71.06898, 39.92825 ], [ 71.06653, 39.92303 ], [ 71.06447, 39.92048 ], [ 71.05653, 39.91295 ], [ 71.04887, 39.90742 ], [ 71.04568, 39.90293 ], [ 71.04504, 39.89826 ], [ 71.04602, 39.89281 ], [ 71.04821, 39.88997 ], [ 71.05382, 39.88689 ], [ 71.06503, 39.88678 ], [ 71.07461, 39.88747 ], [ 71.0877, 39.88859 ], [ 71.10155, 39.88898 ], [ 71.12377, 39.88745 ], [ 71.13393, 39.88607 ], [ 71.15008, 39.8843 ], [ 71.16376, 39.88335 ], [ 71.17607, 39.88519 ], [ 71.18337, 39.88805 ], [ 71.19188, 39.89353 ], [ 71.19904, 39.90178 ], [ 71.20436, 39.90767 ], [ 71.20936, 39.9127 ], [ 71.2158, 39.91563 ], [ 71.22498, 39.91971 ], [ 71.2281, 39.92353 ], [ 71.22892, 39.92953 ], [ 71.22604, 39.93377 ], [ 71.22025, 39.93552 ], [ 71.20981, 39.93489 ], [ 71.20383, 39.9353 ], [ 71.19907, 39.93832 ], [ 71.19714, 39.94316 ], [ 71.19931, 39.94638 ], [ 71.20395, 39.94875 ], [ 71.20431, 39.95142 ], [ 71.2021, 39.95427 ], [ 71.19024, 39.95576 ], [ 71.16843, 39.9539 ], [ 71.15381, 39.95423 ], [ 71.1462, 39.95543 ], [ 71.14315, 39.95833 ], [ 71.1438, 39.963 ], [ 71.14784, 39.96743 ], [ 71.15968, 39.972 ], [ 71.16441, 39.97504 ], [ 71.16582, 39.97898 ], [ 71.16524, 39.98104 ], [ 71.16379, 39.98315 ], [ 71.14878, 39.98689 ], [ 71.13615, 39.9891 ], [ 71.13129, 39.99146 ], [ 71.12928, 39.99564 ], [ 71.13001, 40.00097 ], [ 71.13389, 40.00407 ], [ 71.14954, 40.005 ], [ 71.15996, 40.00563 ], [ 71.17013, 40.00426 ], [ 71.17782, 40.00373 ], [ 71.18579, 40.00521 ], [ 71.19601, 40.01056 ], [ 71.20394, 40.01809 ], [ 71.20949, 40.02713 ], [ 71.21013, 40.0318 ], [ 71.20698, 40.03403 ], [ 71.19929, 40.03456 ], [ 71.18953, 40.03254 ], [ 71.17598, 40.02809 ], [ 71.16433, 40.02485 ], [ 71.15362, 40.02222 ], [ 71.13711, 40.02135 ], [ 71.13045, 40.02315 ], [ 71.12759, 40.02739 ], [ 71.12688, 40.03484 ], [ 71.12546, 40.0575 ], [ 71.1251, 40.07368 ], [ 71.12344, 40.08053 ], [ 71.1198, 40.08549 ], [ 71.11096, 40.09014 ], [ 71.10249, 40.09139 ], [ 71.09657, 40.09344 ], [ 71.09239, 40.0944 ], [ 71.0881, 40.10075 ], [ 71.08443, 40.11178 ], [ 71.08161, 40.12274 ], [ 71.07966, 40.13364 ], [ 71.07819, 40.14182 ], [ 71.07339, 40.1509 ], [ 71.05976, 40.17742 ], [ 71.05707, 40.18299 ], [ 71.0525, 40.18735 ], [ 71.04907, 40.18758 ], [ 71.04462, 40.18654 ], [ 71.03913, 40.18423 ], [ 71.03487, 40.18452 ] ] ], [ [ [ 71.04864, 40.22783 ], [ 71.05556, 40.23151 ], [ 71.05952, 40.23707 ], [ 71.06071, 40.24198 ], [ 71.06039, 40.24742 ], [ 71.05896, 40.25252 ], [ 71.05435, 40.25784 ], [ 71.04945, 40.26109 ], [ 71.03838, 40.26601 ], [ 71.03334, 40.26428 ], [ 71.03103, 40.25903 ], [ 71.02874, 40.24627 ], [ 71.02817, 40.23423 ], [ 71.0306, 40.22865 ], [ 71.03508, 40.22626 ], [ 71.04201, 40.22619 ], [ 71.04864, 40.22783 ] ] ], [ [ [ 61.04586, 44.39032 ], [ 60.8028, 44.5119 ], [ 60.56748, 44.62961 ], [ 59.36822, 45.2295 ], [ 59.13673, 45.3453 ], [ 58.87308, 45.47718 ], [ 58.61718, 45.60519 ], [ 58.61472, 45.60464 ], [ 58.60358, 45.60213 ], [ 58.53393, 45.58421 ], [ 58.51867, 45.58113 ], [ 58.48713, 45.5719 ], [ 58.47217, 45.56911 ], [ 58.44129, 45.56192 ], [ 58.37209, 45.54452 ], [ 58.3185, 45.53127 ], [ 58.25327, 45.51496 ], [ 58.25035, 45.51404 ], [ 58.20591, 45.50238 ], [ 58.17672, 45.49581 ], [ 58.15986, 45.49114 ], [ 58.1349, 45.48529 ], [ 58.05616, 45.46513 ], [ 58.03283, 45.45994 ], [ 57.99074, 45.44913 ], [ 57.88455, 45.42545 ], [ 57.85672, 45.41928 ], [ 57.81335, 45.41045 ], [ 57.74544, 45.39567 ], [ 57.71021, 45.38756 ], [ 57.68824, 45.38209 ], [ 57.66948, 45.37916 ], [ 57.58905, 45.36118 ], [ 57.56094, 45.35562 ], [ 57.53642, 45.34964 ], [ 57.49509, 45.34117 ], [ 57.39186, 45.31822 ], [ 57.35638, 45.31092 ], [ 57.28001, 45.29369 ], [ 57.11773, 45.25734 ], [ 57.08682, 45.25117 ], [ 56.98873, 45.22931 ], [ 56.95981, 45.22244 ], [ 56.92123, 45.21427 ], [ 56.83002, 45.1933 ], [ 56.80848, 45.18927 ], [ 56.76327, 45.17773 ], [ 56.6886, 45.16096 ], [ 56.61795, 45.14509 ], [ 56.57597, 45.13559 ], [ 56.50998, 45.12012 ], [ 56.47475, 45.11209 ], [ 56.46517, 45.10938 ], [ 56.3698, 45.08727 ], [ 56.34582, 45.08149 ], [ 56.31733, 45.07539 ], [ 56.31606, 45.0749 ], [ 56.29913, 45.07065 ], [ 56.21922, 45.05196 ], [ 56.1742, 45.04087 ], [ 56.15631, 45.0368 ], [ 56.11192, 45.02661 ], [ 56.0816, 45.01927 ], [ 56.07874, 45.01851 ], [ 56.06177, 45.01559 ], [ 56.03252, 45.00643 ], [ 56.03093, 45.00593 ], [ 56.0028, 45.00067 ], [ 55.9981, 45.0 ], [ 55.99808, 44.99804 ], [ 55.99835, 44.98591 ], [ 55.99854, 44.98202 ], [ 55.99825, 44.96805 ], [ 55.9982, 44.96255 ], [ 55.9981, 44.95133 ], [ 55.99792, 44.93507 ], [ 55.99804, 44.93255 ], [ 55.9968, 44.91833 ], [ 55.99664, 44.91512 ], [ 55.99854, 44.90921 ], [ 55.99826, 44.90164 ], [ 55.99849, 44.89777 ], [ 55.99849, 44.89685 ], [ 55.99715, 44.88591 ], [ 55.9971, 44.87254 ], [ 55.998, 44.86043 ], [ 56.0006, 41.31805 ], [ 56.00962, 41.3187 ], [ 56.04733, 41.31715 ], [ 56.12305, 41.31377 ], [ 56.13462, 41.31291 ], [ 56.13583, 41.31294 ], [ 56.15528, 41.31227 ], [ 56.20447, 41.31163 ], [ 56.27114, 41.30656 ], [ 56.31646, 41.30395 ], [ 56.35711, 41.30418 ], [ 56.42937, 41.30008 ], [ 56.43252, 41.2999 ], [ 56.46299, 41.29644 ], [ 56.50801, 41.29305 ], [ 56.55973, 41.28887 ], [ 56.60102, 41.28788 ], [ 56.6077, 41.28756 ], [ 56.64137, 41.28755 ], [ 56.67055, 41.28584 ], [ 56.72917, 41.28331 ], [ 56.78748, 41.28075 ], [ 56.81245, 41.27777 ], [ 56.87725, 41.27117 ], [ 56.91887, 41.26823 ], [ 56.9462, 41.26688 ], [ 56.96292, 41.26556 ], [ 57.00193, 41.25843 ], [ 57.03043, 41.25845 ], [ 57.04242, 41.26321 ], [ 57.05307, 41.27208 ], [ 57.06004, 41.28295 ], [ 57.06081, 41.29807 ], [ 57.06085, 41.30745 ], [ 57.06518, 41.31506 ], [ 57.07076, 41.32179 ], [ 57.0889, 41.33466 ], [ 57.13169, 41.34585 ], [ 57.14307, 41.35129 ], [ 57.1517, 41.35783 ], [ 57.15867, 41.36938 ], [ 57.15784, 41.37783 ], [ 57.14855, 41.38432 ], [ 57.12378, 41.37914 ], [ 57.1063, 41.37452 ], [ 57.08655, 41.3749 ], [ 57.0816, 41.37802 ], [ 57.06802, 41.39611 ], [ 57.04643, 41.41796 ], [ 57.03819, 41.42972 ], [ 57.03164, 41.44586 ], [ 57.02253, 41.49697 ], [ 57.0227, 41.52238 ], [ 57.02263, 41.53496 ], [ 57.02692, 41.55471 ], [ 57.02502, 41.56773 ], [ 57.0199, 41.58641 ], [ 57.00843, 41.60316 ], [ 57.00073, 41.60578 ], [ 57.00123, 41.60968 ], [ 56.99306, 41.61778 ], [ 56.98434, 41.63388 ], [ 56.97641, 41.65412 ], [ 56.9722, 41.67235 ], [ 56.97399, 41.6939 ], [ 56.97514, 41.71658 ], [ 56.97142, 41.74856 ], [ 56.96862, 41.75996 ], [ 56.96872, 41.77689 ], [ 56.96758, 41.80456 ], [ 56.97054, 41.81789 ], [ 56.97738, 41.83425 ], [ 56.98403, 41.86732 ], [ 56.98804, 41.87655 ], [ 57.00154, 41.896 ], [ 57.00386, 41.89828 ], [ 57.00812, 41.90137 ], [ 57.02254, 41.91099 ], [ 57.03826, 41.91811 ], [ 57.08494, 41.92845 ], [ 57.11451, 41.93668 ], [ 57.12997, 41.94359 ], [ 57.15441, 41.96134 ], [ 57.16753, 41.97504 ], [ 57.17142, 41.98312 ], [ 57.17423, 41.98774 ], [ 57.1799, 42.00476 ], [ 57.18571, 42.0172 ], [ 57.18693, 42.01722 ], [ 57.19061, 42.02872 ], [ 57.20528, 42.05434 ], [ 57.20675, 42.05665 ], [ 57.21412, 42.06843 ], [ 57.23831, 42.09442 ], [ 57.26551, 42.11196 ], [ 57.27039, 42.1134 ], [ 57.27795, 42.11832 ], [ 57.2804, 42.11881 ], [ 57.28247, 42.12181 ], [ 57.31281, 42.1378 ], [ 57.36736, 42.15775 ], [ 57.40983, 42.16951 ], [ 57.41936, 42.16986 ], [ 57.45406, 42.17258 ], [ 57.46819, 42.17321 ], [ 57.47343, 42.17305 ], [ 57.48664, 42.17366 ], [ 57.5217, 42.17408 ], [ 57.57129, 42.17121 ], [ 57.6117, 42.16525 ], [ 57.64677, 42.14937 ], [ 57.65969, 42.14905 ], [ 57.67562, 42.15197 ], [ 57.69239, 42.15969 ], [ 57.71317, 42.16699 ], [ 57.7303, 42.17197 ], [ 57.7551, 42.17862 ], [ 57.7692, 42.18127 ], [ 57.83548, 42.17295 ], [ 57.84409, 42.17279 ], [ 57.85421, 42.17494 ], [ 57.85841, 42.18161 ], [ 57.84889, 42.19939 ], [ 57.83697, 42.21324 ], [ 57.8338, 42.21871 ], [ 57.84118, 42.23799 ], [ 57.84721, 42.24629 ], [ 57.84964, 42.24792 ], [ 57.85673, 42.24798 ], [ 57.89262, 42.23683 ], [ 57.91111, 42.2363 ], [ 57.92123, 42.2389 ], [ 57.92852, 42.24514 ], [ 57.93238, 42.25478 ], [ 57.93662, 42.28068 ], [ 57.93493, 42.29074 ], [ 57.93409, 42.30561 ], [ 57.93938, 42.3235 ], [ 57.93873, 42.34615 ], [ 57.94682, 42.36293 ], [ 57.9473, 42.37163 ], [ 57.94026, 42.38897 ], [ 57.93083, 42.40057 ], [ 57.91148, 42.41369 ], [ 57.90419, 42.42622 ], [ 57.9103, 42.45099 ], [ 57.91515, 42.45721 ], [ 57.92993, 42.46053 ], [ 57.93954, 42.45878 ], [ 57.9555, 42.44493 ], [ 57.96232, 42.44293 ], [ 57.96864, 42.45488 ], [ 57.97718, 42.48424 ], [ 57.98299, 42.48886 ], [ 57.99443, 42.48872 ], [ 57.99873, 42.4915 ], [ 58.00396, 42.49268 ], [ 58.01593, 42.49963 ], [ 58.02579, 42.50199 ], [ 58.0468, 42.50374 ], [ 58.04679, 42.50466 ], [ 58.05328, 42.50448 ], [ 58.06754, 42.50182 ], [ 58.08594, 42.48982 ], [ 58.09174, 42.47063 ], [ 58.098, 42.46472 ], [ 58.11197, 42.45862 ], [ 58.1179, 42.45431 ], [ 58.12205, 42.44267 ], [ 58.12609, 42.44109 ], [ 58.13472, 42.44252 ], [ 58.15411, 42.44927 ], [ 58.20119, 42.46739 ], [ 58.21849, 42.46817 ], [ 58.24356, 42.46441 ], [ 58.32343, 42.44809 ], [ 58.33956, 42.44106 ], [ 58.35042, 42.4347 ], [ 58.3697, 42.41876 ], [ 58.37717, 42.41032 ], [ 58.38499, 42.3973 ], [ 58.39189, 42.38291 ], [ 58.39692, 42.37102 ], [ 58.40261, 42.35137 ], [ 58.40489, 42.33444 ], [ 58.40235, 42.30193 ], [ 58.40638, 42.29118 ], [ 58.41567, 42.29236 ], [ 58.44677, 42.29728 ], [ 58.45941, 42.2964 ], [ 58.49242, 42.28918 ], [ 58.50167, 42.28944 ], [ 58.50966, 42.29358 ], [ 58.51395, 42.29748 ], [ 58.52066, 42.31032 ], [ 58.51783, 42.32175 ], [ 58.4971, 42.33451 ], [ 58.48227, 42.33996 ], [ 58.45256, 42.35543 ], [ 58.42904, 42.36634 ], [ 58.41764, 42.36424 ], [ 58.40803, 42.37061 ], [ 58.40881, 42.39007 ], [ 58.40469, 42.40516 ], [ 58.39226, 42.4161 ], [ 58.36421, 42.44895 ], [ 58.34665, 42.48114 ], [ 58.33383, 42.49849 ], [ 58.32689, 42.51402 ], [ 58.32468, 42.51928 ], [ 58.30648, 42.54826 ], [ 58.29681, 42.55692 ], [ 58.29278, 42.55827 ], [ 58.26768, 42.5609 ], [ 58.24627, 42.56697 ], [ 58.22762, 42.57374 ], [ 58.19496, 42.58821 ], [ 58.18186, 42.59638 ], [ 58.17128, 42.60136 ], [ 58.15477, 42.60973 ], [ 58.14781, 42.62181 ], [ 58.15171, 42.63283 ], [ 58.16064, 42.63837 ], [ 58.17396, 42.63937 ], [ 58.1958, 42.65436 ], [ 58.22447, 42.67031 ], [ 58.24702, 42.67982 ], [ 58.27763, 42.6889 ], [ 58.29717, 42.68945 ], [ 58.32357, 42.68522 ], [ 58.35991, 42.67988 ], [ 58.39221, 42.67337 ], [ 58.41801, 42.66431 ], [ 58.44408, 42.6605 ], [ 58.45869, 42.65414 ], [ 58.47267, 42.65029 ], [ 58.49591, 42.65128 ], [ 58.53432, 42.65757 ], [ 58.55322, 42.65921 ], [ 58.5734, 42.65354 ], [ 58.57805, 42.65332 ], [ 58.58857, 42.65814 ], [ 58.59536, 42.66594 ], [ 58.60452, 42.70075 ], [ 58.59891, 42.70738 ], [ 58.58398, 42.7165 ], [ 58.58397, 42.71925 ], [ 58.58952, 42.72636 ], [ 58.5951, 42.72934 ], [ 58.60876, 42.72937 ], [ 58.62057, 42.72435 ], [ 58.62957, 42.72414 ], [ 58.63701, 42.72759 ], [ 58.64071, 42.73583 ], [ 58.63976, 42.74041 ], [ 58.6326, 42.74658 ], [ 58.62389, 42.75114 ], [ 58.62046, 42.75457 ], [ 58.61825, 42.76326 ], [ 58.62502, 42.78204 ], [ 58.62559, 42.79555 ], [ 58.63587, 42.7887 ], [ 58.64533, 42.77993 ], [ 58.65705, 42.76905 ], [ 58.7025, 42.72653 ], [ 58.76184, 42.67919 ], [ 58.79102, 42.65425 ], [ 58.79753, 42.65036 ], [ 58.80653, 42.6412 ], [ 58.87283, 42.58832 ], [ 58.89728, 42.56771 ], [ 58.90965, 42.55877 ], [ 58.9347, 42.54364 ], [ 58.94923, 42.53858 ], [ 58.9681, 42.53559 ], [ 58.98696, 42.53007 ], [ 58.99841, 42.52798 ], [ 59.00149, 42.52523 ], [ 59.0327, 42.51419 ], [ 59.04784, 42.51073 ], [ 59.07537, 42.50952 ], [ 59.07629, 42.50952 ], [ 59.0933, 42.50765 ], [ 59.10412, 42.50808 ], [ 59.11651, 42.51194 ], [ 59.13729, 42.52424 ], [ 59.14429, 42.52594 ], [ 59.15401, 42.52831 ], [ 59.16082, 42.52898 ], [ 59.16948, 42.52803 ], [ 59.18399, 42.52249 ], [ 59.19355, 42.51742 ], [ 59.20372, 42.51007 ], [ 59.22246, 42.49009 ], [ 59.25688, 42.45951 ], [ 59.26517, 42.4517 ], [ 59.27744, 42.43883 ], [ 59.27954, 42.43127 ], [ 59.27977, 42.41914 ], [ 59.26975, 42.39926 ], [ 59.27063, 42.39285 ], [ 59.30103, 42.37098 ], [ 59.32126, 42.35464 ], [ 59.32955, 42.34957 ], [ 59.35692, 42.32901 ], [ 59.35806, 42.32814 ], [ 59.36725, 42.32078 ], [ 59.37703, 42.31112 ], [ 59.39117, 42.30624 ], [ 59.3994, 42.29635 ], [ 59.40699, 42.28372 ], [ 59.41925, 42.27656 ], [ 59.44234, 42.27552 ], [ 59.46547, 42.27722 ], [ 59.48179, 42.27681 ], [ 59.48487, 42.27687 ], [ 59.4898, 42.27661 ], [ 59.4972, 42.27657 ], [ 59.54251, 42.27903 ], [ 59.5661, 42.27829 ], [ 59.57948, 42.27809 ], [ 59.58165, 42.27945 ], [ 59.58873, 42.27871 ], [ 59.60847, 42.28064 ], [ 59.64113, 42.28063 ], [ 59.65071, 42.28216 ], [ 59.65415, 42.28232 ], [ 59.65903, 42.28255 ], [ 59.67511, 42.28655 ], [ 59.71762, 42.28598 ], [ 59.72929, 42.28268 ], [ 59.73424, 42.28401 ], [ 59.7375, 42.28338 ], [ 59.73915, 42.28306 ], [ 59.74774, 42.28024 ], [ 59.75386, 42.27744 ], [ 59.79286, 42.26864 ], [ 59.80364, 42.26877 ], [ 59.81143, 42.27442 ], [ 59.82135, 42.29745 ], [ 59.82796, 42.30632 ], [ 59.85056, 42.29283 ], [ 59.86958, 42.28808 ], [ 59.89322, 42.28258 ], [ 59.90693, 42.27353 ], [ 59.92164, 42.25164 ], [ 59.93949, 42.2336 ], [ 59.95714, 42.22221 ], [ 59.9697, 42.21841 ], [ 60.00748, 42.21458 ], [ 60.01391, 42.21268 ], [ 60.02885, 42.20496 ], [ 60.03913, 42.19593 ], [ 60.04572, 42.1867 ], [ 60.04984, 42.17681 ], [ 60.04933, 42.16652 ], [ 60.04397, 42.16017 ], [ 60.0343, 42.15318 ], [ 60.02443, 42.15145 ], [ 60.00601, 42.15303 ], [ 59.99684, 42.1561 ], [ 59.98664, 42.15301 ], [ 59.9733, 42.14674 ], [ 59.96947, 42.139 ], [ 59.97019, 42.12823 ], [ 59.9729, 42.12523 ], [ 59.97953, 42.11783 ], [ 59.99257, 42.10831 ], [ 59.99736, 42.10186 ], [ 59.99899, 42.09039 ], [ 60.0, 42.08247 ], [ 60.00081, 42.06522 ], [ 60.00127, 42.06473 ], [ 60.0056, 42.05004 ], [ 60.01451, 42.03438 ], [ 60.02564, 42.02259 ], [ 60.02999, 42.00972 ], [ 60.02718, 42.00723 ], [ 60.02249, 42.00248 ], [ 59.9814, 42.00046 ], [ 59.97675, 42.00022 ], [ 59.96139, 41.99924 ], [ 59.9493, 41.99204 ], [ 59.94521, 41.98659 ], [ 59.94927, 41.97351 ], [ 59.95804, 41.96678 ], [ 59.9765, 41.95354 ], [ 59.98604, 41.95573 ], [ 59.99556, 41.95677 ], [ 60.00282, 41.9512 ], [ 60.0065, 41.95185 ], [ 60.04504, 41.91641 ], [ 60.06265, 41.9082 ], [ 60.07648, 41.90481 ], [ 60.10471, 41.89788 ], [ 60.10648, 41.89735 ], [ 60.11505, 41.89478 ], [ 60.12687, 41.88846 ], [ 60.13768, 41.87872 ], [ 60.14919, 41.85844 ], [ 60.15789, 41.8501 ], [ 60.16573, 41.84474 ], [ 60.18418, 41.83467 ], [ 60.19571, 41.83063 ], [ 60.23137, 41.82469 ], [ 60.25838, 41.81541 ], [ 60.26291, 41.81261 ], [ 60.28357, 41.79402 ], [ 60.29776, 41.78572 ], [ 60.308, 41.77974 ], [ 60.31934, 41.76837 ], [ 60.31856, 41.76129 ], [ 60.313, 41.75862 ], [ 60.29712, 41.75883 ], [ 60.29146, 41.75227 ], [ 60.27384, 41.75663 ], [ 60.25697, 41.76692 ], [ 60.2386, 41.76556 ], [ 60.23128, 41.76633 ], [ 60.20354, 41.78339 ], [ 60.19109, 41.78698 ], [ 60.17958, 41.79193 ], [ 60.17956, 41.79101 ], [ 60.16467, 41.79486 ], [ 60.15159, 41.79822 ], [ 60.14644, 41.80058 ], [ 60.13672, 41.80367 ], [ 60.13208, 41.80339 ], [ 60.13029, 41.80329 ], [ 60.115, 41.80324 ], [ 60.0956, 41.81125 ], [ 60.08887, 41.81156 ], [ 60.08363, 41.80933 ], [ 60.07774, 41.79017 ], [ 60.07159, 41.77285 ], [ 60.06687, 41.76581 ], [ 60.0602, 41.75284 ], [ 60.06314, 41.74708 ], [ 60.06604, 41.7395 ], [ 60.06857, 41.72849 ], [ 60.08496, 41.70839 ], [ 60.10854, 41.68157 ], [ 60.11305, 41.67854 ], [ 60.13335, 41.65679 ], [ 60.14281, 41.64249 ], [ 60.15568, 41.62679 ], [ 60.15797, 41.624 ], [ 60.16376, 41.60952 ], [ 60.16366, 41.59052 ], [ 60.16208, 41.58766 ], [ 60.15827, 41.58075 ], [ 60.15207, 41.57556 ], [ 60.12644, 41.55916 ], [ 60.1119, 41.54813 ], [ 60.10371, 41.53495 ], [ 60.09763, 41.50482 ], [ 60.09577, 41.47326 ], [ 60.09695, 41.45609 ], [ 60.09335, 41.44332 ], [ 60.09373, 41.43211 ], [ 60.10608, 41.41183 ], [ 60.10966, 41.40881 ], [ 60.13125, 41.39482 ], [ 60.14403, 41.38877 ], [ 60.15952, 41.38144 ], [ 60.20407, 41.36349 ], [ 60.2698, 41.33038 ], [ 60.27695, 41.32641 ], [ 60.28269, 41.32357 ], [ 60.29499, 41.31723 ], [ 60.30608, 41.31158 ], [ 60.31245, 41.30817 ], [ 60.33633, 41.29538 ], [ 60.38335, 41.26378 ], [ 60.39927, 41.25308 ], [ 60.42381, 41.24105 ], [ 60.45348, 41.22802 ], [ 60.46936, 41.22138 ], [ 60.48501, 41.21748 ], [ 60.50558, 41.21648 ], [ 60.56181, 41.22337 ], [ 60.58087, 41.22261 ], [ 60.62305, 41.22489 ], [ 60.63499, 41.22541 ], [ 60.68372, 41.22753 ], [ 60.71554, 41.2279 ], [ 60.76886, 41.22764 ], [ 60.76889, 41.22856 ], [ 60.80507, 41.23271 ], [ 60.8462, 41.23128 ], [ 60.86107, 41.23076 ], [ 60.87657, 41.2323 ], [ 60.90821, 41.23605 ], [ 60.92103, 41.2354 ], [ 60.9306, 41.23493 ], [ 60.93703, 41.23709 ], [ 60.9387, 41.23783 ], [ 60.93979, 41.23831 ], [ 60.94767, 41.23803 ], [ 60.97156, 41.23641 ], [ 60.99304, 41.23755 ], [ 60.99954, 41.23741 ], [ 61.02451, 41.23421 ], [ 61.04605, 41.23469 ], [ 61.05222, 41.2293 ], [ 61.0575, 41.22438 ], [ 61.05844, 41.22295 ], [ 61.06184, 41.21857 ], [ 61.07453, 41.20916 ], [ 61.08846, 41.2091 ], [ 61.10234, 41.21195 ], [ 61.10462, 41.21196 ], [ 61.11795, 41.21214 ], [ 61.12544, 41.20969 ], [ 61.13223, 41.20475 ], [ 61.13811, 41.20005 ], [ 61.1396, 41.19899 ], [ 61.14075, 41.1977 ], [ 61.16102, 41.18079 ], [ 61.17133, 41.17324 ], [ 61.17848, 41.17012 ], [ 61.18533, 41.16699 ], [ 61.20542, 41.16198 ], [ 61.23853, 41.14912 ], [ 61.25356, 41.1465 ], [ 61.25968, 41.14819 ], [ 61.26413, 41.14603 ], [ 61.28741, 41.14528 ], [ 61.29261, 41.14676 ], [ 61.29981, 41.14522 ], [ 61.33595, 41.14828 ], [ 61.33907, 41.1505 ], [ 61.3448, 41.15014 ], [ 61.36187, 41.15317 ], [ 61.37239, 41.15865 ], [ 61.37991, 41.16488 ], [ 61.38439, 41.17095 ], [ 61.38931, 41.17988 ], [ 61.39307, 41.19066 ], [ 61.3954, 41.20544 ], [ 61.39827, 41.20982 ], [ 61.40508, 41.21857 ], [ 61.40577, 41.22828 ], [ 61.4031, 41.25061 ], [ 61.40387, 41.26181 ], [ 61.41102, 41.27354 ], [ 61.42154, 41.28588 ], [ 61.43176, 41.29089 ], [ 61.44301, 41.29154 ], [ 61.48103, 41.28673 ], [ 61.49358, 41.2823 ], [ 61.5159, 41.27214 ], [ 61.53181, 41.26854 ], [ 61.57023, 41.2662 ], [ 61.59824, 41.27557 ], [ 61.60854, 41.2753 ], [ 61.62045, 41.27019 ], [ 61.62688, 41.26499 ], [ 61.63515, 41.25311 ], [ 61.64112, 41.23761 ], [ 61.64993, 41.23143 ], [ 61.66059, 41.22589 ], [ 61.67497, 41.22208 ], [ 61.70245, 41.21999 ], [ 61.71283, 41.21514 ], [ 61.73669, 41.1939 ], [ 61.74623, 41.18403 ], [ 61.75675, 41.17574 ], [ 61.78069, 41.16319 ], [ 61.78898, 41.1593 ], [ 61.81323, 41.1536 ], [ 61.85406, 41.12134 ], [ 61.88041, 41.10939 ], [ 61.8906, 41.09513 ], [ 61.89853, 41.07798 ], [ 61.89751, 41.06953 ], [ 61.89445, 41.06253 ], [ 61.8973, 41.05814 ], [ 61.90096, 41.05342 ], [ 61.91072, 41.04902 ], [ 61.92302, 41.04729 ], [ 61.94699, 41.03699 ], [ 61.95472, 41.03448 ], [ 61.96373, 41.02736 ], [ 61.97088, 41.01914 ], [ 61.97716, 41.00591 ], [ 61.97663, 40.9954 ], [ 61.98057, 40.98361 ], [ 61.99157, 40.98009 ], [ 61.99637, 40.97354 ], [ 61.99489, 40.96626 ], [ 61.9914, 40.9469 ], [ 61.99273, 40.9313 ], [ 61.99563, 40.92298 ], [ 61.99582, 40.91656 ], [ 61.9969, 40.90028 ], [ 62.00012, 40.89241 ], [ 62.00149, 40.85987 ], [ 61.99998, 40.84779 ], [ 61.9981, 40.84052 ], [ 62.00092, 40.82464 ], [ 62.0001, 40.82032 ], [ 62.00684, 40.81074 ], [ 62.0264, 40.78682 ], [ 62.03217, 40.76994 ], [ 62.04208, 40.75774 ], [ 62.04546, 40.7121 ], [ 62.052, 40.69887 ], [ 62.0625, 40.69112 ], [ 62.06681, 40.68881 ], [ 62.07819, 40.67634 ], [ 62.08098, 40.67214 ], [ 62.09101, 40.65696 ], [ 62.0978, 40.64303 ], [ 62.09918, 40.64069 ], [ 62.10549, 40.62929 ], [ 62.1073, 40.61208 ], [ 62.11036, 40.60168 ], [ 62.11307, 40.59611 ], [ 62.12629, 40.579 ], [ 62.12814, 40.57437 ], [ 62.13485, 40.56576 ], [ 62.13545, 40.56499 ], [ 62.13881, 40.56176 ], [ 62.1443, 40.55648 ], [ 62.18854, 40.53108 ], [ 62.19637, 40.52054 ], [ 62.20772, 40.50851 ], [ 62.23631, 40.49411 ], [ 62.26367, 40.48478 ], [ 62.27168, 40.47789 ], [ 62.29747, 40.45646 ], [ 62.31377, 40.44793 ], [ 62.32862, 40.44584 ], [ 62.34946, 40.4383 ], [ 62.35038, 40.43324 ], [ 62.34394, 40.40896 ], [ 62.33325, 40.38345 ], [ 62.33457, 40.37495 ], [ 62.35005, 40.35751 ], [ 62.35904, 40.35194 ], [ 62.36566, 40.34784 ], [ 62.37508, 40.33998 ], [ 62.386, 40.32681 ], [ 62.39148, 40.31793 ], [ 62.39317, 40.31078 ], [ 62.39203, 40.30121 ], [ 62.38432, 40.28614 ], [ 62.38345, 40.2761 ], [ 62.38841, 40.26335 ], [ 62.38974, 40.24454 ], [ 62.39235, 40.23782 ], [ 62.40246, 40.21072 ], [ 62.40548, 40.19026 ], [ 62.41378, 40.17351 ], [ 62.41436, 40.15199 ], [ 62.41192, 40.12988 ], [ 62.39709, 40.11001 ], [ 62.3965, 40.09928 ], [ 62.4006, 40.09297 ], [ 62.41135, 40.08277 ], [ 62.42701, 40.06486 ], [ 62.42982, 40.03572 ], [ 62.4363, 40.02406 ], [ 62.43489, 40.01496 ], [ 62.43916, 40.0 ], [ 62.44266, 39.9911 ], [ 62.46228, 39.96973 ], [ 62.48795, 39.95139 ], [ 62.79797, 39.77576 ], [ 62.94858, 39.69612 ], [ 63.17042, 39.57411 ], [ 63.26214, 39.52754 ], [ 63.30367, 39.50367 ], [ 63.35847, 39.47477 ], [ 63.42041, 39.44539 ], [ 63.4532, 39.43072 ], [ 63.50848, 39.40115 ], [ 63.52945, 39.38793 ], [ 63.53913, 39.38358 ], [ 63.5798, 39.34998 ], [ 63.58282, 39.34749 ], [ 63.6287, 39.31295 ], [ 63.66013, 39.28929 ], [ 63.67689, 39.26857 ], [ 63.68586, 39.26249 ], [ 63.69205, 39.2518 ], [ 63.71692, 39.22838 ], [ 63.74538, 39.20673 ], [ 63.77663, 39.18911 ], [ 63.78708, 39.1819 ], [ 63.79895, 39.17587 ], [ 63.84652, 39.14885 ], [ 63.88582, 39.12907 ], [ 63.93187, 39.10199 ], [ 63.98386, 39.06988 ], [ 64.03281, 39.04111 ], [ 64.05646, 39.02954 ], [ 64.09497, 39.00741 ], [ 64.12612, 38.98685 ], [ 64.15871, 38.9663 ], [ 64.17712, 38.95919 ], [ 64.20707, 38.95623 ], [ 64.22965, 38.95656 ], [ 64.25142, 38.96086 ], [ 64.29686, 38.98141 ], [ 64.32227, 38.98632 ], [ 64.33108, 38.98581 ], [ 64.36346, 38.95867 ], [ 64.3704, 38.95286 ], [ 64.39719, 38.92989 ], [ 64.40307, 38.92486 ], [ 64.43708, 38.90142 ], [ 64.46964, 38.87681 ], [ 64.52283, 38.83823 ], [ 64.58166, 38.80595 ], [ 64.65283, 38.77264 ], [ 64.67489, 38.75924 ], [ 64.7379, 38.73034 ], [ 64.77598, 38.71197 ], [ 64.78925, 38.70073 ], [ 64.79731, 38.69626 ], [ 64.82664, 38.67949 ], [ 64.85148, 38.66949 ], [ 64.89016, 38.65621 ], [ 64.93974, 38.64074 ], [ 64.96597, 38.63358 ], [ 64.99807, 38.62134 ], [ 65.02504, 38.61246 ], [ 65.03746, 38.60574 ], [ 65.08872, 38.56746 ], [ 65.11789, 38.54411 ], [ 65.13531, 38.53017 ], [ 65.20211, 38.4767 ], [ 65.26049, 38.43385 ], [ 65.30054, 38.40849 ], [ 65.36233, 38.37642 ], [ 65.4393, 38.33814 ], [ 65.48137, 38.319 ], [ 65.52555, 38.3044 ], [ 65.56537, 38.29148 ], [ 65.637, 38.27069 ], [ 65.66521, 38.26111 ], [ 65.69631, 38.2521 ], [ 65.75628, 38.24145 ], [ 65.79745, 38.23585 ], [ 65.809, 38.23587 ], [ 65.81692, 38.23874 ], [ 65.8205, 38.24956 ], [ 65.82339, 38.25127 ], [ 65.8306, 38.25128 ], [ 65.83566, 38.25015 ], [ 65.84212, 38.26268 ], [ 65.85149, 38.27408 ], [ 65.87242, 38.27867 ], [ 65.87545, 38.27867 ], [ 65.89553, 38.2787 ], [ 65.91504, 38.27474 ], [ 65.93673, 38.25883 ], [ 65.95624, 38.24121 ], [ 65.97575, 38.23098 ], [ 65.9938, 38.22644 ], [ 66.00101, 38.22701 ], [ 66.02339, 38.22759 ], [ 66.0335, 38.22475 ], [ 66.04504, 38.21394 ], [ 66.0501, 38.21109 ], [ 66.05054, 38.21106 ], [ 66.05948, 38.21052 ], [ 66.06886, 38.20881 ], [ 66.07535, 38.2071 ], [ 66.08401, 38.20369 ], [ 66.09412, 38.20198 ], [ 66.09988, 38.19458 ], [ 66.10493, 38.18547 ], [ 66.11863, 38.17864 ], [ 66.14387, 38.17179 ], [ 66.19433, 38.16093 ], [ 66.21885, 38.15977 ], [ 66.23543, 38.15918 ], [ 66.24552, 38.15404 ], [ 66.25845, 38.13581 ], [ 66.27353, 38.11416 ], [ 66.28718, 38.10218 ], [ 66.30156, 38.08849 ], [ 66.31305, 38.0788 ], [ 66.32528, 38.07251 ], [ 66.33678, 38.0685 ], [ 66.34685, 38.06449 ], [ 66.35692, 38.05878 ], [ 66.37345, 38.05077 ], [ 66.37991, 38.04677 ], [ 66.40001, 38.03249 ], [ 66.41656, 38.02902 ], [ 66.42734, 38.02671 ], [ 66.43958, 38.02782 ], [ 66.48068, 38.0385 ], [ 66.49654, 38.04185 ], [ 66.55124, 38.03823 ], [ 66.56563, 38.0359 ], [ 66.58143, 38.03014 ], [ 66.58857, 38.02822 ], [ 66.59436, 38.02667 ], [ 66.60154, 38.02379 ], [ 66.62018, 38.01403 ], [ 66.63019, 38.00488 ], [ 66.64376, 37.99116 ], [ 66.65701, 37.97939 ], [ 66.67663, 37.96197 ], [ 66.68371, 37.94827 ], [ 66.6843, 37.9329 ], [ 66.67916, 37.91869 ], [ 66.66976, 37.91191 ], [ 66.62433, 37.8922 ], [ 66.61059, 37.88088 ], [ 66.59675, 37.85476 ], [ 66.58015, 37.84174 ], [ 66.56422, 37.82245 ], [ 66.5533, 37.79972 ], [ 66.54822, 37.79177 ], [ 66.53935, 37.74968 ], [ 66.53856, 37.7383 ], [ 66.5385, 37.72805 ], [ 66.54478, 37.70184 ], [ 66.54179, 37.68135 ], [ 66.5388, 37.66201 ], [ 66.53272, 37.6051 ], [ 66.53828, 37.57946 ], [ 66.54539, 37.57146 ], [ 66.63706, 37.48395 ], [ 66.64621, 37.46511 ], [ 66.64611, 37.45202 ], [ 66.63959, 37.43952 ], [ 66.61453, 37.43224 ], [ 66.57375, 37.42387 ], [ 66.5494, 37.41372 ], [ 66.53076, 37.40298 ], [ 66.52141, 37.39219 ], [ 66.51778, 37.38082 ], [ 66.52128, 37.36942 ], [ 66.52597, 37.3476 ], [ 66.54678, 37.35389 ], [ 66.56438, 37.35891 ], [ 66.56894, 37.36021 ], [ 66.59408, 37.36091 ], [ 66.61516, 37.3568 ], [ 66.62818, 37.35113 ], [ 66.63515, 37.34227 ], [ 66.63684, 37.34153 ], [ 66.64617, 37.33741 ], [ 66.66325, 37.33572 ], [ 66.68336, 37.33723 ], [ 66.69746, 37.34196 ], [ 66.71461, 37.34909 ], [ 66.72874, 37.35543 ], [ 66.73579, 37.357 ], [ 66.76295, 37.35845 ], [ 66.79308, 37.35667 ], [ 66.81918, 37.3525 ], [ 66.83124, 37.35162 ], [ 66.85342, 37.3587 ], [ 66.87559, 37.36336 ], [ 66.91389, 37.37272 ], [ 66.93712, 37.38138 ], [ 66.94923, 37.3853 ], [ 66.97137, 37.38675 ], [ 66.98643, 37.38422 ], [ 67.03654, 37.371 ], [ 67.06248, 37.35555 ], [ 67.08342, 37.34254 ], [ 67.09833, 37.33039 ], [ 67.0992, 37.31995 ], [ 67.10097, 37.30324 ], [ 67.10098, 37.30309 ], [ 67.10779, 37.28619 ], [ 67.12368, 37.27322 ], [ 67.14867, 37.26498 ], [ 67.1728, 37.26717 ], [ 67.19276, 37.25896 ], [ 67.20375, 37.25485 ], [ 67.21057, 37.24115 ], [ 67.21835, 37.22423 ], [ 67.22427, 37.21775 ], [ 67.24016, 37.20717 ], [ 67.26396, 37.18849 ], [ 67.27894, 37.18433 ], [ 67.29906, 37.18814 ], [ 67.31223, 37.19603 ], [ 67.32186, 37.20311 ], [ 67.33051, 37.20947 ], [ 67.35367, 37.21404 ], [ 67.38686, 37.2185 ], [ 67.39992, 37.21916 ], [ 67.41912, 37.22697 ], [ 67.44031, 37.23315 ], [ 67.46062, 37.24655 ], [ 67.48402, 37.26312 ], [ 67.49622, 37.2718 ], [ 67.5103, 37.27244 ], [ 67.53918, 37.26006 ], [ 67.55103, 37.24949 ], [ 67.55871, 37.23095 ], [ 67.56664, 37.22603 ], [ 67.57967, 37.22507 ], [ 67.58978, 37.22895 ], [ 67.59599, 37.2385 ], [ 67.61412, 37.24148 ], [ 67.62826, 37.24611 ], [ 67.63334, 37.24845 ], [ 67.64031, 37.24596 ], [ 67.66121, 37.23686 ], [ 67.69813, 37.22674 ], [ 67.73218, 37.2216 ], [ 67.73315, 37.22145 ], [ 67.75214, 37.21798 ], [ 67.76996, 37.2065 ], [ 67.78982, 37.18476 ], [ 67.8054, 37.19276 ], [ 67.82077, 37.2348 ], [ 67.8264, 37.27122 ], [ 67.83057, 37.32085 ], [ 67.83125, 37.32901 ], [ 67.83301, 37.34988 ], [ 67.83002, 37.3865 ], [ 67.82978, 37.38948 ], [ 67.82736, 37.41912 ], [ 67.82837, 37.46329 ], [ 67.83631, 37.48399 ], [ 67.85403, 37.53014 ], [ 67.87855, 37.54707 ], [ 67.88843, 37.55652 ], [ 67.91599, 37.59837 ], [ 67.93875, 37.64027 ], [ 67.98835, 37.69136 ], [ 68.00552, 37.7007 ], [ 68.0178, 37.70818 ], [ 68.04272, 37.73659 ], [ 68.04696, 37.74379 ], [ 68.10171, 37.83666 ], [ 68.11113, 37.85262 ], [ 68.12875, 37.87729 ], [ 68.15794, 37.88063 ], [ 68.16182, 37.88121 ], [ 68.21635, 37.88923 ], [ 68.24328, 37.89835 ], [ 68.27027, 37.90939 ], [ 68.27267, 37.91414 ], [ 68.27798, 37.92462 ], [ 68.27595, 37.9381 ], [ 68.2862, 37.95712 ], [ 68.28455, 37.98403 ], [ 68.3201, 38.03715 ], [ 68.34506, 38.05973 ], [ 68.3624, 38.07093 ], [ 68.36993, 38.07847 ], [ 68.37298, 38.09954 ], [ 68.39418, 38.15675 ], [ 68.40223, 38.18155 ], [ 68.40264, 38.19499 ], [ 68.37907, 38.22039 ], [ 68.36334, 38.24296 ], [ 68.36349, 38.24786 ], [ 68.3629, 38.2495 ], [ 68.34161, 38.27101 ], [ 68.32032, 38.29252 ], [ 68.29873, 38.30443 ], [ 68.26739, 38.31651 ], [ 68.23836, 38.32471 ], [ 68.2336, 38.32863 ], [ 68.23144, 38.33827 ], [ 68.23182, 38.3517 ], [ 68.22732, 38.36522 ], [ 68.2109, 38.38854 ], [ 68.19675, 38.40606 ], [ 68.16057, 38.42204 ], [ 68.15081, 38.4222 ], [ 68.13108, 38.41486 ], [ 68.11878, 38.41122 ], [ 68.10902, 38.41138 ], [ 68.11336, 38.42537 ], [ 68.11436, 38.42857 ], [ 68.12693, 38.4418 ], [ 68.13456, 38.45319 ], [ 68.13976, 38.46462 ], [ 68.14241, 38.47225 ], [ 68.1208, 38.48605 ], [ 68.09464, 38.51336 ], [ 68.06848, 38.54065 ], [ 68.06888, 38.556 ], [ 68.07213, 38.58665 ], [ 68.07275, 38.60968 ], [ 68.07549, 38.62115 ], [ 68.07574, 38.63074 ], [ 68.08578, 38.64017 ], [ 68.08599, 38.64785 ], [ 68.06727, 38.68077 ], [ 68.05813, 38.70587 ], [ 68.06818, 38.7153 ], [ 68.08563, 38.72653 ], [ 68.11018, 38.72805 ], [ 68.12004, 38.7298 ], [ 68.1277, 38.74119 ], [ 68.08006, 38.79379 ], [ 68.07296, 38.80349 ], [ 68.08057, 38.81297 ], [ 68.09534, 38.81464 ], [ 68.11256, 38.81628 ], [ 68.13474, 38.81975 ], [ 68.15697, 38.82513 ], [ 68.16967, 38.84027 ], [ 68.18461, 38.84769 ], [ 68.19698, 38.85132 ], [ 68.19491, 38.86478 ], [ 68.19064, 38.88788 ], [ 68.19811, 38.89159 ], [ 68.20116, 38.91265 ], [ 68.20048, 38.91713 ], [ 68.19909, 38.92611 ], [ 68.18456, 38.93403 ], [ 68.14594, 38.95963 ], [ 68.14108, 38.96163 ], [ 68.13418, 38.97901 ], [ 68.11535, 39.01002 ], [ 68.08865, 39.02388 ], [ 68.06165, 39.02624 ], [ 68.0368, 39.01704 ], [ 68.02185, 39.0096 ], [ 67.99982, 39.01378 ], [ 67.98772, 39.02164 ], [ 67.97571, 39.03334 ], [ 67.96587, 39.03349 ], [ 67.94349, 39.02424 ], [ 67.92869, 39.02254 ], [ 67.89917, 39.02298 ], [ 67.88655, 39.00974 ], [ 67.87648, 39.00029 ], [ 67.86419, 39.00047 ], [ 67.84456, 39.00267 ], [ 67.81537, 39.01651 ], [ 67.77101, 39.01329 ], [ 67.75979, 39.00673 ], [ 67.75355, 39.00298 ], [ 67.7486, 39.00113 ], [ 67.73516, 39.00515 ], [ 67.73144, 39.00424 ], [ 67.72523, 39.00144 ], [ 67.71536, 38.99966 ], [ 67.7036, 39.00366 ], [ 67.70071, 39.00465 ], [ 67.68868, 39.01727 ], [ 67.68388, 39.02309 ], [ 67.68093, 39.05766 ], [ 67.67479, 39.07153 ], [ 67.67154, 39.07888 ], [ 67.67387, 39.0951 ], [ 67.67443, 39.09898 ], [ 67.67613, 39.12101 ], [ 67.68371, 39.12955 ], [ 67.68391, 39.13913 ], [ 67.67786, 39.14401 ], [ 67.64339, 39.14541 ], [ 67.63115, 39.1494 ], [ 67.61693, 39.17738 ], [ 67.59491, 39.18533 ], [ 67.57155, 39.18849 ], [ 67.54928, 39.18492 ], [ 67.53203, 39.18513 ], [ 67.51363, 39.19014 ], [ 67.5002, 39.197 ], [ 67.4621, 39.20319 ], [ 67.4413, 39.21205 ], [ 67.42549, 39.22469 ], [ 67.39538, 39.26529 ], [ 67.3933, 39.27085 ], [ 67.38713, 39.28743 ], [ 67.38726, 39.29509 ], [ 67.39228, 39.29984 ], [ 67.41584, 39.30534 ], [ 67.43074, 39.30997 ], [ 67.46426, 39.31918 ], [ 67.48531, 39.32278 ], [ 67.49392, 39.32076 ], [ 67.5087, 39.31868 ], [ 67.5198, 39.31759 ], [ 67.52365, 39.32521 ], [ 67.51897, 39.33869 ], [ 67.50896, 39.35481 ], [ 67.4986, 39.37152 ], [ 67.48078, 39.41007 ], [ 67.4376, 39.48245 ], [ 67.42548, 39.49696 ], [ 67.42571, 39.50977 ], [ 67.42588, 39.519 ], [ 67.43355, 39.53234 ], [ 67.4435, 39.53415 ], [ 67.4583, 39.53111 ], [ 67.48543, 39.52505 ], [ 67.49162, 39.52498 ], [ 67.50046, 39.53351 ], [ 67.50014, 39.53609 ], [ 67.49938, 39.54214 ], [ 67.49602, 39.5604 ], [ 67.49871, 39.57187 ], [ 67.51367, 39.57649 ], [ 67.53094, 39.58141 ], [ 67.58472, 39.59673 ], [ 67.61571, 39.59731 ], [ 67.62817, 39.60003 ], [ 67.64854, 39.62566 ], [ 67.66234, 39.63315 ], [ 67.67356, 39.63588 ], [ 67.68604, 39.63955 ], [ 67.69747, 39.65186 ], [ 67.70502, 39.65656 ], [ 67.7137, 39.65644 ], [ 67.73585, 39.64848 ], [ 67.75556, 39.64247 ], [ 67.76052, 39.6424 ], [ 67.78173, 39.64787 ], [ 67.79677, 39.65437 ], [ 67.8066, 39.6504 ], [ 67.82741, 39.63861 ], [ 67.84946, 39.62679 ], [ 67.86059, 39.62568 ], [ 67.87918, 39.62541 ], [ 67.88892, 39.6176 ], [ 67.8999, 39.61073 ], [ 67.94047, 39.59671 ], [ 67.96034, 39.59833 ], [ 67.99006, 39.59692 ], [ 68.00973, 39.59087 ], [ 68.02316, 39.58299 ], [ 68.03414, 39.57611 ], [ 68.04523, 39.57402 ], [ 68.07006, 39.57554 ], [ 68.08609, 39.57241 ], [ 68.10694, 39.5644 ], [ 68.14036, 39.56289 ], [ 68.15519, 39.56169 ], [ 68.17135, 39.56334 ], [ 68.18362, 39.5593 ], [ 68.19337, 39.55338 ], [ 68.20941, 39.55119 ], [ 68.22936, 39.55564 ], [ 68.25669, 39.55804 ], [ 68.295, 39.55449 ], [ 68.31711, 39.55066 ], [ 68.32581, 39.54914 ], [ 68.33684, 39.54511 ], [ 68.34893, 39.53531 ], [ 68.35379, 39.53234 ], [ 68.3624, 39.53027 ], [ 68.3774, 39.53479 ], [ 68.40246, 39.54391 ], [ 68.46663, 39.53599 ], [ 68.49155, 39.5403 ], [ 68.51488, 39.5341 ], [ 68.52376, 39.54063 ], [ 68.53262, 39.54621 ], [ 68.53937, 39.56334 ], [ 68.54106, 39.57672 ], [ 68.54394, 39.58913 ], [ 68.55776, 39.59461 ], [ 68.57549, 39.60576 ], [ 68.60747, 39.63483 ], [ 68.62662, 39.65074 ], [ 68.63257, 39.67937 ], [ 68.59188, 39.72429 ], [ 68.58604, 39.73495 ], [ 68.58985, 39.73775 ], [ 68.59502, 39.7434 ], [ 68.6087, 39.74408 ], [ 68.62252, 39.74859 ], [ 68.62905, 39.75805 ], [ 68.63454, 39.77327 ], [ 68.64497, 39.78743 ], [ 68.64776, 39.796 ], [ 68.65195, 39.80933 ], [ 68.64855, 39.81898 ], [ 68.64545, 39.83726 ], [ 68.64591, 39.85067 ], [ 68.64735, 39.85638 ], [ 68.65749, 39.85618 ], [ 68.66103, 39.85611 ], [ 68.67339, 39.85393 ], [ 68.68442, 39.84892 ], [ 68.69974, 39.8601 ], [ 68.71624, 39.86933 ], [ 68.71838, 39.86887 ], [ 68.72612, 39.86721 ], [ 68.74301, 39.85247 ], [ 68.74971, 39.83125 ], [ 68.7619, 39.82428 ], [ 68.77191, 39.82598 ], [ 68.77701, 39.8297 ], [ 68.77975, 39.83635 ], [ 68.78286, 39.85354 ], [ 68.78932, 39.86011 ], [ 68.80935, 39.86351 ], [ 68.81699, 39.86813 ], [ 68.82494, 39.88138 ], [ 68.82412, 39.89289 ], [ 68.80662, 39.9249 ], [ 68.78416, 39.95797 ], [ 68.78234, 39.97621 ], [ 68.78507, 39.98286 ], [ 68.79517, 39.98648 ], [ 68.80385, 39.98533 ], [ 68.81952, 39.97062 ], [ 68.8383, 39.93954 ], [ 68.84868, 39.91727 ], [ 68.85007, 39.88753 ], [ 68.86317, 39.87191 ], [ 68.87667, 39.86682 ], [ 68.89414, 39.86834 ], [ 68.90954, 39.88046 ], [ 68.91371, 39.89186 ], [ 68.91294, 39.90434 ], [ 68.90119, 39.92281 ], [ 68.88314, 39.93951 ], [ 68.84466, 39.97677 ], [ 68.81238, 40.0 ], [ 68.81157, 40.00496 ], [ 68.82053, 40.0274 ], [ 68.81939, 40.03795 ], [ 68.81213, 40.04499 ], [ 68.79899, 40.05352 ], [ 68.79146, 40.06304 ], [ 68.79213, 40.07183 ], [ 68.79732, 40.07654 ], [ 68.80998, 40.07985 ], [ 68.82399, 40.07825 ], [ 68.8398, 40.05988 ], [ 68.84618, 40.03841 ], [ 68.85641, 40.03406 ], [ 68.85944, 40.03613 ], [ 68.86329, 40.04575 ], [ 68.8641, 40.0533 ], [ 68.87469, 40.06084 ], [ 68.88938, 40.06802 ], [ 68.92213, 40.07384 ], [ 68.93835, 40.07423 ], [ 68.95789, 40.07421 ], [ 68.99107, 40.06815 ], [ 69.00724, 40.06916 ], [ 69.01422, 40.08022 ], [ 69.01311, 40.09077 ], [ 69.00439, 40.1196 ], [ 68.99563, 40.14093 ], [ 68.98513, 40.14777 ], [ 68.97739, 40.15166 ], [ 68.90914, 40.14989 ], [ 68.87286, 40.14635 ], [ 68.84754, 40.14133 ], [ 68.79867, 40.13163 ], [ 68.77198, 40.12242 ], [ 68.70991, 40.10904 ], [ 68.68163, 40.0997 ], [ 68.63522, 40.09229 ], [ 68.60841, 40.09178 ], [ 68.57138, 40.10854 ], [ 68.55179, 40.11742 ], [ 68.5403, 40.12541 ], [ 68.5332, 40.13056 ], [ 68.53832, 40.14061 ], [ 68.58893, 40.15191 ], [ 68.60099, 40.15461 ], [ 68.6028, 40.15695 ], [ 68.62173, 40.1582 ], [ 68.63863, 40.16208 ], [ 68.66034, 40.16707 ], [ 68.75416, 40.19032 ], [ 68.77532, 40.19772 ], [ 68.81124, 40.18869 ], [ 68.82696, 40.18657 ], [ 68.8549, 40.19209 ], [ 68.87597, 40.20092 ], [ 68.88428, 40.20707 ], [ 68.92668, 40.21474 ], [ 68.9794, 40.21894 ], [ 68.99946, 40.22053 ], [ 69.02692, 40.22037 ], [ 69.05496, 40.22021 ], [ 69.08591, 40.21273 ], [ 69.10873, 40.21288 ], [ 69.13423, 40.21068 ], [ 69.13437, 40.21069 ], [ 69.14801, 40.21152 ], [ 69.17065, 40.20539 ], [ 69.19414, 40.20681 ], [ 69.21084, 40.21094 ], [ 69.23909, 40.20576 ], [ 69.28154, 40.20516 ], [ 69.29357, 40.19901 ], [ 69.30569, 40.19488 ], [ 69.31614, 40.20159 ], [ 69.30841, 40.21363 ], [ 69.29793, 40.23675 ], [ 69.28907, 40.24372 ], [ 69.25925, 40.2482 ], [ 69.25039, 40.25517 ], [ 69.25549, 40.26922 ], [ 69.24799, 40.27877 ], [ 69.25185, 40.289 ], [ 69.25996, 40.28948 ], [ 69.27008, 40.28633 ], [ 69.2898, 40.285 ], [ 69.30765, 40.28606 ], [ 69.332, 40.30374 ], [ 69.33213, 40.31874 ], [ 69.33938, 40.32792 ], [ 69.33901, 40.34789 ], [ 69.3164, 40.36156 ], [ 69.30739, 40.36977 ], [ 69.30765, 40.38354 ], [ 69.30139, 40.39692 ], [ 69.29264, 40.40265 ], [ 69.29777, 40.4167 ], [ 69.28763, 40.41985 ], [ 69.28375, 40.42587 ], [ 69.28062, 40.44068 ], [ 69.27435, 40.45406 ], [ 69.26533, 40.46227 ], [ 69.26557, 40.47604 ], [ 69.27308, 40.48273 ], [ 69.27393, 40.49535 ], [ 69.25968, 40.50479 ], [ 69.23071, 40.53528 ], [ 69.2293, 40.54071 ], [ 69.23137, 40.54746 ], [ 69.23521, 40.55134 ], [ 69.25259, 40.56145 ], [ 69.26903, 40.56876 ], [ 69.30831, 40.57271 ], [ 69.3272, 40.56984 ], [ 69.33369, 40.5711 ], [ 69.33929, 40.57552 ], [ 69.33872, 40.57847 ], [ 69.3474, 40.59085 ], [ 69.35776, 40.59463 ], [ 69.36338, 40.61552 ], [ 69.35118, 40.63573 ], [ 69.34375, 40.65434 ], [ 69.34644, 40.68813 ], [ 69.34835, 40.7121 ], [ 69.34869, 40.71344 ], [ 69.34967, 40.71744 ], [ 69.35691, 40.72378 ], [ 69.35673, 40.72904 ], [ 69.3612, 40.73936 ], [ 69.37141, 40.74947 ], [ 69.38688, 40.76478 ], [ 69.40097, 40.78202 ], [ 69.40802, 40.784 ], [ 69.43654, 40.78527 ], [ 69.4509, 40.77984 ], [ 69.50558, 40.76826 ], [ 69.52251, 40.76753 ], [ 69.53171, 40.76572 ], [ 69.54355, 40.75808 ], [ 69.54787, 40.75349 ], [ 69.56634, 40.72535 ], [ 69.57169, 40.70569 ], [ 69.58367, 40.69279 ], [ 69.61085, 40.67791 ], [ 69.6189, 40.66848 ], [ 69.62657, 40.66337 ], [ 69.64146, 40.66161 ], [ 69.65018, 40.65815 ], [ 69.65932, 40.64304 ], [ 69.66108, 40.63671 ], [ 69.66768, 40.62995 ], [ 69.67319, 40.62885 ], [ 69.68202, 40.62746 ], [ 69.70109, 40.62934 ], [ 69.71704, 40.62922 ], [ 69.73724, 40.63894 ], [ 69.74881, 40.65485 ], [ 69.76756, 40.68877 ], [ 69.77722, 40.69543 ], [ 69.78422, 40.69806 ], [ 69.79256, 40.69893 ], [ 69.8031, 40.69664 ], [ 69.82352, 40.69221 ], [ 69.8301, 40.69276 ], [ 69.85036, 40.70932 ], [ 69.86474, 40.71735 ], [ 69.87444, 40.72011 ], [ 69.88375, 40.72034 ], [ 69.9182, 40.70414 ], [ 69.92274, 40.7039 ], [ 69.94829, 40.7223 ], [ 69.96478, 40.73041 ], [ 70.00864, 40.73524 ], [ 70.01469, 40.7385 ], [ 70.02652, 40.74112 ], [ 70.04941, 40.75594 ], [ 70.08028, 40.76516 ], [ 70.11168, 40.78843 ], [ 70.13174, 40.80327 ], [ 70.1384, 40.81045 ], [ 70.1445, 40.8247 ], [ 70.1486, 40.82992 ], [ 70.15519, 40.83435 ], [ 70.16801, 40.83608 ], [ 70.17564, 40.83505 ], [ 70.19025, 40.82931 ], [ 70.2149, 40.82631 ], [ 70.24656, 40.8417 ], [ 70.26566, 40.84805 ], [ 70.27109, 40.85196 ], [ 70.28125, 40.86478 ], [ 70.28745, 40.86643 ], [ 70.29665, 40.87233 ], [ 70.30229, 40.8735 ], [ 70.31679, 40.88102 ], [ 70.33117, 40.88234 ], [ 70.3427, 40.88147 ], [ 70.35749, 40.88533 ], [ 70.36549, 40.89117 ], [ 70.37116, 40.8996 ], [ 70.37661, 40.90769 ], [ 70.37675, 40.91365 ], [ 70.37046, 40.92894 ], [ 70.37379, 40.94077 ], [ 70.37958, 40.944 ], [ 70.38846, 40.95423 ], [ 70.38904, 40.96662 ], [ 70.39534, 40.97514 ], [ 70.40866, 40.98671 ], [ 70.41189, 40.99189 ], [ 70.40455, 41.01309 ], [ 70.40858, 41.0238 ], [ 70.41273, 41.02879 ], [ 70.42053, 41.03371 ], [ 70.42593, 41.03573 ], [ 70.44053, 41.04121 ], [ 70.44862, 41.04224 ], [ 70.45182, 41.04177 ], [ 70.46421, 41.03994 ], [ 70.47717, 41.03637 ], [ 70.48378, 41.03299 ], [ 70.51659, 41.0021 ], [ 70.53456, 40.9921 ], [ 70.55186, 40.97451 ], [ 70.55265, 40.97202 ], [ 70.56637, 40.96184 ], [ 70.5915, 40.9361 ], [ 70.63454, 40.88752 ], [ 70.64543, 40.866 ], [ 70.66549, 40.85538 ], [ 70.67382, 40.84839 ], [ 70.68423, 40.82913 ], [ 70.69155, 40.81089 ], [ 70.70987, 40.79196 ], [ 70.71244, 40.78382 ], [ 70.70826, 40.77907 ], [ 70.70025, 40.77737 ], [ 70.68792, 40.78144 ], [ 70.67359, 40.80924 ], [ 70.66567, 40.81052 ], [ 70.66231, 40.80695 ], [ 70.6581, 40.79006 ], [ 70.65114, 40.77352 ], [ 70.65114, 40.7694 ], [ 70.65471, 40.76154 ], [ 70.65911, 40.75897 ], [ 70.68304, 40.75263 ], [ 70.75364, 40.75001 ], [ 70.76293, 40.74626 ], [ 70.76362, 40.74586 ], [ 70.77893, 40.73684 ], [ 70.78467, 40.73226 ], [ 70.78967, 40.72514 ], [ 70.78823, 40.71981 ], [ 70.7756, 40.71124 ], [ 70.77531, 40.71049 ], [ 70.76911, 40.69463 ], [ 70.75967, 40.68509 ], [ 70.74537, 40.68444 ], [ 70.73924, 40.68859 ], [ 70.73249, 40.6848 ], [ 70.73347, 40.68399 ], [ 70.73643, 40.66856 ], [ 70.7355, 40.65759 ], [ 70.72848, 40.65809 ], [ 70.7198, 40.6627 ], [ 70.69889, 40.6591 ], [ 70.68996, 40.65095 ], [ 70.6811, 40.64963 ], [ 70.67789, 40.64493 ], [ 70.66674, 40.64214 ], [ 70.65758, 40.63457 ], [ 70.65215, 40.63008 ], [ 70.63804, 40.62715 ], [ 70.63032, 40.62092 ], [ 70.60621, 40.58422 ], [ 70.58736, 40.56604 ], [ 70.5863, 40.56573 ], [ 70.57802, 40.56332 ], [ 70.56251, 40.56305 ], [ 70.55224, 40.5571 ], [ 70.53554, 40.55824 ], [ 70.52276, 40.55689 ], [ 70.51409, 40.55329 ], [ 70.50985, 40.54671 ], [ 70.50687, 40.53199 ], [ 70.49732, 40.52471 ], [ 70.49483, 40.51138 ], [ 70.48465, 40.50452 ], [ 70.46733, 40.5046 ], [ 70.45637, 40.50063 ], [ 70.42295, 40.49268 ], [ 70.41378, 40.48835 ], [ 70.39928, 40.48319 ], [ 70.37334, 40.47954 ], [ 70.3518, 40.46619 ], [ 70.3342, 40.46259 ], [ 70.3315, 40.45927 ], [ 70.33268, 40.44925 ], [ 70.33877, 40.43921 ], [ 70.34482, 40.4295 ], [ 70.35247, 40.41999 ], [ 70.35564, 40.4077 ], [ 70.36175, 40.40614 ], [ 70.36812, 40.40093 ], [ 70.37789, 40.3826 ], [ 70.38523, 40.37651 ], [ 70.39506, 40.37305 ], [ 70.40438, 40.37254 ], [ 70.4239, 40.37958 ], [ 70.43078, 40.37965 ], [ 70.44631, 40.37597 ], [ 70.45231, 40.37295 ], [ 70.48763, 40.36746 ], [ 70.55053, 40.34589 ], [ 70.56657, 40.3349 ], [ 70.57172, 40.32574 ], [ 70.56859, 40.31119 ], [ 70.57656, 40.29597 ], [ 70.58054, 40.28218 ], [ 70.57246, 40.26582 ], [ 70.571, 40.24471 ], [ 70.56815, 40.24276 ], [ 70.57972, 40.22723 ], [ 70.59511, 40.22078 ], [ 70.60212, 40.20621 ], [ 70.60952, 40.19874 ], [ 70.61811, 40.18286 ], [ 70.62762, 40.17067 ], [ 70.63657, 40.16647 ], [ 70.64562, 40.16502 ], [ 70.678, 40.17094 ], [ 70.68548, 40.17178 ], [ 70.68632, 40.17188 ], [ 70.70966, 40.17453 ], [ 70.7134, 40.17652 ], [ 70.74368, 40.17844 ], [ 70.77045, 40.18388 ], [ 70.77789, 40.18395 ], [ 70.83124, 40.20211 ], [ 70.86801, 40.22301 ], [ 70.87377, 40.22164 ], [ 70.89765, 40.22601 ], [ 70.91606, 40.22742 ], [ 70.96761, 40.22851 ], [ 70.97027, 40.238 ], [ 70.96983, 40.24461 ], [ 70.96316, 40.25991 ], [ 70.96615, 40.26437 ], [ 70.97599, 40.2691 ], [ 71.0207, 40.28408 ], [ 71.03217, 40.2868 ], [ 71.04336, 40.28789 ], [ 71.06304, 40.28981 ], [ 71.08045, 40.29778 ], [ 71.11821, 40.31932 ], [ 71.13144, 40.32279 ], [ 71.15268, 40.32243 ], [ 71.18268, 40.33017 ], [ 71.20049, 40.33196 ], [ 71.22211, 40.33046 ], [ 71.24396, 40.32484 ], [ 71.25443, 40.32476 ], [ 71.27129, 40.32765 ], [ 71.27487, 40.3271 ], [ 71.27732, 40.32673 ], [ 71.27774, 40.31004 ], [ 71.281, 40.30558 ], [ 71.28677, 40.30396 ], [ 71.3031, 40.30569 ], [ 71.32852, 40.31505 ], [ 71.33622, 40.31623 ], [ 71.34304, 40.31213 ], [ 71.34104, 40.30565 ], [ 71.34463, 40.30052 ], [ 71.35802, 40.30145 ], [ 71.36886, 40.30503 ], [ 71.37945, 40.30265 ], [ 71.38838, 40.29816 ], [ 71.40583, 40.28304 ], [ 71.41199, 40.27771 ], [ 71.4256, 40.26949 ], [ 71.43867, 40.26559 ], [ 71.44553, 40.26559 ], [ 71.45882, 40.26284 ], [ 71.48691, 40.26242 ], [ 71.49072, 40.25844 ], [ 71.49219, 40.25368 ], [ 71.4881, 40.23137 ], [ 71.4928, 40.22238 ], [ 71.53113, 40.20926 ], [ 71.54501, 40.20103 ], [ 71.55105, 40.19963 ], [ 71.5628, 40.20277 ], [ 71.58457, 40.2028 ], [ 71.60216, 40.18691 ], [ 71.60844, 40.18643 ], [ 71.61095, 40.18972 ], [ 71.60923, 40.19904 ], [ 71.61373, 40.21473 ], [ 71.60852, 40.23857 ], [ 71.60869, 40.24635 ], [ 71.61104, 40.25237 ], [ 71.63748, 40.25438 ], [ 71.65427, 40.25309 ], [ 71.66534, 40.24704 ], [ 71.68019, 40.23197 ], [ 71.6842, 40.21861 ], [ 71.68054, 40.18716 ], [ 71.68272, 40.18319 ], [ 71.68385, 40.1811 ], [ 71.69166, 40.17449 ], [ 71.6968, 40.17328 ], [ 71.70619, 40.16489 ], [ 71.71619, 40.1508 ], [ 71.72138, 40.14845 ], [ 71.72908, 40.14938 ], [ 71.74905, 40.1603 ], [ 71.76135, 40.16434 ], [ 71.77758, 40.16737 ], [ 71.81834, 40.18578 ], [ 71.83134, 40.19372 ], [ 71.84299, 40.19316 ], [ 71.85178, 40.19617 ], [ 71.85925, 40.20143 ], [ 71.86052, 40.20581 ], [ 71.85879, 40.21033 ], [ 71.84291, 40.22906 ], [ 71.84178, 40.23359 ], [ 71.84466, 40.24146 ], [ 71.84981, 40.2455 ], [ 71.85506, 40.24795 ], [ 71.86252, 40.24771 ], [ 71.87256, 40.24413 ], [ 71.89117, 40.24195 ], [ 71.89872, 40.24012 ], [ 71.91844, 40.22768 ], [ 71.92604, 40.22493 ], [ 71.93948, 40.22464 ], [ 71.95381, 40.23009 ], [ 71.96011, 40.23531 ], [ 71.96996, 40.2532 ], [ 71.99417, 40.27037 ], [ 71.99556, 40.27842 ], [ 71.98991, 40.28397 ], [ 71.97431, 40.29317 ], [ 71.95328, 40.29702 ], [ 71.94925, 40.30162 ], [ 71.94859, 40.30533 ], [ 71.95122, 40.30965 ], [ 71.96006, 40.31741 ], [ 71.97142, 40.3239 ], [ 71.99706, 40.33242 ], [ 72.01436, 40.35121 ], [ 72.0254, 40.35748 ], [ 72.03802, 40.36835 ], [ 72.04388, 40.37698 ], [ 72.04793, 40.37962 ], [ 72.07077, 40.38346 ], [ 72.07751, 40.3864 ], [ 72.08376, 40.39298 ], [ 72.0854, 40.4024 ], [ 72.09919, 40.41422 ], [ 72.10221, 40.41979 ], [ 72.10179, 40.42155 ], [ 72.09846, 40.43546 ], [ 72.09247, 40.4481 ], [ 72.10242, 40.4653 ], [ 72.12174, 40.45555 ], [ 72.13447, 40.45224 ], [ 72.1425, 40.45338 ], [ 72.15249, 40.45732 ], [ 72.15346, 40.45803 ], [ 72.16609, 40.46729 ], [ 72.17265, 40.47541 ], [ 72.18351, 40.49826 ], [ 72.18563, 40.49857 ], [ 72.19196, 40.49953 ], [ 72.21508, 40.49538 ], [ 72.24046, 40.49697 ], [ 72.25025, 40.49243 ], [ 72.25164, 40.48835 ], [ 72.24441, 40.46964 ], [ 72.24454, 40.4669 ], [ 72.2483, 40.46311 ], [ 72.25407, 40.46121 ], [ 72.27352, 40.46149 ], [ 72.27996, 40.45801 ], [ 72.29067, 40.44617 ], [ 72.29771, 40.4427 ], [ 72.31484, 40.44772 ], [ 72.3212, 40.44605 ], [ 72.3353, 40.43842 ], [ 72.3622, 40.41876 ], [ 72.36877, 40.41207 ], [ 72.37854, 40.40752 ], [ 72.38642, 40.40497 ], [ 72.39902, 40.40415 ], [ 72.41051, 40.40124 ], [ 72.41704, 40.40232 ], [ 72.42081, 40.40493 ], [ 72.42216, 40.41548 ], [ 72.41617, 40.42927 ], [ 72.42625, 40.45039 ], [ 72.44092, 40.47333 ], [ 72.4356, 40.48577 ], [ 72.42823, 40.49016 ], [ 72.42505, 40.49443 ], [ 72.422, 40.50281 ], [ 72.42011, 40.51877 ], [ 72.41446, 40.5248 ], [ 72.40875, 40.52511 ], [ 72.40166, 40.52288 ], [ 72.39117, 40.52307 ], [ 72.38814, 40.53054 ], [ 72.39168, 40.53886 ], [ 72.39754, 40.54198 ], [ 72.41402, 40.54194 ], [ 72.41994, 40.54369 ], [ 72.42744, 40.55027 ], [ 72.42908, 40.5542 ], [ 72.42825, 40.55944 ], [ 72.4241, 40.56528 ], [ 72.41946, 40.5686 ], [ 72.39674, 40.57397 ], [ 72.39331, 40.57709 ], [ 72.38671, 40.59087 ], [ 72.37989, 40.59595 ], [ 72.35562, 40.6022 ], [ 72.35242, 40.60691 ], [ 72.35577, 40.61249 ], [ 72.36102, 40.61583 ], [ 72.36916, 40.61489 ], [ 72.38472, 40.61597 ], [ 72.39117, 40.61934 ], [ 72.40605, 40.62297 ], [ 72.41412, 40.62008 ], [ 72.41455, 40.61992 ], [ 72.44479, 40.60055 ], [ 72.45658, 40.58415 ], [ 72.47632, 40.56406 ], [ 72.48623, 40.55653 ], [ 72.49074, 40.55595 ], [ 72.50554, 40.56065 ], [ 72.51646, 40.55772 ], [ 72.51829, 40.55638 ], [ 72.53623, 40.54333 ], [ 72.55117, 40.53706 ], [ 72.57062, 40.53775 ], [ 72.58298, 40.53598 ], [ 72.61308, 40.51748 ], [ 72.62209, 40.51677 ], [ 72.63666, 40.5194 ], [ 72.64909, 40.53705 ], [ 72.65363, 40.56025 ], [ 72.65678, 40.56421 ], [ 72.67556, 40.57447 ], [ 72.67657, 40.58707 ], [ 72.68352, 40.59317 ], [ 72.71613, 40.5875 ], [ 72.72533, 40.58221 ], [ 72.73683, 40.5715 ], [ 72.74811, 40.56649 ], [ 72.75707, 40.56737 ], [ 72.76207, 40.56999 ], [ 72.7635, 40.58763 ], [ 72.76193, 40.6063 ], [ 72.76124, 40.61459 ], [ 72.7597, 40.63282 ], [ 72.76185, 40.63972 ], [ 72.77798, 40.64967 ], [ 72.77717, 40.65537 ], [ 72.76907, 40.66297 ], [ 72.7661, 40.67022 ], [ 72.7671, 40.6755 ], [ 72.77379, 40.68137 ], [ 72.78931, 40.68295 ], [ 72.79084, 40.68311 ], [ 72.79933, 40.681 ], [ 72.81526, 40.68066 ], [ 72.83047, 40.68327 ], [ 72.84859, 40.68891 ], [ 72.86561, 40.70001 ], [ 72.87025, 40.70468 ], [ 72.88834, 40.71123 ], [ 72.89925, 40.71694 ], [ 72.91807, 40.72029 ], [ 72.91914, 40.72398 ], [ 72.92754, 40.72437 ], [ 72.93677, 40.72685 ], [ 72.96698, 40.73957 ], [ 72.99207, 40.75287 ], [ 73.00572, 40.76709 ], [ 73.04168, 40.77098 ], [ 73.05922, 40.77703 ], [ 73.06849, 40.77858 ], [ 73.09492, 40.78914 ], [ 73.10388, 40.79091 ], [ 73.11364, 40.79612 ], [ 73.12295, 40.80612 ], [ 73.12775, 40.81581 ], [ 73.13227, 40.83464 ], [ 73.13108, 40.84354 ], [ 73.12725, 40.85056 ], [ 73.11801, 40.85679 ], [ 73.10953, 40.85846 ], [ 73.08546, 40.85801 ], [ 73.06974, 40.85063 ], [ 73.06496, 40.8494 ], [ 73.05888, 40.85111 ], [ 73.04045, 40.86196 ], [ 73.02808, 40.86287 ], [ 73.02107, 40.86525 ], [ 73.00142, 40.88522 ], [ 72.99918, 40.88929 ], [ 72.98983, 40.88933 ], [ 72.98484, 40.88558 ], [ 72.97569, 40.8623 ], [ 72.9832, 40.85422 ], [ 72.99577, 40.8476 ], [ 72.99795, 40.84536 ], [ 72.999, 40.83883 ], [ 72.99133, 40.83538 ], [ 72.97885, 40.83508 ], [ 72.97021, 40.82716 ], [ 72.95632, 40.82167 ], [ 72.95228, 40.81679 ], [ 72.93883, 40.81423 ], [ 72.93828, 40.81262 ], [ 72.92717, 40.81194 ], [ 72.91293, 40.81462 ], [ 72.90924, 40.81706 ], [ 72.9011, 40.83427 ], [ 72.88224, 40.84829 ], [ 72.8682, 40.86172 ], [ 72.8596, 40.86634 ], [ 72.85046, 40.86913 ], [ 72.83479, 40.86948 ], [ 72.78694, 40.86023 ], [ 72.77235, 40.8638 ], [ 72.7523, 40.86063 ], [ 72.73207, 40.85401 ], [ 72.70751, 40.85826 ], [ 72.69273, 40.85885 ], [ 72.68081, 40.85561 ], [ 72.6467, 40.86513 ], [ 72.62168, 40.87325 ], [ 72.61796, 40.87568 ], [ 72.59212, 40.88148 ], [ 72.58171, 40.88581 ], [ 72.57549, 40.89047 ], [ 72.57287, 40.90298 ], [ 72.57315, 40.91043 ], [ 72.57345, 40.91832 ], [ 72.57114, 40.9233 ], [ 72.55861, 40.93467 ], [ 72.55568, 40.93986 ], [ 72.5399, 40.95687 ], [ 72.52993, 40.97173 ], [ 72.52091, 40.97814 ], [ 72.51079, 40.98202 ], [ 72.50546, 40.98164 ], [ 72.50057, 40.9807 ], [ 72.49058, 40.96892 ], [ 72.48743, 40.96856 ], [ 72.48337, 40.97218 ], [ 72.48318, 40.97592 ], [ 72.50093, 41.00077 ], [ 72.50323, 41.01134 ], [ 72.50082, 41.02546 ], [ 72.49758, 41.03065 ], [ 72.48317, 41.03579 ], [ 72.46644, 41.03858 ], [ 72.44777, 41.03721 ], [ 72.43333, 41.04128 ], [ 72.43057, 41.04365 ], [ 72.42145, 41.04502 ], [ 72.41151, 41.04455 ], [ 72.40692, 41.0458 ], [ 72.39047, 41.05569 ], [ 72.36664, 41.06149 ], [ 72.36182, 41.06137 ], [ 72.35866, 41.06426 ], [ 72.35169, 41.06477 ], [ 72.3436, 41.06319 ], [ 72.3351, 41.05748 ], [ 72.31914, 41.04289 ], [ 72.29293, 41.02781 ], [ 72.27646, 41.02486 ], [ 72.26237, 41.02014 ], [ 72.24576, 41.01457 ], [ 72.23274, 41.01021 ], [ 72.22313, 41.00515 ], [ 72.2148, 41.00275 ], [ 72.20035, 41.00256 ], [ 72.18706, 41.00869 ], [ 72.18598, 41.00919 ], [ 72.17815, 41.01515 ], [ 72.17617, 41.01876 ], [ 72.17954, 41.02411 ], [ 72.2068, 41.02896 ], [ 72.21213, 41.03116 ], [ 72.21827, 41.03567 ], [ 72.2257, 41.04479 ], [ 72.22836, 41.05241 ], [ 72.21867, 41.06588 ], [ 72.21244, 41.08928 ], [ 72.21171, 41.10481 ], [ 72.20691, 41.11704 ], [ 72.20366, 41.1412 ], [ 72.19907, 41.14886 ], [ 72.19273, 41.15486 ], [ 72.1891, 41.1566 ], [ 72.18281, 41.15963 ], [ 72.17308, 41.16074 ], [ 72.16328, 41.15681 ], [ 72.1406, 41.1626 ], [ 72.12423, 41.16307 ], [ 72.10292, 41.1531 ], [ 72.08354, 41.14089 ], [ 72.07604, 41.13954 ], [ 72.06128, 41.14439 ], [ 72.04061, 41.15451 ], [ 72.02374, 41.16277 ], [ 71.99898, 41.16779 ], [ 71.98099, 41.17025 ], [ 71.97253, 41.17 ], [ 71.95312, 41.15868 ], [ 71.94744, 41.15715 ], [ 71.93758, 41.16075 ], [ 71.92542, 41.16154 ], [ 71.90681, 41.16718 ], [ 71.89036, 41.17217 ], [ 71.88335, 41.17883 ], [ 71.88516, 41.19055 ], [ 71.88381, 41.19326 ], [ 71.87164, 41.19427 ], [ 71.8636, 41.19746 ], [ 71.86201, 41.20085 ], [ 71.86905, 41.22073 ], [ 71.87595, 41.23352 ], [ 71.888, 41.2467 ], [ 71.89581, 41.25974 ], [ 71.91272, 41.27283 ], [ 71.92295, 41.28617 ], [ 71.93516, 41.30827 ], [ 71.93404, 41.31235 ], [ 71.93274, 41.31414 ], [ 71.92696, 41.3142 ], [ 71.9108, 41.32174 ], [ 71.89232, 41.33858 ], [ 71.8863, 41.34916 ], [ 71.88559, 41.35692 ], [ 71.88914, 41.3703 ], [ 71.88609, 41.37639 ], [ 71.87796, 41.38095 ], [ 71.86905, 41.37703 ], [ 71.86163, 41.36788 ], [ 71.84416, 41.36507 ], [ 71.83885, 41.36789 ], [ 71.83747, 41.37105 ], [ 71.84302, 41.39227 ], [ 71.82965, 41.40949 ], [ 71.81659, 41.42076 ], [ 71.79929, 41.43146 ], [ 71.77668, 41.46738 ], [ 71.76868, 41.46897 ], [ 71.76575, 41.46705 ], [ 71.76328, 41.43951 ], [ 71.75956, 41.43528 ], [ 71.75293, 41.43416 ], [ 71.75233, 41.43503 ], [ 71.74831, 41.44088 ], [ 71.74618, 41.45203 ], [ 71.73955, 41.4564 ], [ 71.73131, 41.45684 ], [ 71.72327, 41.45384 ], [ 71.71773, 41.44955 ], [ 71.71504, 41.44306 ], [ 71.72384, 41.43234 ], [ 71.72252, 41.42315 ], [ 71.71663, 41.41976 ], [ 71.70757, 41.42406 ], [ 71.69872, 41.43568 ], [ 71.69648, 41.44316 ], [ 71.69853, 41.45009 ], [ 71.7167, 41.46805 ], [ 71.72661, 41.48164 ], [ 71.72802, 41.48923 ], [ 71.72453, 41.49736 ], [ 71.7228, 41.51219 ], [ 71.72558, 41.51708 ], [ 71.7243, 41.52917 ], [ 71.73355, 41.54388 ], [ 71.73077, 41.5502 ], [ 71.726, 41.55371 ], [ 71.71924, 41.55465 ], [ 71.70128, 41.55455 ], [ 71.69344, 41.55293 ], [ 71.67673, 41.54119 ], [ 71.6603, 41.51916 ], [ 71.6507, 41.51107 ], [ 71.64475, 41.50859 ], [ 71.62968, 41.50606 ], [ 71.6234, 41.50402 ], [ 71.6199, 41.50117 ], [ 71.61823, 41.49837 ], [ 71.61923, 41.49153 ], [ 71.62615, 41.48763 ], [ 71.6509, 41.4859 ], [ 71.66328, 41.48217 ], [ 71.66999, 41.47643 ], [ 71.67403, 41.46947 ], [ 71.67678, 41.45834 ], [ 71.66937, 41.43842 ], [ 71.65977, 41.4253 ], [ 71.65892, 41.41864 ], [ 71.67615, 41.39858 ], [ 71.66976, 41.38785 ], [ 71.65552, 41.37619 ], [ 71.64766, 41.36472 ], [ 71.64188, 41.34875 ], [ 71.63702, 41.34859 ], [ 71.6292, 41.35269 ], [ 71.62366, 41.34863 ], [ 71.61673, 41.33696 ], [ 71.60382, 41.32899 ], [ 71.60017, 41.32361 ], [ 71.6001, 41.31949 ], [ 71.5965, 41.31892 ], [ 71.591, 41.3034 ], [ 71.58784, 41.30033 ], [ 71.58536, 41.29923 ], [ 71.58281, 41.2981 ], [ 71.57642, 41.29836 ], [ 71.56992, 41.30066 ], [ 71.55683, 41.3119 ], [ 71.54813, 41.31551 ], [ 71.53592, 41.31672 ], [ 71.52898, 41.3158 ], [ 71.51991, 41.31001 ], [ 71.50548, 41.3077 ], [ 71.48769, 41.31604 ], [ 71.48077, 41.31489 ], [ 71.47192, 41.30544 ], [ 71.45704, 41.29533 ], [ 71.44965, 41.28684 ], [ 71.44853, 41.28017 ], [ 71.45383, 41.26752 ], [ 71.44828, 41.25361 ], [ 71.44819, 41.24491 ], [ 71.45219, 41.23886 ], [ 71.46449, 41.23584 ], [ 71.47073, 41.23285 ], [ 71.4763, 41.22571 ], [ 71.47718, 41.22116 ], [ 71.45788, 41.18847 ], [ 71.45102, 41.15597 ], [ 71.43563, 41.12959 ], [ 71.43507, 41.12362 ], [ 71.42737, 41.11581 ], [ 71.41287, 41.10525 ], [ 71.40141, 41.10463 ], [ 71.3959, 41.10736 ], [ 71.3958, 41.10741 ], [ 71.39249, 41.1121 ], [ 71.38743, 41.141 ], [ 71.3824, 41.14906 ], [ 71.36523, 41.16266 ], [ 71.35686, 41.16581 ], [ 71.3453, 41.16569 ], [ 71.33419, 41.16074 ], [ 71.32668, 41.15404 ], [ 71.32175, 41.13094 ], [ 71.31312, 41.11851 ], [ 71.29572, 41.10623 ], [ 71.28465, 41.10424 ], [ 71.27637, 41.10601 ], [ 71.27334, 41.11094 ], [ 71.2782, 41.15001 ], [ 71.27251, 41.17339 ], [ 71.26694, 41.18029 ], [ 71.25747, 41.18636 ], [ 71.2463, 41.19054 ], [ 71.2399, 41.19123 ], [ 71.23183, 41.18934 ], [ 71.22656, 41.18641 ], [ 71.22364, 41.17989 ], [ 71.2245, 41.171 ], [ 71.21776, 41.16732 ], [ 71.21165, 41.16825 ], [ 71.20238, 41.18554 ], [ 71.1954, 41.18575 ], [ 71.18783, 41.18089 ], [ 71.17767, 41.16908 ], [ 71.16736, 41.1694 ], [ 71.16176, 41.1669 ], [ 71.1439, 41.15252 ], [ 71.133, 41.14777 ], [ 71.12426, 41.14722 ], [ 71.09807, 41.15427 ], [ 71.08919, 41.16035 ], [ 71.07934, 41.17141 ], [ 71.076, 41.17699 ], [ 71.05868, 41.18013 ], [ 71.04637, 41.18478 ], [ 71.03207, 41.19321 ], [ 71.01929, 41.19267 ], [ 70.99827, 41.18188 ], [ 70.96168, 41.16309 ], [ 70.94946, 41.16644 ], [ 70.93768, 41.18658 ], [ 70.91782, 41.20057 ], [ 70.89918, 41.20944 ], [ 70.88673, 41.22333 ], [ 70.87536, 41.23144 ], [ 70.86954, 41.23213 ], [ 70.86117, 41.23043 ], [ 70.85413, 41.22695 ], [ 70.84399, 41.21579 ], [ 70.83282, 41.19749 ], [ 70.826, 41.18211 ], [ 70.81953, 41.17499 ], [ 70.81243, 41.17242 ], [ 70.79388, 41.17817 ], [ 70.78316, 41.1882 ], [ 70.77849, 41.2029 ], [ 70.77906, 41.22078 ], [ 70.79496, 41.23629 ], [ 70.79883, 41.24606 ], [ 70.79661, 41.2517 ], [ 70.78314, 41.26651 ], [ 70.77774, 41.27866 ], [ 70.7763, 41.30791 ], [ 70.77692, 41.30893 ], [ 70.78527, 41.32292 ], [ 70.79063, 41.34191 ], [ 70.78008, 41.37538 ], [ 70.76861, 41.39164 ], [ 70.74081, 41.42359 ], [ 70.72491, 41.44187 ], [ 70.71594, 41.46097 ], [ 70.7118, 41.46356 ], [ 70.68552, 41.46913 ], [ 70.67886, 41.46863 ], [ 70.65429, 41.45481 ], [ 70.6443, 41.45394 ], [ 70.63901, 41.45556 ], [ 70.63665, 41.45455 ], [ 70.62774, 41.45579 ], [ 70.59482, 41.44802 ], [ 70.58366, 41.44252 ], [ 70.57361, 41.43431 ], [ 70.56476, 41.42226 ], [ 70.54771, 41.4101 ], [ 70.5284, 41.39967 ], [ 70.51936, 41.3986 ], [ 70.4834, 41.3996 ], [ 70.47911, 41.40193 ], [ 70.47674, 41.40322 ], [ 70.46564, 41.4174 ], [ 70.46204, 41.42481 ], [ 70.45824, 41.42671 ], [ 70.45161, 41.43398 ], [ 70.44108, 41.4404 ], [ 70.43327, 41.44305 ], [ 70.43085, 41.445 ], [ 70.42225, 41.45196 ], [ 70.41322, 41.46257 ], [ 70.40713, 41.46666 ], [ 70.39449, 41.46863 ], [ 70.38171, 41.46854 ], [ 70.37101, 41.47701 ], [ 70.36233, 41.49473 ], [ 70.35729, 41.50092 ], [ 70.34872, 41.50536 ], [ 70.32029, 41.51443 ], [ 70.29721, 41.51731 ], [ 70.27625, 41.51638 ], [ 70.26702, 41.51368 ], [ 70.26504, 41.51176 ], [ 70.25661, 41.51047 ], [ 70.2532, 41.51124 ], [ 70.24719, 41.51005 ], [ 70.22677, 41.51395 ], [ 70.19976, 41.51251 ], [ 70.18618, 41.51855 ], [ 70.18265, 41.52457 ], [ 70.17889, 41.54479 ], [ 70.18075, 41.55221 ], [ 70.18065, 41.57682 ], [ 70.18663, 41.58891 ], [ 70.19556, 41.59831 ], [ 70.22299, 41.607 ], [ 70.23801, 41.60896 ], [ 70.25162, 41.60853 ], [ 70.25972, 41.6066 ], [ 70.26578, 41.60709 ], [ 70.30168, 41.63204 ], [ 70.30771, 41.633 ], [ 70.31578, 41.63129 ], [ 70.32983, 41.63122 ], [ 70.34826, 41.63775 ], [ 70.38094, 41.66138 ], [ 70.39358, 41.6759 ], [ 70.40002, 41.67961 ], [ 70.44472, 41.69789 ], [ 70.45644, 41.70048 ], [ 70.47581, 41.70912 ], [ 70.49238, 41.71886 ], [ 70.50697, 41.74051 ], [ 70.5093, 41.75436 ], [ 70.50776, 41.76276 ], [ 70.50888, 41.77633 ], [ 70.5141, 41.78434 ], [ 70.52746, 41.79383 ], [ 70.5387, 41.79911 ], [ 70.55434, 41.80296 ], [ 70.57853, 41.81568 ], [ 70.6012, 41.82757 ], [ 70.60834, 41.84711 ], [ 70.6168, 41.85295 ], [ 70.63251, 41.86001 ], [ 70.6406, 41.86675 ], [ 70.65658, 41.89145 ], [ 70.67924, 41.90886 ], [ 70.70494, 41.91814 ], [ 70.71899, 41.91893 ], [ 70.73806, 41.91374 ], [ 70.74695, 41.91386 ], [ 70.75071, 41.91699 ], [ 70.75437, 41.93019 ], [ 70.75906, 41.93335 ], [ 70.77369, 41.92591 ], [ 70.79617, 41.92015 ], [ 70.8152, 41.91998 ], [ 70.82454, 41.92241 ], [ 70.84376, 41.9369 ], [ 70.85025, 41.94517 ], [ 70.85372, 41.97462 ], [ 70.84914, 41.98315 ], [ 70.83565, 41.99613 ], [ 70.83414, 42.0002 ], [ 70.84141, 42.01468 ], [ 70.85174, 42.02081 ], [ 70.85541, 42.0253 ], [ 70.85798, 42.03708 ], [ 70.86164, 42.0418 ], [ 70.87453, 42.04642 ], [ 70.89175, 42.0464 ], [ 70.898, 42.04481 ], [ 70.91872, 42.03392 ], [ 70.93222, 42.02962 ], [ 70.94964, 42.02638 ], [ 70.96623, 42.02632 ], [ 70.98052, 42.03304 ], [ 70.98901, 42.03473 ], [ 71.0013, 42.04389 ], [ 71.017, 42.0525 ], [ 71.03173, 42.05739 ], [ 71.06975, 42.0865 ], [ 71.08726, 42.0915 ], [ 71.12794, 42.1205 ], [ 71.14515, 42.13276 ], [ 71.15625, 42.13705 ], [ 71.16841, 42.13932 ], [ 71.18622, 42.13972 ], [ 71.21362, 42.13474 ], [ 71.21718, 42.13692 ], [ 71.22222, 42.14466 ], [ 71.23566, 42.15109 ], [ 71.23736, 42.15344 ], [ 71.24702, 42.15629 ], [ 71.25135, 42.1608 ], [ 71.25365, 42.17324 ], [ 71.25233, 42.17938 ], [ 71.25345, 42.18606 ], [ 71.26114, 42.19595 ], [ 71.25799, 42.20202 ], [ 71.24391, 42.21023 ], [ 71.2269, 42.21628 ], [ 71.15476, 42.26456 ], [ 71.13446, 42.27322 ], [ 71.11407, 42.27386 ], [ 71.09662, 42.27667 ], [ 71.07028, 42.28784 ], [ 71.06039, 42.28817 ], [ 71.0418, 42.28474 ], [ 71.03465, 42.28104 ], [ 71.01705, 42.27672 ], [ 70.98994, 42.25808 ], [ 70.97518, 42.25753 ], [ 70.95476, 42.26295 ], [ 70.94556, 42.26237 ], [ 70.94022, 42.2592 ], [ 70.93026, 42.24925 ], [ 70.90818, 42.22718 ], [ 70.90734, 42.22634 ], [ 70.89937, 42.22123 ], [ 70.88531, 42.21519 ], [ 70.87528, 42.21321 ], [ 70.86454, 42.20821 ], [ 70.83904, 42.19394 ], [ 70.82397, 42.19359 ], [ 70.81529, 42.19875 ], [ 70.80795, 42.20671 ], [ 70.80096, 42.20987 ], [ 70.79571, 42.2099 ], [ 70.78973, 42.20737 ], [ 70.78516, 42.20238 ], [ 70.77712, 42.19841 ], [ 70.76256, 42.18661 ], [ 70.74444, 42.16436 ], [ 70.72672, 42.1538 ], [ 70.71484, 42.13936 ], [ 70.70401, 42.1316 ], [ 70.69358, 42.12683 ], [ 70.67732, 42.10922 ], [ 70.67406, 42.09901 ], [ 70.67418, 42.08894 ], [ 70.65446, 42.05997 ], [ 70.63062, 42.01181 ], [ 70.63178, 42.00865 ], [ 70.62696, 42.00082 ], [ 70.62335, 41.99916 ], [ 70.61093, 41.99668 ], [ 70.60191, 41.99707 ], [ 70.57539, 42.01527 ], [ 70.55916, 42.01873 ], [ 70.5564, 42.02274 ], [ 70.55595, 42.02891 ], [ 70.55832, 42.05489 ], [ 70.55307, 42.06338 ], [ 70.54646, 42.06952 ], [ 70.52247, 42.07792 ], [ 70.52006, 42.08126 ], [ 70.50976, 42.08335 ], [ 70.49158, 42.09198 ], [ 70.4333, 42.13008 ], [ 70.42541, 42.13272 ], [ 70.41711, 42.1326 ], [ 70.4105, 42.13048 ], [ 70.40245, 42.12304 ], [ 70.39964, 42.11558 ], [ 70.39586, 42.08884 ], [ 70.39109, 42.08291 ], [ 70.38161, 42.07815 ], [ 70.37002, 42.06895 ], [ 70.3635, 42.0579 ], [ 70.32936, 42.04245 ], [ 70.32262, 42.03436 ], [ 70.32502, 42.02714 ], [ 70.32521, 42.01986 ], [ 70.32532, 42.01546 ], [ 70.33047, 42.00469 ], [ 70.33259, 41.99309 ], [ 70.33269, 41.98004 ], [ 70.33089, 41.97561 ], [ 70.32185, 41.96949 ], [ 70.30849, 41.96363 ], [ 70.28771, 41.9586 ], [ 70.27706, 41.94966 ], [ 70.26536, 41.95006 ], [ 70.24029, 41.94116 ], [ 70.2211, 41.92015 ], [ 70.2064, 41.91216 ], [ 70.19803, 41.9056 ], [ 70.18859, 41.89326 ], [ 70.18114, 41.87529 ], [ 70.17251, 41.86069 ], [ 70.15974, 41.8443 ], [ 70.14705, 41.83823 ], [ 70.09076, 41.81849 ], [ 70.08583, 41.81505 ], [ 70.0716, 41.80936 ], [ 70.06171, 41.80295 ], [ 70.05342, 41.78836 ], [ 70.04589, 41.76831 ], [ 70.03895, 41.7634 ], [ 70.03176, 41.76147 ], [ 70.02396, 41.7634 ], [ 70.02051, 41.76805 ], [ 70.0216, 41.77703 ], [ 70.01335, 41.78788 ], [ 70.00499, 41.7891 ], [ 69.99025, 41.78589 ], [ 69.98455, 41.78081 ], [ 69.9521, 41.71879 ], [ 69.94521, 41.71342 ], [ 69.92599, 41.70564 ], [ 69.89642, 41.69736 ], [ 69.88546, 41.69685 ], [ 69.88141, 41.69779 ], [ 69.86949, 41.70846 ], [ 69.85956, 41.71371 ], [ 69.8435, 41.71913 ], [ 69.8328, 41.71907 ], [ 69.81504, 41.71226 ], [ 69.79666, 41.70197 ], [ 69.75248, 41.69661 ], [ 69.74711, 41.69864 ], [ 69.72893, 41.6966 ], [ 69.72219, 41.69329 ], [ 69.71793, 41.68621 ], [ 69.70645, 41.67762 ], [ 69.70018, 41.67537 ], [ 69.69163, 41.6723 ], [ 69.65922, 41.66542 ], [ 69.63583, 41.66226 ], [ 69.63235, 41.66179 ], [ 69.62107, 41.65802 ], [ 69.59461, 41.63949 ], [ 69.58833, 41.63116 ], [ 69.56769, 41.61957 ], [ 69.55839, 41.61085 ], [ 69.53949, 41.59705 ], [ 69.53081, 41.58836 ], [ 69.51998, 41.56305 ], [ 69.51491, 41.55843 ], [ 69.49898, 41.55234 ], [ 69.47265, 41.54663 ], [ 69.46432, 41.54758 ], [ 69.45718, 41.54561 ], [ 69.42088, 41.52241 ], [ 69.40638, 41.50445 ], [ 69.40511, 41.50164 ], [ 69.40685, 41.496 ], [ 69.414, 41.4872 ], [ 69.43216, 41.47944 ], [ 69.43929, 41.47476 ], [ 69.43876, 41.47061 ], [ 69.43197, 41.45834 ], [ 69.42314, 41.4549 ], [ 69.39162, 41.45967 ], [ 69.37538, 41.46065 ], [ 69.36963, 41.45969 ], [ 69.36938, 41.45965 ], [ 69.36385, 41.45684 ], [ 69.34595, 41.45612 ], [ 69.34126, 41.45404 ], [ 69.33256, 41.45337 ], [ 69.32221, 41.45257 ], [ 69.31753, 41.45049 ], [ 69.30744, 41.45087 ], [ 69.28583, 41.46027 ], [ 69.27373, 41.4626 ], [ 69.24986, 41.46041 ], [ 69.24207, 41.46228 ], [ 69.23146, 41.46171 ], [ 69.20965, 41.4571 ], [ 69.19552, 41.45198 ], [ 69.18483, 41.44589 ], [ 69.17582, 41.42866 ], [ 69.17105, 41.41488 ], [ 69.16148, 41.40679 ], [ 69.14902, 41.40015 ], [ 69.11323, 41.38627 ], [ 69.10482, 41.37251 ], [ 69.10364, 41.3658 ], [ 69.08904, 41.34389 ], [ 69.08851, 41.33997 ], [ 69.07433, 41.33253 ], [ 69.06328, 41.33353 ], [ 69.05051, 41.3429 ], [ 69.04423, 41.34485 ], [ 69.03669, 41.3442 ], [ 69.03324, 41.34217 ], [ 69.00371, 41.30842 ], [ 69.00072, 41.30183 ], [ 68.99043, 41.29208 ], [ 68.98895, 41.28365 ], [ 68.98845, 41.28078 ], [ 68.98771, 41.27657 ], [ 68.9882, 41.25321 ], [ 68.9863, 41.24783 ], [ 68.98142, 41.24182 ], [ 68.9797, 41.24082 ], [ 68.95788, 41.22811 ], [ 68.95143, 41.2227 ], [ 68.9487, 41.21659 ], [ 68.94735, 41.19656 ], [ 68.94495, 41.19322 ], [ 68.94033, 41.19089 ], [ 68.92188, 41.19328 ], [ 68.90715, 41.18579 ], [ 68.89706, 41.17742 ], [ 68.89309, 41.17169 ], [ 68.87149, 41.15715 ], [ 68.86257, 41.1493 ], [ 68.82952, 41.11621 ], [ 68.82778, 41.11245 ], [ 68.81995, 41.10603 ], [ 68.81354, 41.0974 ], [ 68.80897, 41.08938 ], [ 68.80325, 41.07938 ], [ 68.79896, 41.07684 ], [ 68.76736, 41.04519 ], [ 68.75167, 41.0179 ], [ 68.74853, 40.99375 ], [ 68.74845, 40.99318 ], [ 68.7448, 40.98746 ], [ 68.71597, 40.96765 ], [ 68.71031, 40.96685 ], [ 68.68791, 40.95819 ], [ 68.67635, 40.9559 ], [ 68.63956, 40.9448 ], [ 68.61461, 40.93727 ], [ 68.61069, 40.94273 ], [ 68.58606, 40.97705 ], [ 68.56134, 40.99538 ], [ 68.57248, 41.00854 ], [ 68.5515, 41.0461 ], [ 68.51148, 41.06883 ], [ 68.45783, 41.08039 ], [ 68.42615, 41.06987 ], [ 68.40368, 41.03965 ], [ 68.43552, 41.00949 ], [ 68.49686, 40.99767 ], [ 68.48995, 40.96885 ], [ 68.5031, 40.92964 ], [ 68.48286, 40.89354 ], [ 68.48001, 40.80259 ], [ 68.51649, 40.76643 ], [ 68.53355, 40.75032 ], [ 68.54568, 40.69564 ], [ 68.56646, 40.69877 ], [ 68.57906, 40.69444 ], [ 68.60986, 40.66154 ], [ 68.61286, 40.65834 ], [ 68.57768, 40.64663 ], [ 68.56561, 40.64261 ], [ 68.49063, 40.6356 ], [ 68.45248, 40.63217 ], [ 68.44411, 40.63142 ], [ 68.38367, 40.65289 ], [ 68.34126, 40.67565 ], [ 68.29729, 40.67133 ], [ 68.28265, 40.68538 ], [ 68.26119, 40.69268 ], [ 68.25558, 40.69459 ], [ 68.21954, 40.70685 ], [ 68.17159, 40.72392 ], [ 68.12382, 40.74483 ], [ 68.03757, 40.81729 ], [ 68.01033, 40.83546 ], [ 67.98278, 40.85385 ], [ 67.94724, 40.85918 ], [ 67.93416, 40.86115 ], [ 67.89604, 40.87199 ], [ 67.87662, 40.89581 ], [ 67.88036, 40.91893 ], [ 67.91684, 40.92558 ], [ 67.95837, 40.93013 ], [ 67.97742, 40.94892 ], [ 67.97874, 40.97405 ], [ 67.98759, 40.99508 ], [ 68.02463, 41.01137 ], [ 68.02782, 41.02289 ], [ 68.00374, 41.05656 ], [ 68.00568, 41.0933 ], [ 68.03988, 41.10386 ], [ 68.05383, 41.12279 ], [ 68.01568, 41.13559 ], [ 67.98921, 41.12479 ], [ 67.97279, 41.10786 ], [ 67.94148, 41.103 ], [ 67.92708, 41.12474 ], [ 67.89834, 41.1198 ], [ 67.87369, 41.16454 ], [ 67.84636, 41.16024 ], [ 67.80345, 41.19342 ], [ 67.77909, 41.20219 ], [ 67.7729, 41.20215 ], [ 67.74348, 41.20195 ], [ 67.60642, 41.20555 ], [ 67.43993, 41.2097 ], [ 67.40283, 41.21059 ], [ 67.37535, 41.20733 ], [ 67.34834, 41.20059 ], [ 67.32946, 41.20266 ], [ 67.31117, 41.21179 ], [ 67.27899, 41.21188 ], [ 67.25221, 41.21194 ], [ 67.15176, 41.22053 ], [ 67.11311, 41.2224 ], [ 67.0, 41.2278 ], [ 66.9314, 41.23408 ], [ 66.81343, 41.23982 ], [ 66.74, 41.24377 ], [ 66.65503, 41.24835 ], [ 66.6226, 41.24953 ], [ 66.6061, 41.2514 ], [ 66.60153, 41.27815 ], [ 66.59964, 41.30931 ], [ 66.59315, 41.35481 ], [ 66.58012, 41.47753 ], [ 66.57059, 41.56507 ], [ 66.56914, 41.57551 ], [ 66.56193, 41.64266 ], [ 66.55721, 41.68575 ], [ 66.54772, 41.7618 ], [ 66.53136, 41.89372 ], [ 66.53076, 41.89629 ], [ 66.47821, 41.90157 ], [ 66.41463, 41.90713 ], [ 66.30605, 41.9171 ], [ 66.24335, 41.9225 ], [ 66.21777, 41.92468 ], [ 66.11369, 41.93393 ], [ 66.09569, 41.93512 ], [ 66.06586, 41.93777 ], [ 66.0504, 41.93971 ], [ 66.00854, 41.9435 ], [ 66.00757, 41.96664 ], [ 66.0069, 41.97816 ], [ 66.0084, 41.9884 ], [ 66.0094, 42.0336 ], [ 66.00918, 42.05061 ], [ 66.01007, 42.07651 ], [ 66.01108, 42.09298 ], [ 66.01051, 42.11714 ], [ 66.0108, 42.13321 ], [ 66.01141, 42.14855 ], [ 66.01176, 42.17794 ], [ 66.0125, 42.19213 ], [ 66.01241, 42.20454 ], [ 66.01356, 42.23273 ], [ 66.01382, 42.24029 ], [ 66.01298, 42.25151 ], [ 66.01394, 42.26762 ], [ 66.01395, 42.27566 ], [ 66.01391, 42.30162 ], [ 66.01404, 42.33171 ], [ 66.01533, 42.34266 ], [ 66.01443, 42.35219 ], [ 66.01409, 42.35583 ], [ 66.01643, 42.37842 ], [ 66.0795, 42.35639 ], [ 66.09301, 42.35022 ], [ 66.10567, 42.34732 ], [ 66.10725, 42.36583 ], [ 66.10639, 42.42103 ], [ 66.10654, 42.43985 ], [ 66.10672, 42.46283 ], [ 66.10514, 42.54841 ], [ 66.10421, 42.59006 ], [ 66.10384, 42.61081 ], [ 66.10345, 42.66962 ], [ 66.10352, 42.68845 ], [ 66.1019, 42.78163 ], [ 66.10122, 42.88002 ], [ 66.10057, 42.93453 ], [ 66.0992, 42.96219 ], [ 66.01703, 42.93396 ], [ 65.99996, 42.92807 ], [ 65.91604, 42.89905 ], [ 65.82719, 42.86813 ], [ 65.81442, 42.89558 ], [ 65.80673, 42.91559 ], [ 65.79195, 42.95005 ], [ 65.76922, 43.0027 ], [ 65.76341, 43.02029 ], [ 65.7405, 43.07453 ], [ 65.72222, 43.11747 ], [ 65.70972, 43.1481 ], [ 65.69553, 43.18045 ], [ 65.68355, 43.20759 ], [ 65.65108, 43.30352 ], [ 65.56033, 43.36365 ], [ 65.49016, 43.40916 ], [ 65.44611, 43.43817 ], [ 65.41565, 43.45626 ], [ 65.33789, 43.5152 ], [ 65.31019, 43.53333 ], [ 65.29414, 43.54527 ], [ 65.27579, 43.57434 ], [ 65.27493, 43.57806 ], [ 65.26723, 43.5886 ], [ 65.25539, 43.60787 ], [ 65.25503, 43.61042 ], [ 65.25101, 43.61708 ], [ 65.24623, 43.62263 ], [ 65.20798, 43.68173 ], [ 65.19954, 43.69461 ], [ 65.18883, 43.71289 ], [ 65.18457, 43.72346 ], [ 65.18332, 43.72353 ], [ 65.17024, 43.74355 ], [ 65.14872, 43.76151 ], [ 65.13224, 43.77046 ], [ 65.11442, 43.77559 ], [ 65.0781, 43.77668 ], [ 65.0548, 43.77498 ], [ 65.01026, 43.76685 ], [ 64.96524, 43.75094 ], [ 64.95639, 43.74797 ], [ 64.9502, 43.74624 ], [ 64.94709, 43.74366 ], [ 64.91556, 43.7325 ], [ 64.90544, 43.72937 ], [ 64.77924, 43.68856 ], [ 64.76398, 43.68455 ], [ 64.67258, 43.65167 ], [ 64.66431, 43.64797 ], [ 64.64575, 43.64226 ], [ 64.63395, 43.63782 ], [ 64.62247, 43.63336 ], [ 64.58162, 43.61916 ], [ 64.53654, 43.60331 ], [ 64.52732, 43.60263 ], [ 64.52508, 43.60229 ], [ 64.51817, 43.60263 ], [ 64.51711, 43.60207 ], [ 64.51385, 43.60033 ], [ 64.48119, 43.60219 ], [ 64.46699, 43.60221 ], [ 64.37296, 43.60595 ], [ 64.3619, 43.60581 ], [ 64.34498, 43.60709 ], [ 64.32413, 43.60696 ], [ 64.31657, 43.6071 ], [ 64.31251, 43.60752 ], [ 64.30846, 43.60818 ], [ 64.21875, 43.61089 ], [ 64.20312, 43.61255 ], [ 64.17224, 43.6131 ], [ 64.15916, 43.61509 ], [ 64.14812, 43.61515 ], [ 64.05387, 43.62024 ], [ 64.04008, 43.62133 ], [ 63.99363, 43.62438 ], [ 63.91188, 43.62809 ], [ 63.86003, 43.63454 ], [ 63.73174, 43.64063 ], [ 63.60596, 43.6506 ], [ 63.58306, 43.65248 ], [ 63.52186, 43.6571 ], [ 63.45663, 43.66276 ], [ 63.38889, 43.67285 ], [ 63.38135, 43.67339 ], [ 63.37207, 43.67169 ], [ 63.36827, 43.67162 ], [ 63.24786, 43.65713 ], [ 63.20807, 43.65249 ], [ 63.11314, 43.64031 ], [ 63.09144, 43.63677 ], [ 62.99873, 43.62434 ], [ 62.98316, 43.62224 ], [ 62.93895, 43.61675 ], [ 62.90037, 43.61058 ], [ 62.80174, 43.59737 ], [ 62.73618, 43.58773 ], [ 62.64462, 43.57528 ], [ 62.60455, 43.56953 ], [ 62.58513, 43.56628 ], [ 62.48949, 43.55292 ], [ 62.47738, 43.55056 ], [ 62.43038, 43.54405 ], [ 62.41422, 43.54228 ], [ 62.4104, 43.54171 ], [ 62.33895, 43.53136 ], [ 62.32179, 43.52868 ], [ 62.28847, 43.52397 ], [ 62.22439, 43.51515 ], [ 62.18377, 43.50904 ], [ 62.13461, 43.50202 ], [ 62.0287, 43.48651 ], [ 62.0274, 43.4866 ], [ 62.01083, 43.48771 ], [ 62.00357, 43.49174 ], [ 61.99953, 43.49398 ], [ 61.98924, 43.50183 ], [ 61.97563, 43.51229 ], [ 61.83229, 43.6415 ], [ 61.79003, 43.67972 ], [ 61.70528, 43.75498 ], [ 61.67623, 43.78183 ], [ 61.62039, 43.83154 ], [ 61.61163, 43.84046 ], [ 61.58815, 43.85959 ], [ 61.5267, 43.91443 ], [ 61.48923, 43.94807 ], [ 61.48837, 43.95014 ], [ 61.47853, 43.95679 ], [ 61.47402, 43.96239 ], [ 61.43369, 43.99722 ], [ 61.41982, 44.00647 ], [ 61.41986, 44.00738 ], [ 61.41359, 44.01646 ], [ 61.3385, 44.08095 ], [ 61.32324, 44.09405 ], [ 61.27711, 44.13526 ], [ 61.27543, 44.13676 ], [ 61.2078, 44.19453 ], [ 61.17852, 44.21873 ], [ 61.13774, 44.25426 ], [ 61.13133, 44.25992 ], [ 61.13371, 44.24914 ], [ 61.13845, 44.24634 ], [ 61.13783, 44.22223 ], [ 61.1423, 44.21408 ], [ 61.13874, 44.21149 ], [ 61.13351, 44.21596 ], [ 61.13147, 44.23271 ], [ 61.12106, 44.24843 ], [ 61.12063, 44.25133 ], [ 61.12454, 44.25494 ], [ 61.12302, 44.25911 ], [ 61.11105, 44.26642 ], [ 61.10336, 44.27343 ], [ 61.10159, 44.27821 ], [ 61.10299, 44.28333 ], [ 61.10094, 44.30606 ], [ 61.10389, 44.31959 ], [ 61.10152, 44.32975 ], [ 61.09778, 44.33541 ], [ 61.10271, 44.3425 ], [ 61.09393, 44.36719 ], [ 61.08392, 44.37264 ], [ 61.07819, 44.37576 ], [ 61.07605, 44.37287 ], [ 61.07201, 44.37256 ], [ 61.07006, 44.37384 ], [ 61.06943, 44.3786 ], [ 61.0731, 44.38325 ], [ 61.06956, 44.38725 ], [ 61.04997, 44.3863 ], [ 61.04586, 44.39032 ] ] ], [ [ [ 70.66846, 40.90623 ], [ 70.67362, 40.90588 ], [ 70.67891, 40.90641 ], [ 70.68405, 40.91013 ], [ 70.68466, 40.9146 ], [ 70.68286, 40.91835 ], [ 70.65926, 40.93217 ], [ 70.64526, 40.94398 ], [ 70.63025, 40.96128 ], [ 70.62135, 40.96822 ], [ 70.60428, 40.97889 ], [ 70.59967, 40.98327 ], [ 70.59753, 40.98884 ], [ 70.59628, 40.99661 ], [ 70.5956, 41.00434 ], [ 70.5919, 41.00686 ], [ 70.58571, 41.00819 ], [ 70.58156, 41.00757 ], [ 70.57757, 41.00378 ], [ 70.57403, 40.99905 ], [ 70.57011, 40.9957 ], [ 70.56399, 40.99342 ], [ 70.56013, 40.99052 ], [ 70.559, 40.98653 ], [ 70.56138, 40.98275 ], [ 70.56662, 40.97878 ], [ 70.57791, 40.97664 ], [ 70.59201, 40.97386 ], [ 70.5975, 40.97168 ], [ 70.62477, 40.94675 ], [ 70.64619, 40.92539 ], [ 70.66047, 40.9113 ], [ 70.66846, 40.90623 ] ] ] ] } }
]
}
