{"type":"FeatureCollection","features":[{"type":"Feature","geometry":{"type":"Point","coordinates":[72.6531,41.68193]},"properties":{"dam_id":287,"grand_id":4675,"dam_name":"Toktogul","reservoir_name":"Toktogul'skoye","river":"Naryn","country":"Kyrgyzstan","year_completed":1978,"dam_height_m":"215","capacity_mcm":"19500.00","power_capacity_mw":"","main_use":"Hydroelectricity","uses":"irrigation;hydroelectricity","system_id":"syr_darya","hybas_id_level12":4120395430,"in_headwater_formation":1,"hyriv_id":40300163,"hylak_id":1306,"position_source":"snapped to the river network"}},{"type":"Feature","geometry":{"type":"Point","coordinates":[67.96044,41.2434]},"properties":{"dam_id":288,"grand_id":4679,"dam_name":"Chardara","reservoir_name":"Chardarinskoye","river":"Syr-Daria","country":"Kazakhstan","year_completed":1965,"dam_height_m":"27","capacity_mcm":"6700.00","power_capacity_mw":"","main_use":"","uses":"","system_id":"syr_darya","hybas_id_level12":4120409430,"in_headwater_formation":0,"hyriv_id":40313521,"hylak_id":1307,"position_source":"snapped to the river network"}},{"type":"Feature","geometry":{"type":"Point","coordinates":[69.81885,40.27703]},"properties":{"dam_id":292,"grand_id":4686,"dam_name":"Kayrakkum","reservoir_name":"Kayrakkumskoye","river":"Syr-Daria","country":"Tajikistan","year_completed":1957,"dam_height_m":"32","capacity_mcm":"4200.00","power_capacity_mw":"","main_use":"Hydroelectricity","uses":"irrigation;hydroelectricity","system_id":"syr_darya","hybas_id_level12":4120446290,"in_headwater_formation":0,"hyriv_id":40343454,"hylak_id":1320,"position_source":"snapped to the river network"}},{"type":"Feature","geometry":{"type":"Point","coordinates":[69.97071,41.62537]},"properties":{"dam_id":1449,"grand_id":4676,"dam_name":"Charvak","reservoir_name":"","river":"Chirchik","country":"Uzbekistan","year_completed":1977,"dam_height_m":"168","capacity_mcm":"2000.00","power_capacity_mw":"","main_use":"Hydroelectricity","uses":"irrigation;hydroelectricity","system_id":"syr_darya","hybas_id_level12":4120396790,"in_headwater_formation":0,"hyriv_id":40301729,"hylak_id":14452,"position_source":"snapped to the river network"}},{"type":"Feature","geometry":{"type":"Point","coordinates":[69.29541,40.98795]},"properties":{"dam_id":1468,"grand_id":4682,"dam_name":"Tashkent","reservoir_name":"","river":"Akhangaran","country":"Uzbekistan","year_completed":1963,"dam_height_m":"37","capacity_mcm":"250.00","power_capacity_mw":"","main_use":"","uses":"","system_id":"syr_darya","hybas_id_level12":4121299640,"in_headwater_formation":0,"hyriv_id":40321448,"hylak_id":14488,"position_source":"snapped to the river network"}},{"type":"Feature","geometry":{"type":"Point","coordinates":[73.06485,40.7686]},"properties":{"dam_id":1475,"grand_id":4683,"dam_name":"Andizhan","reservoir_name":"","river":"Karadaria","country":"Kyrgyzstan","year_completed":1980,"dam_height_m":"115","capacity_mcm":"1800.00","power_capacity_mw":"","main_use":"Hydroelectricity","uses":"irrigation;hydroelectricity","system_id":"syr_darya","hybas_id_level12":4120423230,"in_headwater_formation":1,"hyriv_id":40327803,"hylak_id":14508,"position_source":"snapped to the river network"}},{"type":"Feature","geometry":{"type":"Point","coordinates":[66.25208,39.84375]},"properties":{"dam_id":1501,"grand_id":4687,"dam_name":"Kattakurgan","reservoir_name":"","river":"Karadaria","country":"Uzbekistan","year_completed":1968,"dam_height_m":"31","capacity_mcm":"900.00","power_capacity_mw":"","main_use":"Irrigation","uses":"irrigation","system_id":"amu_darya","hybas_id_level12":4120460560,"in_headwater_formation":0,"hyriv_id":40356591,"hylak_id":14570,"position_source":"snapped to the river network"}},{"type":"Feature","geometry":{"type":"Point","coordinates":[66.36169,38.93982]},"properties":{"dam_id":1525,"grand_id":4689,"dam_name":"Chimkurgan","reservoir_name":"","river":"Kashkadaria","country":"Uzbekistan","year_completed":1963,"dam_height_m":"33","capacity_mcm":"500.00","power_capacity_mw":"","main_use":"","uses":"","system_id":"amu_darya","hybas_id_level12":4120491670,"in_headwater_formation":0,"hyriv_id":40384825,"hylak_id":14648,"position_source":"snapped to the river network"}},{"type":"Feature","geometry":{"type":"Point","coordinates":[69.34404,38.36803]},"properties":{"dam_id":1537,"grand_id":4692,"dam_name":"Nurek","reservoir_name":"","river":"Vakhsh","country":"Tajikistan","year_completed":1980,"dam_height_m":"300","capacity_mcm":"10500.00","power_capacity_mw":"","main_use":"Irrigation","uses":"irrigation;hydroelectricity","system_id":"amu_darya","hybas_id_level12":4121331570,"in_headwater_formation":1,"hyriv_id":40400831,"hylak_id":14690,"position_source":"snapped to the river network"}},{"type":"Feature","geometry":{"type":"Point","coordinates":[65.54896,38.32826]},"properties":{"dam_id":1539,"grand_id":4693,"dam_name":"Talimarjan","reservoir_name":"","river":"Amudaria","country":"Uzbekistan","year_completed":1985,"dam_height_m":"35","capacity_mcm":"1525.00","power_capacity_mw":"","main_use":"","uses":"","system_id":"amu_darya","hybas_id_level12":4121332820,"in_headwater_formation":0,"hyriv_id":40401296,"hylak_id":14696,"position_source":"snapped to the river network"}},{"type":"Feature","geometry":{"type":"Point","coordinates":[67.63229,37.82876]},"properties":{"dam_id":1559,"grand_id":4696,"dam_name":"Yuzhnosurkhansk","reservoir_name":"","river":"Surkhandaria","country":"Uzbekistan","year_completed":1967,"dam_height_m":"30","capacity_mcm":"800.00","power_capacity_mw":"","main_use":"Irrigation","uses":"irrigation","system_id":"amu_darya","hybas_id_level12":4120523410,"in_headwater_formation":0,"hyriv_id":40415870,"hylak_id":14730,"position_source":"snapped to the river network"}},{"type":"Feature","geometry":{"type":"Point","coordinates":[69.77293,42.23117]},"properties":{"dam_id":4019,"grand_id":4674,"dam_name":"Badam","reservoir_name":"","river":"Badam","country":"Kazakhstan","year_completed":1974,"dam_height_m":"43","capacity_mcm":"61.50","power_capacity_mw":"","main_use":"","uses":"","system_id":"syr_darya","hybas_id_level12":4120377130,"in_headwater_formation":0,"hyriv_id":40284360,"hylak_id":172195,"position_source":"snapped to the river network"}},{"type":"Feature","geometry":{"type":"Point","coordinates":[72.23212,41.40401]},"properties":{"dam_id":4086,"grand_id":4677,"dam_name":"Tashkumyr","reservoir_name":"","river":"Naryn","country":"Kyrgyzstan","year_completed":"","dam_height_m":"","capacity_mcm":"140.00","power_capacity_mw":"","main_use":"","uses":"","system_id":"syr_darya","hybas_id_level12":4121294510,"in_headwater_formation":1,"hyriv_id":40308527,"hylak_id":172385,"position_source":"snapped to the river network"}},{"type":"Feature","geometry":{"type":"Point","coordinates":[71.4468,41.35588]},"properties":{"dam_id":4089,"grand_id":4678,"dam_name":"Kassansay","reservoir_name":"","river":"Kassansay","country":"Kyrgyzstan","year_completed":1968,"dam_height_m":"64","capacity_mcm":"165.00","power_capacity_mw":"","main_use":"","uses":"","system_id":"syr_darya","hybas_id_level12":4120406780,"in_headwater_formation":0,"hyriv_id":40310105,"hylak_id":172401,"position_source":"snapped to the river network"}},{"type":"Feature","geometry":{"type":"Point","coordinates":[72.16292,41.19083]},"properties":{"dam_id":4097,"grand_id":4680,"dam_name":"Uchkurgan 1","reservoir_name":"","river":"Naryn","country":"Kyrgyzstan","year_completed":1964,"dam_height_m":"","capacity_mcm":"48.00","power_capacity_mw":"","main_use":"","uses":"","system_id":"syr_darya","hybas_id_level12":4121297400,"in_headwater_formation":1,"hyriv_id":40315330,"hylak_id":172437,"position_source":"snapped to the river network"}},{"type":"Feature","geometry":{"type":"Point","coordinates":[70.21042,41.05208]},"properties":{"dam_id":4110,"grand_id":4681,"dam_name":"Akhangaran","reservoir_name":"","river":"Akhangaran","country":"Uzbekistan","year_completed":1978,"dam_height_m":"100","capacity_mcm":"260.00","power_capacity_mw":"","main_use":"","uses":"","system_id":"syr_darya","hybas_id_level12":4121299020,"in_headwater_formation":0,"hyriv_id":40319138,"hylak_id":172484,"position_source":"snapped to the river network"}},{"type":"Feature","geometry":{"type":"Point","coordinates":[72.08512,40.45573]},"properties":{"dam_id":4156,"grand_id":4684,"dam_name":"Karkidansk","reservoir_name":"","river":"Kusavay","country":"Uzbekistan","year_completed":1967,"dam_height_m":"70","capacity_mcm":"218.40","power_capacity_mw":"","main_use":"","uses":"","system_id":"syr_darya","hybas_id_level12":4120430580,"in_headwater_formation":0,"hyriv_id":40337754,"hylak_id":172746,"position_source":"snapped to the river network"}},{"type":"Feature","geometry":{"type":"Point","coordinates":[72.88958,40.37571]},"properties":{"dam_id":4161,"grand_id":4685,"dam_name":"Papanskaya","reservoir_name":"","river":"Akbura","country":"Kyrgyzstan","year_completed":1985,"dam_height_m":"100","capacity_mcm":"260.00","power_capacity_mw":"","main_use":"","uses":"","system_id":"syr_darya","hybas_id_level12":4121307060,"in_headwater_formation":1,"hyriv_id":40340242,"hylak_id":172764,"position_source":"snapped to the river network"}},{"type":"Feature","geometry":{"type":"Point","coordinates":[68.99671,39.84246]},"properties":{"dam_id":4201,"grand_id":4688,"dam_name":"Kattasay","reservoir_name":"","river":"Kattasay","country":"Tajikistan","year_completed":1966,"dam_height_m":"65","capacity_mcm":"55.00","power_capacity_mw":"","main_use":"","uses":"","system_id":"syr_darya","hybas_id_level12":4120444730,"in_headwater_formation":0,"hyriv_id":40356595,"hylak_id":172885,"position_source":"snapped to the river network"}},{"type":"Feature","geometry":{"type":"Point","coordinates":[66.39479,38.53537]},"properties":{"dam_id":4279,"grand_id":4691,"dam_name":"Pachkamar","reservoir_name":"","river":"Guzardaria","country":"Uzbekistan","year_completed":1968,"dam_height_m":"70","capacity_mcm":"260.00","power_capacity_mw":"","main_use":"","uses":"","system_id":"amu_darya","hybas_id_level12":4121327820,"in_headwater_formation":0,"hyriv_id":40395186,"hylak_id":173377,"position_source":"snapped to the river network"}},{"type":"Feature","geometry":{"type":"Point","coordinates":[69.99671,38.1005]},"properties":{"dam_id":4313,"grand_id":4694,"dam_name":"Muninabad","reservoir_name":"","river":"Obi-Surkh","country":"Tajikistan","year_completed":1965,"dam_height_m":"35","capacity_mcm":"30.10","power_capacity_mw":"","main_use":"","uses":"","system_id":"amu_darya","hybas_id_level12":4120513520,"in_headwater_formation":1,"hyriv_id":40409079,"hylak_id":173537,"position_source":"snapped to the river network"}},{"type":"Feature","geometry":{"type":"Point","coordinates":[68.93972,37.88543]},"properties":{"dam_id":4331,"grand_id":4695,"dam_name":"Golovnaya","reservoir_name":"","river":"Vakhsh","country":"Tajikistan","year_completed":1963,"dam_height_m":"33","capacity_mcm":"95.00","power_capacity_mw":"","main_use":"","uses":"","system_id":"amu_darya","hybas_id_level12":4121338400,"in_headwater_formation":1,"hyriv_id":40414070,"hylak_id":173666,"position_source":"snapped to the river network"}},{"type":"Feature","geometry":{"type":"Point","coordinates":[69.92276,38.84436]},"properties":{"dam_id":6073,"grand_id":4690,"dam_name":"Rogun","reservoir_name":"","river":"Vakhsh","country":"Tajikistan","year_completed":1989,"dam_height_m":"335","capacity_mcm":"13300.00","power_capacity_mw":"","main_use":"Irrigation","uses":"irrigation","system_id":"amu_darya","hybas_id_level12":4120494220,"in_headwater_formation":1,"hyriv_id":40385779,"hylak_id":1368166,"position_source":"snapped to the river network"}},{"type":"Feature","geometry":{"type":"Point","coordinates":[69.05592,38.04767]},"properties":{"dam_id":7074,"grand_id":7140,"dam_name":"Sangtuda I","reservoir_name":"","river":"Vakhsh","country":"Tajikistan","year_completed":2009,"dam_height_m":"75","capacity_mcm":"258.00","power_capacity_mw":"","main_use":"Hydroelectricity","uses":"hydroelectricity","system_id":"amu_darya","hybas_id_level12":4121336710,"in_headwater_formation":1,"hyriv_id":40409737,"hylak_id":1427934,"position_source":"snapped to the river network"}},{"type":"Feature","geometry":{"type":"Point","coordinates":[60.95208,46.33542]},"properties":{"dam_id":7426,"grand_id":"","dam_name":"","reservoir_name":"","river":"","country":"Kazakhstan","year_completed":"","dam_height_m":"","capacity_mcm":"3508.00","power_capacity_mw":"","main_use":"","uses":"","system_id":"syr_darya","hybas_id_level12":4120050240,"in_headwater_formation":0,"hyriv_id":"","hylak_id":130,"position_source":"snapped to the river network"}},{"type":"Feature","geometry":{"type":"Point","coordinates":[67.79896,43.74075]},"properties":{"dam_id":8836,"grand_id":"","dam_name":"","reservoir_name":"","river":"","country":"Kazakhstan","year_completed":"","dam_height_m":"","capacity_mcm":"16.90","power_capacity_mw":"","main_use":"","uses":"","system_id":"syr_darya","hybas_id_level12":4121262830,"in_headwater_formation":0,"hyriv_id":40236941,"hylak_id":171681,"position_source":"snapped to the river network"}},{"type":"Feature","geometry":{"type":"Point","coordinates":[69.49876,42.41062]},"properties":{"dam_id":8859,"grand_id":"","dam_name":"","reservoir_name":"","river":"","country":"Kazakhstan","year_completed":"","dam_height_m":"","capacity_mcm":"31.60","power_capacity_mw":"","main_use":"","uses":"","system_id":"syr_darya","hybas_id_level12":4120368780,"in_headwater_formation":0,"hyriv_id":40276630,"hylak_id":172150,"position_source":"snapped to the river network"}},{"type":"Feature","geometry":{"type":"Point","coordinates":[72.36614,41.49988]},"properties":{"dam_id":8873,"grand_id":"","dam_name":"","reservoir_name":"","river":"","country":"Kyrgyzstan","year_completed":"","dam_height_m":"","capacity_mcm":"147.40","power_capacity_mw":"","main_use":"","uses":"","system_id":"syr_darya","hybas_id_level12":4121292240,"in_headwater_formation":1,"hyriv_id":40305779,"hylak_id":172360,"position_source":"snapped to the river network"}},{"type":"Feature","geometry":{"type":"Point","coordinates":[72.19243,41.31516]},"properties":{"dam_id":8876,"grand_id":"","dam_name":"","reservoir_name":"","river":"","country":"Kyrgyzstan","year_completed":"","dam_height_m":"","capacity_mcm":"19.90","power_capacity_mw":"","main_use":"","uses":"","system_id":"syr_darya","hybas_id_level12":4121294970,"in_headwater_formation":1,"hyriv_id":40311657,"hylak_id":172408,"position_source":"snapped to the river network"}},{"type":"Feature","geometry":{"type":"Point","coordinates":[71.43528,40.33092]},"properties":{"dam_id":8898,"grand_id":"","dam_name":"","reservoir_name":"","river":"","country":"Uzbekistan","year_completed":"","dam_height_m":"","capacity_mcm":"25.90","power_capacity_mw":"","main_use":"","uses":"","system_id":"syr_darya","hybas_id_level12":4120435080,"in_headwater_formation":0,"hyriv_id":40342409,"hylak_id":172775,"position_source":"snapped to the river network"}},{"type":"Feature","geometry":{"type":"Point","coordinates":[72.34446,40.33078]},"properties":{"dam_id":8899,"grand_id":"","dam_name":"","reservoir_name":"","river":"","country":"Kyrgyzstan","year_completed":"","dam_height_m":"","capacity_mcm":"35.80","power_capacity_mw":"","main_use":"","uses":"","system_id":"syr_darya","hybas_id_level12":4120444740,"in_headwater_formation":0,"hyriv_id":40341764,"hylak_id":172776,"position_source":"snapped to the river network"}},{"type":"Feature","geometry":{"type":"Point","coordinates":[66.76463,40.13971]},"properties":{"dam_id":8907,"grand_id":"","dam_name":"","reservoir_name":"","river":"","country":"Uzbekistan","year_completed":"","dam_height_m":"","capacity_mcm":"23.10","power_capacity_mw":"","main_use":"","uses":"","system_id":"amu_darya","hybas_id_level12":4121310370,"in_headwater_formation":0,"hyriv_id":40348665,"hylak_id":172814,"position_source":"snapped to the river network"}},{"type":"Feature","geometry":{"type":"Point","coordinates":[67.03958,40.01458]},"properties":{"dam_id":8912,"grand_id":"","dam_name":"","reservoir_name":"","river":"","country":"Uzbekistan","year_completed":"","dam_height_m":"","capacity_mcm":"43.30","power_capacity_mw":"","main_use":"","uses":"","system_id":"amu_darya","hybas_id_level12":4121311670,"in_headwater_formation":0,"hyriv_id":40351828,"hylak_id":172850,"position_source":"snapped to the river network"}},{"type":"Feature","geometry":{"type":"Point","coordinates":[70.68693,39.99632]},"properties":{"dam_id":8913,"grand_id":"","dam_name":"","reservoir_name":"","river":"","country":"Kyrgyzstan","year_completed":"","dam_height_m":"","capacity_mcm":"103.10","power_capacity_mw":"","main_use":"","uses":"","system_id":"syr_darya","hybas_id_level12":4120456640,"in_headwater_formation":0,"hyriv_id":40352104,"hylak_id":172858,"position_source":"snapped to the river network"}},{"type":"Feature","geometry":{"type":"Point","coordinates":[66.15683,39.54015]},"properties":{"dam_id":8933,"grand_id":"","dam_name":"","reservoir_name":"","river":"","country":"Uzbekistan","year_completed":1987,"dam_height_m":"","capacity_mcm":"23.60","power_capacity_mw":"","main_use":"","uses":"","system_id":"amu_darya","hybas_id_level12":4120473070,"in_headwater_formation":0,"hyriv_id":40366723,"hylak_id":172970,"position_source":"snapped to the river network"}},{"type":"Feature","geometry":{"type":"Point","coordinates":[67.03541,39.41041]},"properties":{"dam_id":8938,"grand_id":"","dam_name":"","reservoir_name":"","river":"","country":"Uzbekistan","year_completed":"","dam_height_m":"","capacity_mcm":"17.80","power_capacity_mw":"","main_use":"","uses":"","system_id":"amu_darya","hybas_id_level12":4120471660,"in_headwater_formation":0,"hyriv_id":40369423,"hylak_id":173003,"position_source":"snapped to the river network"}},{"type":"Feature","geometry":{"type":"Point","coordinates":[67.15729,39.02373]},"properties":{"dam_id":8950,"grand_id":"","dam_name":"","reservoir_name":"","river":"","country":"Uzbekistan","year_completed":"","dam_height_m":"","capacity_mcm":"24.20","power_capacity_mw":"","main_use":"","uses":"","system_id":"amu_darya","hybas_id_level12":4120487110,"in_headwater_formation":0,"hyriv_id":40380376,"hylak_id":173202,"position_source":"snapped to the river network"}},{"type":"Feature","geometry":{"type":"Point","coordinates":[69.12589,38.26991]},"properties":{"dam_id":8965,"grand_id":"","dam_name":"","reservoir_name":"","river":"","country":"Tajikistan","year_completed":1990,"dam_height_m":"","capacity_mcm":"156.90","power_capacity_mw":"","main_use":"","uses":"","system_id":"amu_darya","hybas_id_level12":4121334110,"in_headwater_formation":1,"hyriv_id":40405984,"hylak_id":173465,"position_source":"snapped to the river network"}},{"type":"Feature","geometry":{"type":"Point","coordinates":[67.21307,37.34151]},"properties":{"dam_id":8994,"grand_id":"","dam_name":"","reservoir_name":"","river":"","country":"Uzbekistan","year_completed":"","dam_height_m":"","capacity_mcm":"176.40","power_capacity_mw":"","main_use":"","uses":"","system_id":"amu_darya","hybas_id_level12":4120538870,"in_headwater_formation":0,"hyriv_id":40431645,"hylak_id":173845,"position_source":"snapped to the river network"}},{"type":"Feature","geometry":{"type":"Point","coordinates":[67.93555,43.66944]},"properties":{"dam_id":15931,"grand_id":"","dam_name":"","reservoir_name":"","river":"","country":"Kazakhstan","year_completed":"","dam_height_m":"","capacity_mcm":"16.80","power_capacity_mw":"","main_use":"","uses":"","system_id":"syr_darya","hybas_id_level12":4121261030,"in_headwater_formation":0,"hyriv_id":40233222,"hylak_id":1362532,"position_source":"snapped to the river network"}},{"type":"Feature","geometry":{"type":"Point","coordinates":[68.87813,43.40317]},"properties":{"dam_id":15955,"grand_id":"","dam_name":"","reservoir_name":"","river":"","country":"Kazakhstan","year_completed":"","dam_height_m":"","capacity_mcm":"3.10","power_capacity_mw":"","main_use":"","uses":"","system_id":"syr_darya","hybas_id_level12":4121266820,"in_headwater_formation":0,"hyriv_id":40246598,"hylak_id":1363086,"position_source":"snapped to the river network"}},{"type":"Feature","geometry":{"type":"Point","coordinates":[69.21146,42.4555]},"properties":{"dam_id":16032,"grand_id":"","dam_name":"","reservoir_name":"","river":"","country":"Kazakhstan","year_completed":"","dam_height_m":"","capacity_mcm":"10.10","power_capacity_mw":"","main_use":"","uses":"","system_id":"syr_darya","hybas_id_level12":4120368780,"in_headwater_formation":0,"hyriv_id":40275984,"hylak_id":1364313,"position_source":"snapped to the river network"}},{"type":"Feature","geometry":{"type":"Point","coordinates":[69.29514,42.42651]},"properties":{"dam_id":16037,"grand_id":"","dam_name":"","reservoir_name":"","river":"","country":"Kazakhstan","year_completed":"","dam_height_m":"","capacity_mcm":"4.50","power_capacity_mw":"","main_use":"","uses":"","system_id":"syr_darya","hybas_id_level12":4120368780,"in_headwater_formation":0,"hyriv_id":40275984,"hylak_id":1364344,"position_source":"snapped to the river network"}},{"type":"Feature","geometry":{"type":"Point","coordinates":[69.82022,42.22138]},"properties":{"dam_id":16046,"grand_id":"","dam_name":"","reservoir_name":"","river":"","country":"Kazakhstan","year_completed":"","dam_height_m":"","capacity_mcm":"4.20","power_capacity_mw":"","main_use":"","uses":"","system_id":"syr_darya","hybas_id_level12":4120378260,"in_headwater_formation":0,"hyriv_id":40285015,"hylak_id":1364528,"position_source":"snapped to the river network"}},{"type":"Feature","geometry":{"type":"Point","coordinates":[69.84838,42.12222]},"properties":{"dam_id":16052,"grand_id":"","dam_name":"","reservoir_name":"","river":"","country":"Kazakhstan","year_completed":"","dam_height_m":"","capacity_mcm":"2.20","power_capacity_mw":"","main_use":"","uses":"","system_id":"syr_darya","hybas_id_level12":4120380760,"in_headwater_formation":0,"hyriv_id":40286303,"hylak_id":1364612,"position_source":"snapped to the river network"}},{"type":"Feature","geometry":{"type":"Point","coordinates":[69.86518,41.60169]},"properties":{"dam_id":16075,"grand_id":"","dam_name":"","reservoir_name":"","river":"","country":"Uzbekistan","year_completed":"","dam_height_m":"","capacity_mcm":"37.20","power_capacity_mw":"","main_use":"","uses":"","system_id":"syr_darya","hybas_id_level12":4121291340,"in_headwater_formation":0,"hyriv_id":40302474,"hylak_id":1365080,"position_source":"snapped to the river network"}},{"type":"Feature","geometry":{"type":"Point","coordinates":[69.80293,41.58109]},"properties":{"dam_id":16078,"grand_id":"","dam_name":"","reservoir_name":"","river":"","country":"Uzbekistan","year_completed":"","dam_height_m":"","capacity_mcm":"10.80","power_capacity_mw":"","main_use":"","uses":"","system_id":"syr_darya","hybas_id_level12":4120398690,"in_headwater_formation":0,"hyriv_id":40302981,"hylak_id":1365121,"position_source":"snapped to the river network"}},{"type":"Feature","geometry":{"type":"Point","coordinates":[71.44557,40.32064]},"properties":{"dam_id":16181,"grand_id":"","dam_name":"","reservoir_name":"","river":"","country":"Uzbekistan","year_completed":"","dam_height_m":"","capacity_mcm":"9.70","power_capacity_mw":"","main_use":"","uses":"","system_id":"syr_darya","hybas_id_level12":4120435080,"in_headwater_formation":0,"hyriv_id":40342409,"hylak_id":1366559,"position_source":"snapped to the river network"}},{"type":"Feature","geometry":{"type":"Point","coordinates":[65.03691,40.00943]},"properties":{"dam_id":16224,"grand_id":"","dam_name":"","reservoir_name":"","river":"","country":"Uzbekistan","year_completed":"","dam_height_m":"","capacity_mcm":"10.60","power_capacity_mw":"","main_use":"","uses":"","system_id":"amu_darya","hybas_id_level12":4121312960,"in_headwater_formation":0,"hyriv_id":40354966,"hylak_id":1366795,"position_source":"snapped to the river network"}},{"type":"Feature","geometry":{"type":"Point","coordinates":[68.37872,39.85055]},"properties":{"dam_id":16247,"grand_id":"","dam_name":"","reservoir_name":"","river":"","country":"Uzbekistan","year_completed":"","dam_height_m":"","capacity_mcm":"10.90","power_capacity_mw":"","main_use":"","uses":"","system_id":"syr_darya","hybas_id_level12":4121313120,"in_headwater_formation":0,"hyriv_id":40357052,"hylak_id":1366949,"position_source":"snapped to the river network"}},{"type":"Feature","geometry":{"type":"Point","coordinates":[66.64849,39.30987]},"properties":{"dam_id":16288,"grand_id":"","dam_name":"","reservoir_name":"","river":"","country":"Uzbekistan","year_completed":1989,"dam_height_m":"","capacity_mcm":"3.50","power_capacity_mw":"","main_use":"","uses":"","system_id":"amu_darya","hybas_id_level12":4121322380,"in_headwater_formation":0,"hyriv_id":40372655,"hylak_id":1367542,"position_source":"snapped to the river network"}},{"type":"Feature","geometry":{"type":"Point","coordinates":[67.80549,38.58939]},"properties":{"dam_id":16351,"grand_id":"","dam_name":"","reservoir_name":"","river":"","country":"Uzbekistan","year_completed":"","dam_height_m":"","capacity_mcm":"5.30","power_capacity_mw":"","main_use":"","uses":"","system_id":"amu_darya","hybas_id_level12":4121329400,"in_headwater_formation":0,"hyriv_id":40393564,"hylak_id":1368416,"position_source":"snapped to the river network"}},{"type":"Feature","geometry":{"type":"Point","coordinates":[65.81915,38.48491]},"properties":{"dam_id":16360,"grand_id":"","dam_name":"","reservoir_name":"","river":"","country":"Uzbekistan","year_completed":2000,"dam_height_m":"","capacity_mcm":"6.00","power_capacity_mw":"","main_use":"","uses":"","system_id":"amu_darya","hybas_id_level12":4120504120,"in_headwater_formation":0,"hyriv_id":40396601,"hylak_id":1368485,"position_source":"snapped to the river network"}},{"type":"Feature","geometry":{"type":"Point","coordinates":[69.30632,40.18988]},"properties":{"dam_id":27871,"grand_id":"","dam_name":"","reservoir_name":"","river":"","country":"Tajikistan","year_completed":"","dam_height_m":"","capacity_mcm":"446.10","power_capacity_mw":"","main_use":"","uses":"","system_id":"syr_darya","hybas_id_level12":4120449740,"in_headwater_formation":0,"hyriv_id":40345945,"hylak_id":1431163,"position_source":"snapped to the river network"}},{"type":"Feature","geometry":{"type":"Point","coordinates":[75.63877,41.36666]},"properties":{"dam_id":34727,"grand_id":"","dam_name":"","reservoir_name":"","river":"","country":"Kyrgyzstan","year_completed":"","dam_height_m":"","capacity_mcm":"","power_capacity_mw":"","main_use":"","uses":"","system_id":"syr_darya","hybas_id_level12":4120405760,"in_headwater_formation":1,"hyriv_id":40311274,"hylak_id":"","position_source":"reported dam location"}},{"type":"Feature","geometry":{"type":"Point","coordinates":[71.03921,40.20942]},"properties":{"dam_id":34729,"grand_id":"","dam_name":"","reservoir_name":"","river":"","country":"Kyrgyzstan","year_completed":"","dam_height_m":"","capacity_mcm":"","power_capacity_mw":"","main_use":"","uses":"","system_id":"syr_darya","hybas_id_level12":4121307200,"in_headwater_formation":0,"hyriv_id":40347584,"hylak_id":"","position_source":"reported dam location"}},{"type":"Feature","geometry":{"type":"Point","coordinates":[70.98175,40.38887]},"properties":{"dam_id":34730,"grand_id":"","dam_name":"","reservoir_name":"","river":"","country":"Uzbekistan","year_completed":"","dam_height_m":"","capacity_mcm":"","power_capacity_mw":"","main_use":"","uses":"","system_id":"syr_darya","hybas_id_level12":4120427670,"in_headwater_formation":0,"hyriv_id":40343321,"hylak_id":"","position_source":"reported dam location"}},{"type":"Feature","geometry":{"type":"Point","coordinates":[71.03197,40.3154]},"properties":{"dam_id":34731,"grand_id":"","dam_name":"","reservoir_name":"","river":"","country":"Uzbekistan","year_completed":"","dam_height_m":"","capacity_mcm":"","power_capacity_mw":"","main_use":"","uses":"","system_id":"syr_darya","hybas_id_level12":4121307200,"in_headwater_formation":0,"hyriv_id":40343321,"hylak_id":"","position_source":"reported dam location"}},{"type":"Feature","geometry":{"type":"Point","coordinates":[73.33131,41.77341]},"properties":{"dam_id":34735,"grand_id":"","dam_name":"","reservoir_name":"","river":"","country":"Kyrgyzstan","year_completed":"","dam_height_m":"","capacity_mcm":"","power_capacity_mw":"","main_use":"","uses":"","system_id":"syr_darya","hybas_id_level12":4120391930,"in_headwater_formation":1,"hyriv_id":40297165,"hylak_id":"","position_source":"reported dam location"}},{"type":"Feature","geometry":{"type":"Point","coordinates":[71.30625,40.91486]},"properties":{"dam_id":34743,"grand_id":"","dam_name":"","reservoir_name":"","river":"","country":"Uzbekistan","year_completed":2007,"dam_height_m":"","capacity_mcm":"138.20","power_capacity_mw":"","main_use":"","uses":"","system_id":"syr_darya","hybas_id_level12":4120422070,"in_headwater_formation":0,"hyriv_id":40324327,"hylak_id":1432869,"position_source":"snapped to the river network"}},{"type":"Feature","geometry":{"type":"Point","coordinates":[73.96453,41.37274]},"properties":{"dam_id":34744,"grand_id":"","dam_name":"","reservoir_name":"","river":"","country":"Kyrgyzstan","year_completed":2016,"dam_height_m":"","capacity_mcm":"1.30","power_capacity_mw":"","main_use":"","uses":"","system_id":"syr_darya","hybas_id_level12":4120402500,"in_headwater_formation":1,"hyriv_id":40312931,"hylak_id":"","position_source":"snapped to the river network"}},{"type":"Feature","geometry":{"type":"Point","coordinates":[78.16628,41.91346]},"properties":{"dam_id":34745,"grand_id":"","dam_name":"","reservoir_name":"","river":"","country":"Kyrgyzstan","year_completed":2016,"dam_height_m":"","capacity_mcm":"1.40","power_capacity_mw":"","main_use":"","uses":"","system_id":"syr_darya","hybas_id_level12":4121287830,"in_headwater_formation":1,"hyriv_id":40293320,"hylak_id":1432870,"position_source":"snapped to the river network"}},{"type":"Feature","geometry":{"type":"Point","coordinates":[69.06232,40.90585]},"properties":{"dam_id":34748,"grand_id":"","dam_name":"","reservoir_name":"","river":"","country":"Uzbekistan","year_completed":"","dam_height_m":"","capacity_mcm":"","power_capacity_mw":"","main_use":"","uses":"","system_id":"syr_darya","hybas_id_level12":4120422920,"in_headwater_formation":0,"hyriv_id":40323759,"hylak_id":"","position_source":"reported dam location"}},{"type":"Feature","geometry":{"type":"Point","coordinates":[69.28591,40.99187]},"properties":{"dam_id":34749,"grand_id":"","dam_name":"","reservoir_name":"","river":"","country":"Uzbekistan","year_completed":"","dam_height_m":"","capacity_mcm":"","power_capacity_mw":"","main_use":"","uses":"","system_id":"syr_darya","hybas_id_level12":4121299640,"in_headwater_formation":0,"hyriv_id":40321448,"hylak_id":"","position_source":"reported dam location"}},{"type":"Feature","geometry":{"type":"Point","coordinates":[69.20247,41.00636]},"properties":{"dam_id":34750,"grand_id":"","dam_name":"","reservoir_name":"","river":"","country":"Uzbekistan","year_completed":"","dam_height_m":"","capacity_mcm":"","power_capacity_mw":"","main_use":"","uses":"","system_id":"syr_darya","hybas_id_level12":4120422710,"in_headwater_formation":0,"hyriv_id":40321174,"hylak_id":"","position_source":"reported dam location"}},{"type":"Feature","geometry":{"type":"Point","coordinates":[65.58841,40.13338]},"properties":{"dam_id":34751,"grand_id":"","dam_name":"","reservoir_name":"","river":"","country":"Uzbekistan","year_completed":"","dam_height_m":"","capacity_mcm":"","power_capacity_mw":"","main_use":"","uses":"","system_id":"amu_darya","hybas_id_level12":4120451490,"in_headwater_formation":0,"hyriv_id":40347858,"hylak_id":"","position_source":"reported dam location"}},{"type":"Feature","geometry":{"type":"Point","coordinates":[67.40636,39.53932]},"properties":{"dam_id":34752,"grand_id":"","dam_name":"","reservoir_name":"","river":"","country":"Uzbekistan","year_completed":"","dam_height_m":"","capacity_mcm":"","power_capacity_mw":"","main_use":"","uses":"","system_id":"amu_darya","hybas_id_level12":4121316970,"in_headwater_formation":0,"hyriv_id":40365904,"hylak_id":"","position_source":"reported dam location"}},{"type":"Feature","geometry":{"type":"Point","coordinates":[65.53698,44.76357]},"properties":{"dam_id":34753,"grand_id":"","dam_name":"","reservoir_name":"","river":"","country":"Kazakhstan","year_completed":"","dam_height_m":"","capacity_mcm":"","power_capacity_mw":"","main_use":"","uses":"","system_id":"syr_darya","hybas_id_level12":4121244620,"in_headwater_formation":0,"hyriv_id":40195090,"hylak_id":"","position_source":"reported dam location"}},{"type":"Feature","geometry":{"type":"Point","coordinates":[65.24015,44.97967]},"properties":{"dam_id":34754,"grand_id":"","dam_name":"","reservoir_name":"","river":"","country":"Kazakhstan","year_completed":"","dam_height_m":"","capacity_mcm":"","power_capacity_mw":"","main_use":"","uses":"","system_id":"syr_darya","hybas_id_level12":4121241020,"in_headwater_formation":0,"hyriv_id":40187924,"hylak_id":"","position_source":"reported dam location"}},{"type":"Feature","geometry":{"type":"Point","coordinates":[68.66043,40.92562]},"properties":{"dam_id":34755,"grand_id":"","dam_name":"","reservoir_name":"","river":"","country":"Uzbekistan","year_completed":"","dam_height_m":"","capacity_mcm":"","power_capacity_mw":"","main_use":"","uses":"","system_id":"syr_darya","hybas_id_level12":4120420200,"in_headwater_formation":0,"hyriv_id":40322835,"hylak_id":"","position_source":"reported dam location"}},{"type":"Feature","geometry":{"type":"Point","coordinates":[69.0035,41.00078]},"properties":{"dam_id":34756,"grand_id":"","dam_name":"","reservoir_name":"","river":"","country":"Uzbekistan","year_completed":"","dam_height_m":"","capacity_mcm":"","power_capacity_mw":"","main_use":"","uses":"","system_id":"syr_darya","hybas_id_level12":4121299790,"in_headwater_formation":0,"hyriv_id":40321028,"hylak_id":"","position_source":"reported dam location"}},{"type":"Feature","geometry":{"type":"Point","coordinates":[69.10457,41.06621]},"properties":{"dam_id":34757,"grand_id":"","dam_name":"","reservoir_name":"","river":"","country":"Uzbekistan","year_completed":"","dam_height_m":"","capacity_mcm":"","power_capacity_mw":"","main_use":"","uses":"","system_id":"syr_darya","hybas_id_level12":4121299790,"in_headwater_formation":0,"hyriv_id":40319248,"hylak_id":"","position_source":"reported dam location"}},{"type":"Feature","geometry":{"type":"Point","coordinates":[69.28374,41.20913]},"properties":{"dam_id":34758,"grand_id":"","dam_name":"","reservoir_name":"","river":"","country":"Uzbekistan","year_completed":"","dam_height_m":"","capacity_mcm":"","power_capacity_mw":"","main_use":"","uses":"","system_id":"syr_darya","hybas_id_level12":4121296650,"in_headwater_formation":0,"hyriv_id":40314514,"hylak_id":"","position_source":"reported dam location"}},{"type":"Feature","geometry":{"type":"Point","coordinates":[69.37222,41.25969]},"properties":{"dam_id":34759,"grand_id":"","dam_name":"","reservoir_name":"","river":"","country":"Uzbekistan","year_completed":"","dam_height_m":"","capacity_mcm":"","power_capacity_mw":"","main_use":"","uses":"","system_id":"syr_darya","hybas_id_level12":4121295730,"in_headwater_formation":0,"hyriv_id":40313881,"hylak_id":"","position_source":"reported dam location"}},{"type":"Feature","geometry":{"type":"Point","coordinates":[69.47722,41.34628]},"properties":{"dam_id":34760,"grand_id":"","dam_name":"","reservoir_name":"","river":"","country":"Uzbekistan","year_completed":"","dam_height_m":"","capacity_mcm":"","power_capacity_mw":"","main_use":"","uses":"","system_id":"syr_darya","hybas_id_level12":4121295730,"in_headwater_formation":0,"hyriv_id":40310998,"hylak_id":"","position_source":"reported dam location"}},{"type":"Feature","geometry":{"type":"Point","coordinates":[69.76225,41.57409]},"properties":{"dam_id":34761,"grand_id":"","dam_name":"","reservoir_name":"","river":"","country":"Uzbekistan","year_completed":"","dam_height_m":"","capacity_mcm":"","power_capacity_mw":"","main_use":"","uses":"","system_id":"syr_darya","hybas_id_level12":4120398690,"in_headwater_formation":0,"hyriv_id":40303216,"hylak_id":"","position_source":"reported dam location"}},{"type":"Feature","geometry":{"type":"Point","coordinates":[69.25629,40.21461]},"properties":{"dam_id":34762,"grand_id":"","dam_name":"","reservoir_name":"","river":"","country":"Uzbekistan","year_completed":"","dam_height_m":"","capacity_mcm":"","power_capacity_mw":"","main_use":"","uses":"","system_id":"syr_darya","hybas_id_level12":4120448560,"in_headwater_formation":0,"hyriv_id":40345239,"hylak_id":"","position_source":"reported dam location"}},{"type":"Feature","geometry":{"type":"Point","coordinates":[69.33679,41.23683]},"properties":{"dam_id":34763,"grand_id":"","dam_name":"","reservoir_name":"","river":"","country":"Uzbekistan","year_completed":"","dam_height_m":"","capacity_mcm":"","power_capacity_mw":"","main_use":"","uses":"","system_id":"syr_darya","hybas_id_level12":4121296650,"in_headwater_formation":0,"hyriv_id":40313881,"hylak_id":"","position_source":"reported dam location"}},{"type":"Feature","geometry":{"type":"Point","coordinates":[69.32986,41.23483]},"properties":{"dam_id":34764,"grand_id":"","dam_name":"","reservoir_name":"","river":"","country":"Uzbekistan","year_completed":"","dam_height_m":"","capacity_mcm":"","power_capacity_mw":"","main_use":"","uses":"","system_id":"syr_darya","hybas_id_level12":4121296650,"in_headwater_formation":0,"hyriv_id":40313881,"hylak_id":"","position_source":"reported dam location"}},{"type":"Feature","geometry":{"type":"Point","coordinates":[69.58618,41.43099]},"properties":{"dam_id":34765,"grand_id":"","dam_name":"","reservoir_name":"","river":"","country":"Uzbekistan","year_completed":"","dam_height_m":"","capacity_mcm":"","power_capacity_mw":"","main_use":"","uses":"","system_id":"syr_darya","hybas_id_level12":4121294200,"in_headwater_formation":0,"hyriv_id":40307537,"hylak_id":"","position_source":"reported dam location"}},{"type":"Feature","geometry":{"type":"Point","coordinates":[66.48267,39.88288]},"properties":{"dam_id":34766,"grand_id":"","dam_name":"","reservoir_name":"","river":"","country":"Uzbekistan","year_completed":"","dam_height_m":"","capacity_mcm":"","power_capacity_mw":"","main_use":"","uses":"","system_id":"amu_darya","hybas_id_level12":4121312420,"in_headwater_formation":0,"hyriv_id":40355599,"hylak_id":"","position_source":"reported dam location"}},{"type":"Feature","geometry":{"type":"Point","coordinates":[67.0538,39.69413]},"properties":{"dam_id":34767,"grand_id":"","dam_name":"","reservoir_name":"","river":"","country":"Uzbekistan","year_completed":"","dam_height_m":"","capacity_mcm":"","power_capacity_mw":"","main_use":"","uses":"","system_id":"amu_darya","hybas_id_level12":4120465210,"in_headwater_formation":0,"hyriv_id":40361182,"hylak_id":"","position_source":"reported dam location"}},{"type":"Feature","geometry":{"type":"Point","coordinates":[67.04262,39.69615]},"properties":{"dam_id":34768,"grand_id":"","dam_name":"","reservoir_name":"","river":"","country":"Uzbekistan","year_completed":"","dam_height_m":"","capacity_mcm":"","power_capacity_mw":"","main_use":"","uses":"","system_id":"amu_darya","hybas_id_level12":4120465210,"in_headwater_formation":0,"hyriv_id":40361182,"hylak_id":"","position_source":"reported dam location"}},{"type":"Feature","geometry":{"type":"Point","coordinates":[67.97263,40.9753]},"properties":{"dam_id":34769,"grand_id":"","dam_name":"","reservoir_name":"","river":"","country":"Uzbekistan","year_completed":"","dam_height_m":"","capacity_mcm":"722.90","power_capacity_mw":"","main_use":"","uses":"","system_id":"syr_darya","hybas_id_level12":4121298370,"in_headwater_formation":0,"hyriv_id":40322101,"hylak_id":14485,"position_source":"reported dam location"}},{"type":"Feature","geometry":{"type":"Point","coordinates":[66.73125,40.27865]},"properties":{"dam_id":34770,"grand_id":"","dam_name":"","reservoir_name":"","river":"","country":"Uzbekistan","year_completed":2016,"dam_height_m":"","capacity_mcm":"10.40","power_capacity_mw":"","main_use":"","uses":"","system_id":"amu_darya","hybas_id_level12":4121310370,"in_headwater_formation":0,"hyriv_id":40349059,"hylak_id":1432873,"position_source":"snapped to the river network"}},{"type":"Feature","geometry":{"type":"Point","coordinates":[62.33089,45.75937]},"properties":{"dam_id":34773,"grand_id":"","dam_name":"","reservoir_name":"","river":"","country":"Kazakhstan","year_completed":"","dam_height_m":"","capacity_mcm":"","power_capacity_mw":"","main_use":"","uses":"","system_id":"syr_darya","hybas_id_level12":4121229790,"in_headwater_formation":0,"hyriv_id":40161730,"hylak_id":"","position_source":"reported dam location"}},{"type":"Feature","geometry":{"type":"Point","coordinates":[59.58866,42.37527]},"properties":{"dam_id":34774,"grand_id":"","dam_name":"","reservoir_name":"","river":"","country":"Uzbekistan","year_completed":"","dam_height_m":"","capacity_mcm":"","power_capacity_mw":"","main_use":"","uses":"","system_id":"amu_darya","hybas_id_level12":4121279060,"in_headwater_formation":0,"hyriv_id":40277864,"hylak_id":"","position_source":"reported dam location"}},{"type":"Feature","geometry":{"type":"Point","coordinates":[61.40482,41.21459]},"properties":{"dam_id":34775,"grand_id":"","dam_name":"","reservoir_name":"","river":"","country":"Uzbekistan","year_completed":"","dam_height_m":"","capacity_mcm":"417.70","power_capacity_mw":"","main_use":"","uses":"","system_id":"amu_darya","hybas_id_level12":4121295960,"in_headwater_formation":0,"hyriv_id":40314126,"hylak_id":1308,"position_source":"reported dam location"}},{"type":"Feature","geometry":{"type":"Point","coordinates":[71.76155,37.61496]},"properties":{"dam_id":37002,"grand_id":"","dam_name":"","reservoir_name":"","river":"","country":"Tajikistan","year_completed":"","dam_height_m":"","capacity_mcm":"","power_capacity_mw":"","main_use":"","uses":"","system_id":"amu_darya","hybas_id_level12":4120531550,"in_headwater_formation":1,"hyriv_id":40422365,"hylak_id":"","position_source":"reported dam location"}},{"type":"Feature","geometry":{"type":"Point","coordinates":[67.87391,38.08848]},"properties":{"dam_id":37033,"grand_id":"","dam_name":"","reservoir_name":"","river":"","country":"Uzbekistan","year_completed":"","dam_height_m":"","capacity_mcm":"","power_capacity_mw":"","main_use":"","uses":"","system_id":"amu_darya","hybas_id_level12":4120516400,"in_headwater_formation":0,"hyriv_id":40408949,"hylak_id":"","position_source":"reported dam location"}},{"type":"Feature","geometry":{"type":"Point","coordinates":[68.71045,35.94163]},"properties":{"dam_id":37034,"grand_id":"","dam_name":"","reservoir_name":"","river":"","country":"Afghanistan","year_completed":"","dam_height_m":"","capacity_mcm":"","power_capacity_mw":"","main_use":"","uses":"","system_id":"amu_darya","hybas_id_level12":4121363980,"in_headwater_formation":1,"hyriv_id":40478995,"hylak_id":"","position_source":"reported dam location"}},{"type":"Feature","geometry":{"type":"Point","coordinates":[70.73547,36.33244]},"properties":{"dam_id":37035,"grand_id":"","dam_name":"","reservoir_name":"","river":"","country":"Afghanistan","year_completed":"","dam_height_m":"","capacity_mcm":"","power_capacity_mw":"","main_use":"","uses":"","system_id":"amu_darya","hybas_id_level12":4121358010,"in_headwater_formation":1,"hyriv_id":40465198,"hylak_id":"","position_source":"reported dam location"}},{"type":"Feature","geometry":{"type":"Point","coordinates":[67.42431,37.4217]},"properties":{"dam_id":37036,"grand_id":"","dam_name":"","reservoir_name":"","river":"","country":"Uzbekistan","year_completed":"","dam_height_m":"","capacity_mcm":"","power_capacity_mw":"","main_use":"","uses":"","system_id":"amu_darya","hybas_id_level12":4120536580,"in_headwater_formation":0,"hyriv_id":40428549,"hylak_id":"","position_source":"reported dam location"}},{"type":"Feature","geometry":{"type":"Point","coordinates":[67.467,37.62777]},"properties":{"dam_id":37037,"grand_id":"","dam_name":"","reservoir_name":"","river":"","country":"Uzbekistan","year_completed":"","dam_height_m":"","capacity_mcm":"","power_capacity_mw":"","main_use":"","uses":"","system_id":"amu_darya","hybas_id_level12":4121341790,"in_headwater_formation":0,"hyriv_id":40422090,"hylak_id":"","position_source":"reported dam location"}},{"type":"Feature","geometry":{"type":"Point","coordinates":[67.58617,37.77638]},"properties":{"dam_id":37038,"grand_id":"","dam_name":"","reservoir_name":"","river":"","country":"Uzbekistan","year_completed":"","dam_height_m":"","capacity_mcm":"","power_capacity_mw":"","main_use":"","uses":"","system_id":"amu_darya","hybas_id_level12":4120525280,"in_headwater_formation":0,"hyriv_id":40417447,"hylak_id":"","position_source":"reported dam location"}},{"type":"Feature","geometry":{"type":"Point","coordinates":[68.12752,37.54518]},"properties":{"dam_id":37039,"grand_id":"","dam_name":"","reservoir_name":"","river":"","country":"Tajikistan","year_completed":"","dam_height_m":"","capacity_mcm":"","power_capacity_mw":"","main_use":"","uses":"","system_id":"amu_darya","hybas_id_level12":4120535850,"in_headwater_formation":0,"hyriv_id":40425082,"hylak_id":"","position_source":"reported dam location"}},{"type":"Feature","geometry":{"type":"Point","coordinates":[68.88734,37.8817]},"properties":{"dam_id":37040,"grand_id":"","dam_name":"","reservoir_name":"","river":"","country":"Tajikistan","year_completed":"","dam_height_m":"","capacity_mcm":"","power_capacity_mw":"","main_use":"","uses":"","system_id":"amu_darya","hybas_id_level12":4121338400,"in_headwater_formation":1,"hyriv_id":40414321,"hylak_id":"","position_source":"reported dam location"}},{"type":"Feature","geometry":{"type":"Point","coordinates":[69.02748,37.97079]},"properties":{"dam_id":37041,"grand_id":"","dam_name":"","reservoir_name":"","river":"","country":"Tajikistan","year_completed":"","dam_height_m":"","capacity_mcm":"","power_capacity_mw":"","main_use":"","uses":"","system_id":"amu_darya","hybas_id_level12":4121337700,"in_headwater_formation":1,"hyriv_id":40411650,"hylak_id":"","position_source":"reported dam location"}},{"type":"Feature","geometry":{"type":"Point","coordinates":[69.77267,38.68242]},"properties":{"dam_id":37042,"grand_id":"","dam_name":"","reservoir_name":"","river":"","country":"Tajikistan","year_completed":"","dam_height_m":"","capacity_mcm":"","power_capacity_mw":"","main_use":"","uses":"","system_id":"amu_darya","hybas_id_level12":4121328540,"in_headwater_formation":1,"hyriv_id":40390765,"hylak_id":"","position_source":"reported dam location"}},{"type":"Feature","geometry":{"type":"Point","coordinates":[67.82822,38.42865]},"properties":{"dam_id":37048,"grand_id":"","dam_name":"","reservoir_name":"","river":"","country":"Uzbekistan","year_completed":2011,"dam_height_m":"","capacity_mcm":"3.00","power_capacity_mw":"","main_use":"","uses":"","system_id":"amu_darya","hybas_id_level12":4120510030,"in_headwater_formation":0,"hyriv_id":40398798,"hylak_id":1433161,"position_source":"snapped to the river network"}}]}
