{"type":"FeatureCollection","name":"glims_angren_outlines","source":{"asset":"GLIMS/20230607","bbox":[69.8,40.8,70.9,41.7],"label":"Angren (Ahangaran) headwaters, Kurama and Chatkal ranges"},"selection":{"lineType":"glac_bound","deduplication":"latest src_date per glac_id","internalRock":"intrnl_rock polygons of the same glacier subtracted"},"retrievedAt":"2026-09-25T05:48:43+00:00","features":[{"type":"Feature","geometry":{"type":"Polygon","coordinates":[[[70.3315102296361,41.250421485485475],[70.33155927131607,41.25011822488861],[70.33184471197254,41.2499443341685],[70.3321835533663,41.24981058960503],[70.33252693544505,41.249716964709215],[70.33292380894419,41.249712482358795],[70.33327164063726,41.249841824927124],[70.33339197400596,41.25009594796644],[70.33339642406969,41.25039917322579],[70.33317346675291,41.25061770086595],[70.332888117586,41.25079603570139],[70.33283462595335,41.25083620165894],[70.33236636961144,41.250367966140885],[70.33196504564545,41.25037239419081],[70.3315102296361,41.250421485485475]]]},"properties":{"glac_id":"G070332E41250N","glac_name":"None","src_date":"2000-09-15T00:00:00","anlys_time":"2018-07-01T00:00:00","area":0,"analysts":"Sakai, Akiko","region":"angren"}},{"type":"Feature","geometry":{"type":"Polygon","coordinates":[[[70.34394224974466,41.24841936279929],[70.34416520279456,41.24820086339162],[70.34456651806116,41.24819637879624],[70.34496783304066,41.24823652396476],[70.34531565728712,41.248316771165904],[70.34548956932943,41.24857544066545],[70.3457258716629,41.2487894583154],[70.34589978357799,41.24904362564334],[70.34613608573856,41.24930219837132],[70.34619411688422,41.24930221836097],[70.34573922156117,41.24948061347936],[70.34533790713365,41.249485027262395],[70.34493659241893,41.24944495631532],[70.34453527741707,41.24936467938426],[70.34418745268674,41.24923979900501],[70.34395559968536,41.24902575648566],[70.34395114970516,41.24872258556174],[70.34394224974466,41.24841936279929]]]},"properties":{"glac_id":"G070345E41249N","glac_name":"None","src_date":"2000-09-15T00:00:00","anlys_time":"2018-07-01T00:00:00","area":0,"analysts":"Sakai, Akiko","region":"angren"}},{"type":"Feature","geometry":{"type":"Polygon","coordinates":[[[70.35721247861028,41.27386298892298],[70.35726605873171,41.2735597327139],[70.35748900646975,41.27334123517387],[70.35771195411863,41.27312273587142],[70.35788141243484,41.27286416677222],[70.3579883909166,41.272601029651945],[70.3580999100591,41.27234238159075],[70.35803298041354,41.272039177437506],[70.35797059144228,41.271735964041575],[70.35773865334228,41.27152641740109],[70.35750680595946,41.27131238743383],[70.35727050860596,41.27109830650067],[70.35738193707837,41.270839710180056],[70.35760488477008,41.27062119937291],[70.35800619039036,41.27065688505477],[70.3583495566579,41.27074160879548],[70.35852791450864,41.27099573153689],[70.35864833326966,41.27125442423548],[70.35888018017742,41.271468452480406],[70.35911656766163,41.271682471940935],[70.35917895650452,41.271981187807725],[70.35918340636351,41.27228447331205],[70.35907642811125,41.27254304255469],[70.35890697015859,41.27280618880523],[70.35879999185322,41.27306482858735],[70.35869292271379,41.27332787532005],[70.35858149450357,41.27358653582868],[70.35858594436732,41.27388973833101],[70.35859484409472,41.2741929154344],[70.35865723299607,41.2744961165936],[70.3587241625666,41.274794884095876],[70.35884013142352,41.2750535849531],[70.35884013142352,41.27509812399413],[70.35815339928156,41.2750624443503],[70.35797949117952,41.27480381477409],[70.35780113315319,41.27454520778438],[70.35756474511078,41.27433561869133],[70.35733289765561,41.2741215964985],[70.35721247861028,41.27386298892298]]]},"properties":{"glac_id":"G070358E41273N","glac_name":"None","src_date":"2000-09-15T00:00:00","anlys_time":"2018-07-01T00:00:00","area":0,"analysts":"Sakai, Akiko","region":"angren"}},{"type":"Feature","geometry":{"type":"Polygon","coordinates":[[[70.35516135504004,41.50570498207374],[70.35532182353784,41.50545530299607],[70.3553976532873,41.505138707548795],[70.35555821253118,41.504888967590766],[70.35569198159445,41.504679424477],[70.35571868091483,41.50463480351429],[70.3557142310282,41.50432270778557],[70.35570533125481,41.50401055641922],[70.35570088136805,41.503698383788276],[70.35586144052466,41.50344422923994],[70.35610663824251,41.503190084448505],[70.35643665603773,41.50300281204323],[70.35659712416863,41.50274863579491],[70.35661946438013,41.502659469361795],[70.3569315915505,41.50246322133812],[70.35735523783762,41.50209761080627],[70.35772975360122,41.50173195864747],[70.35825592784477,41.50147329092988],[70.35888018017742,41.50146436596049],[70.35950452262374,41.50156694063919],[70.35999055570598,41.50184786765812],[70.35997266548233,41.50208419816426],[70.36014657296191,41.5022848723191],[70.36048103821241,41.50268172423439],[70.36057021680351,41.50277536709814],[70.3605122779649,41.502891353554546],[70.36043644891151,41.50326584515968],[70.36028034092358,41.503511106939],[70.3599325259937,41.50365382023753],[70.35947773267131,41.50380541836029],[70.35902293897742,41.503809911735885],[70.35840313666998,41.50381881187321],[70.35777434311885,41.50382773101562],[70.35761387532685,41.50393921087219],[70.35728830810264,41.50399273032999],[70.35712774935692,41.50424240611513],[70.3568825520881,41.50449662226118],[70.35658377452961,41.5046704763306],[70.35655253455681,41.50468829596471],[70.35639206641306,41.50494253547784],[70.35614677800677,41.50519217583464],[70.35582130073985,41.50544640855357],[70.35557601208254,41.50570052377425],[70.35541545284377,41.50595473928696],[70.35516135504004,41.50570498207374]]]},"properties":{"glac_id":"G070358E41503N","glac_name":"None","src_date":"2002-07-10T00:00:00","anlys_time":"2018-07-01T00:00:00","area":0,"analysts":"Sakai, Akiko","region":"angren"}},{"type":"Feature","geometry":{"type":"Polygon","coordinates":[[[70.35828716772208,41.49432540303797],[70.35838969626064,41.49403549995851],[70.3586616828592,41.49382151712846],[70.35899169914137,41.49365203952813],[70.35932171522794,41.49352273933348],[70.35970957923372,41.493433578447004],[70.36009753378256,41.49342912491546],[70.36048548806099,41.493464776051674],[70.36081995310778,41.49358960289109],[70.36110083820624,41.49379477506765],[70.36143975272401,41.49399986532001],[70.36177866703527,41.494200546879064],[70.3618321559042,41.49420054328097],[70.36101610954454,41.49487827141909],[70.36068618527582,41.495007663142154],[70.36035616999824,41.495177068575906],[70.35996821562968,41.49522610593962],[70.35958026099068,41.49523055604511],[70.35919239689481,41.49519043519087],[70.35885348100847,41.49507003173093],[70.3585725039624,41.49486491520557],[70.35840313666998,41.49461970173592],[70.35828716772208,41.49432540303797]]]},"properties":{"glac_id":"G070360E41494N","glac_name":"None","src_date":"2002-07-10T00:00:00","anlys_time":"2018-07-01T00:00:00","area":0,"analysts":"Sakai, Akiko","region":"angren"}},{"type":"Feature","geometry":{"type":"Polygon","coordinates":[[[70.36231818695293,41.498829052909834],[70.36242516458185,41.49853473909436],[70.3625277831709,41.49824045940467],[70.36279976774671,41.49802640811443],[70.36312978157413,41.49781682767978],[70.36357122243864,41.49768757142793],[70.3639011449952,41.49755825111015],[70.36417312889873,41.497344191295326],[70.36428019698316,41.49704988082746],[70.3644407536648,41.49680022240235],[70.36482870491207,41.49671099117482],[70.36521656507581,41.49679126869339],[70.36549753876434,41.496996365506625],[70.36567144451517,41.49724163340593],[70.36572493300929,41.497286213117754],[70.36613068257272,41.49794617033071],[70.36619316144063,41.498240456165206],[70.36602815546172,41.49849020557625],[70.36586759923921,41.498744340097296],[70.3658185605647,41.499034155297544],[70.36571603339603,41.49932852745734],[70.36543960043943,41.49954253000293],[70.36499807024752,41.499587087030186],[70.36455218070105,41.499466713862965],[70.36415977944145,41.49939091781776],[70.36377182772691,41.499310619909],[70.36343745526864,41.49919023049132],[70.36309854196871,41.499025260792386],[70.36271058951316,41.498945032260664],[70.36231818695293,41.498829052909834]]]},"properties":{"glac_id":"G070364E41498N","glac_name":"None","src_date":"2002-07-10T00:00:00","anlys_time":"2018-07-01T00:00:00","area":0,"analysts":"Sakai, Akiko","region":"angren"}},{"type":"Feature","geometry":{"type":"Polygon","coordinates":[[[70.36483315472583,41.263236966113105],[70.36488664330072,41.26288914525433],[70.36505164961903,41.26263052648548],[70.36545294986593,41.26258142518767],[70.3658498000171,41.262576970182835],[70.36619316144063,41.26244319578047],[70.36659001106241,41.262349562853984],[70.36699131019675,41.26234507818972],[70.36716966527436,41.26260372406558],[70.36729008216297,41.262862374974645],[70.36735247008816,41.263161139341996],[70.36735701069381,41.26350897327405],[70.36742384840447,41.26385225942321],[70.36742384840447,41.263896882541616],[70.36622440087197,41.26395485397146],[70.36587658966239,41.263870106298256],[70.36547519890937,41.2637898210759],[70.36507389867856,41.26374974773686],[70.36484205435326,41.26354013300846],[70.36483315472583,41.263236966113105]]]},"properties":{"glac_id":"G070366E41263N","glac_name":"None","src_date":"2000-09-15T00:00:00","anlys_time":"2018-07-01T00:00:00","area":0,"analysts":"Sakai, Akiko","region":"angren"}},{"type":"Feature","geometry":{"type":"Polygon","coordinates":[[[70.36476177607625,41.51109602683055],[70.36517642596584,41.51102919008819],[70.3655911663581,41.51089987558138],[70.36600590644045,41.51089539544093],[70.36642055540054,41.510890970786576],[70.36683974466057,41.51088646696095],[70.36725439299734,41.510944457237066],[70.36759330375982,41.51125214982121],[70.36768248120897,41.51156424074589],[70.36777610843396,41.511876383516245],[70.36794556368163,41.51212609350622],[70.36819974645603,41.51237134265423],[70.36820419624274,41.51243381335415],[70.36712507651033,41.51275928415322],[70.36695562101191,41.51250957588075],[70.36670143766719,41.512264324991946],[70.36652762305144,41.512014650467314],[70.3662734395106,41.51176939713764],[70.36593897774657,41.51158659239129],[70.365519787806,41.511528599950395],[70.36518541640022,41.51140822629668],[70.36476622589056,41.51141264828434],[70.36476177607625,41.51109602683055]]]},"properties":{"glac_id":"G070367E41512N","glac_name":"None","src_date":"2002-07-10T00:00:00","anlys_time":"2018-07-01T00:00:00","area":0,"analysts":"Sakai, Akiko","region":"angren"}},{"type":"Feature","geometry":{"type":"Polygon","coordinates":[[[70.36691103223068,41.47949442978375],[70.36701364999067,41.479200105467015],[70.367343570501,41.47903066016529],[70.36767358162712,41.47885674677592],[70.36794556368163,41.47864721011262],[70.36827557444938,41.47851789281688],[70.36866352301479,41.478513379382896],[70.3690514713086,41.47842421889242],[70.36949290746138,41.47837516356667],[70.36954639558684,41.47837515219313],[70.36923427550177,41.47929824780383],[70.36902023203658,41.479552354370036],[70.3688017387068,41.47984667031937],[70.3684761780369,41.48010087136358],[70.36808822934033,41.48019002401861],[70.36791432434727,41.47990016947146],[70.36763344269492,41.47965045095014],[70.3672454934086,41.479614840954675],[70.36691103223068,41.47949442978375]]]},"properties":{"glac_id":"G070368E41479N","glac_name":"None","src_date":"2002-07-10T00:00:00","anlys_time":"2018-07-01T00:00:00","area":0,"analysts":"Sakai, Akiko","region":"angren"}},{"type":"Feature","geometry":{"type":"Polygon","coordinates":[[[70.36499362043509,41.49136899413765],[70.36510958798443,41.49165882546806],[70.36520321564363,41.49176142191066],[70.36533698238831,41.49190851489574],[70.36572493300929,41.49190410874571],[70.36611288335907,41.49189962750129],[70.36650528323794,41.49202000373535],[70.36683974466057,41.49214040565562],[70.36717411506936,41.49226079035075],[70.36756651419745,41.492381235835296],[70.36790097497999,41.492501634128196],[70.36823543556078,41.492622031272376],[70.36857434572347,41.492786995917875],[70.36869022171226,41.492916298933665],[70.36895330370656,41.49308128202289],[70.36959988370712,41.493362187848994],[70.37030885054523,41.493500458857234],[70.37082611333994,41.49373679763949],[70.37146379163259,41.49372786899126],[70.37197215383507,41.4934781731619],[70.37260983080685,41.49342464674074],[70.37325186597838,41.49341574175916],[70.37389399121534,41.49340677490013],[70.37439790144664,41.49316156293203],[70.37478139598583,41.49315706793286],[70.37512920160103,41.493041135662786],[70.3755126956325,41.492911829365745],[70.37595412662816,41.492822670713224],[70.37645349444892,41.49281817611775],[70.37684143727775,41.49281372475111],[70.37728740773487,41.49280925424526],[70.37750589771119,41.49285386199287],[70.37772438760098,41.49283602783959],[70.37829513073268,41.49268444805012],[70.37854040934178,41.4922474062565],[70.37866082375415,41.49171679029751],[70.37869642137328,41.491569625182926],[70.37865637405159,41.49152507426477],[70.37813911858764,41.491239693903914],[70.37787150044561,41.49081158740581],[70.37784925190064,41.4906599897833],[70.37726061864204,41.49059309068879],[70.37721603069141,41.490593135787755],[70.37718479188071,41.49063771067376],[70.37702432970592,41.49089185891789],[70.37669432415846,41.491061351157214],[70.37630638122623,41.491065804715184],[70.37591843802137,41.49107025663719],[70.3755304945439,41.491074706923236],[70.37514255079391,41.491079155573324],[70.37475015703735,41.49104351300781],[70.37457180440234,41.49098102501751],[70.37452276649869,41.490753650430655],[70.37446028857072,41.49046380420224],[70.37412592256285,41.490298848882496],[70.37373797782655,41.49026310875487],[70.37357742383918,41.49059760127066],[70.37352393610338,41.49065998183437],[70.37335893230858,41.49072687005491],[70.3730289245712,41.49089634753213],[70.37264097906507,41.49090078596495],[70.37230207139174,41.490780421740396],[70.37207912960167,41.49053512567291],[70.37195880456561,41.490240845236535],[70.37195426399771,41.48995096677474],[70.37194981424113,41.48974139794914],[70.37172687230908,41.48971024255395],[70.37119181130569,41.48946942655364],[70.37075037650729,41.4892999822477],[70.37071913733111,41.48921525978714],[70.37071023779802,41.488880821513156],[70.37074138616316,41.48868908409098],[70.37087524238291,41.48875597228118],[70.37075927603972,41.48858653568319],[70.37058982165274,41.48834129327172],[70.37041591744497,41.488091588982506],[70.37038467824989,41.48801127272339],[70.37038912801907,41.48815840193788],[70.37039811836893,41.488185191528245],[70.37025536249342,41.48826101148147],[70.36992544371667,41.4884750218195],[70.36948391709684,41.48860433275219],[70.36941707963462,41.488608811169],[70.3691272083736,41.48847948367509],[70.36899789232352,41.48848392220318],[70.3689800932019,41.48844381932434],[70.36869912127779,41.488238708298724],[70.36831126354926,41.48828333360776],[70.36792331473727,41.488287756421634],[70.36759330375982,41.48845722150518],[70.36743274799034,41.48871133880162],[70.36710282753306,41.488880816056444],[70.36677726586545,41.48909484641006],[70.36638931598026,41.489264330769444],[70.36606384470623,41.48943818863142],[70.36573383262241,41.48969234173054],[70.36546184948341,41.489901963816074],[70.36530129309706,41.490156141276316],[70.36514082747675,41.49049055143382],[70.36509178873803,41.49078489086598],[70.36498472081009,41.49107916538846],[70.36499362043509,41.49136899413765]],[[70.36982282649582,41.491725691488824],[70.36993879303515,41.49124411835807],[70.3701885251243,41.490807153339055],[70.37075927603972,41.49050839749952],[70.37140140417041,41.490597585047674],[70.37172687230908,41.49098106320586],[70.37180269981947,41.49145816896385],[70.37213270828855,41.49189070846093],[70.37227537286847,41.49202445783179],[70.37227537286847,41.4920250024655],[70.37258749123866,41.49231880787856],[70.37271235669968,41.49238564304342],[70.3724046881529,41.492706717384934],[70.3718339389345,41.492951990693655],[70.37119181130569,41.492960870984305],[70.37061661106893,41.49282270231214],[70.37003241987887,41.49263541136075],[70.36976933839706,41.49220729998783],[70.36982282649582,41.491725691488824]]]},"properties":{"glac_id":"G070368E41490N","glac_name":"None","src_date":"2002-07-10T00:00:00","anlys_time":"2018-07-01T00:00:00","area":0,"analysts":"Sakai, Akiko","region":"angren"}},{"type":"Feature","geometry":{"type":"Polygon","coordinates":[[[70.36674157666685,41.496911642308824],[70.36682185465745,41.49664409180569],[70.36687089324329,41.49635426207191],[70.36692002263696,41.496059966129515],[70.36702699937929,41.49576569938609],[70.36718755526624,41.49551595351004],[70.36735247008816,41.49529298043099],[70.36747288693707,41.495257297170696],[70.36808377955268,41.49524842793001],[70.36861893437093,41.49545797063392],[70.36915844763959,41.495698765485116],[70.3695330462589,41.49605999187602],[70.37006810886555,41.49633194571428],[70.37064775943932,41.49657278456362],[70.37126309831581,41.496777847705076],[70.37179825006167,41.497018663295336],[70.37237344907011,41.497165859143294],[70.37291304949066,41.4974021674002],[70.37299323577547,41.49740218206289],[70.37341686980514,41.49822710661498],[70.37342576929468,41.4986863604508],[70.37343920933982,41.49915016010155],[70.37356852435208,41.499604935639084],[70.37394302917477,41.49997059535287],[70.37429982560415,41.50025599626297],[70.37427303636639,41.50030950113587],[70.37414372151895,41.50075985119438],[70.37395201946686,41.50103184050023],[70.37364426079886,41.50116562461356],[70.37328310501155,41.50115224161749],[70.37274804551353,41.500938267084905],[70.37221743525228,41.50069298005371],[70.37163769551111,41.50051905363025],[70.37105804597401,41.50038083598776],[70.3705228935124,41.500135617324354],[70.3700859079522,41.4998189719166],[70.36984071640207,41.49967634118038],[70.36976933839706,41.49957373117268],[70.36965337182224,41.49928386436428],[70.36948391709684,41.4990341803772],[70.36919858646134,41.49882906055832],[70.36886412646187,41.498623983430655],[70.3685252164764,41.498418851683816],[70.36819084688247,41.49825381840945],[70.36790542476913,41.498008573406004],[70.36766023225407,41.49783023803908],[70.36758885396819,41.49774995351575],[70.36729453195699,41.497321925185176],[70.36685309405337,41.49696517289663],[70.36674157666685,41.496911642308824]]]},"properties":{"glac_id":"G070370E41498N","glac_name":"None","src_date":"2002-07-10T00:00:00","anlys_time":"2018-07-01T00:00:00","area":0,"analysts":"Sakai, Akiko","region":"angren"}},{"type":"Feature","geometry":{"type":"Polygon","coordinates":[[[70.3705050944398,41.343460594510944],[70.37058092211758,41.3431663522706],[70.37066119955196,41.34287201146804],[70.37104914644638,41.3428363348481],[70.37139695440938,41.34296119649876],[70.37174022158412,41.343086064031176],[70.37196325432214,41.34331347894791],[70.37209701943499,41.343572096103436],[70.37218619615892,41.34386193643566],[70.37223523426982,41.34418297628606],[70.37223968402411,41.34421418231217],[70.37189632634791,41.34424986645101],[70.37150838004739,41.34419193003316],[70.37116057215441,41.34409829893316],[70.37081276404285,41.343973437477636],[70.37059427142026,41.34375043509299],[70.3705050944398,41.343460594510944]]]},"properties":{"glac_id":"G070371E41344N","glac_name":"None","src_date":"2000-09-15T00:00:00","anlys_time":"2018-07-01T00:00:00","area":0,"analysts":"Sakai, Akiko","region":"angren"}},{"type":"Feature","geometry":{"type":"Polygon","coordinates":[[[70.37037577871145,41.48769916111228],[70.37040701790701,41.4872398741655],[70.37064330967223,41.48680284398764],[70.37112933300136,41.48652197211568],[70.37174476215378,41.48663787228988],[70.3720746798461,41.48702583270402],[70.37211926821165,41.48723538916497],[70.37212371796687,41.487529673726115],[70.37218619615892,41.48781953336554],[70.37246707550193,41.488024695110454],[70.37285947087939,41.48810493777637],[70.37320727770414,41.48821637181194],[70.37329200450324,41.48827882424074],[70.37320727770414,41.48831452138473],[70.37328310501155,41.488796058552765],[70.37322961724729,41.48926873885682],[70.37318947871789,41.48925987247695],[70.37293974798317,41.48917512561688],[70.37260983080685,41.48905473576554],[70.37195880456561,41.48900122876961],[70.37138351431462,41.4889833813193],[70.3711383233392,41.48888525516081],[70.37087524238291,41.48875597228118],[70.37075927603972,41.48858653568319],[70.37058982165274,41.48834129327172],[70.37041591744497,41.488091588982506],[70.37038467824989,41.48801127272339],[70.37037577871145,41.48769916111228]]]},"properties":{"glac_id":"G070372E41488N","glac_name":"None","src_date":"2002-07-10T00:00:00","anlys_time":"2018-07-01T00:00:00","area":0,"analysts":"Sakai, Akiko","region":"angren"}},{"type":"Feature","geometry":{"type":"Polygon","coordinates":[[[70.37020632420707,41.508781786004214],[70.37053188386008,41.5085275974146],[70.37086180227546,41.508335865540296],[70.37127653841351,41.5082065855398],[70.37169118342933,41.50820213264385],[70.37211036870109,41.5082600965834],[70.37244482673925,41.50838046727885],[70.37261428055814,41.50862570689621],[70.3728729109383,41.50887541908288],[70.37312709145037,41.509120670514335],[70.37329645424903,41.5093703704005],[70.37339017133569,41.50968254192141],[70.37355962486485,41.50992777586892],[70.37356407460848,41.510244341012054],[70.37357297409565,41.51055647793162],[70.37366215058154,41.51086864751966],[70.37366215058154,41.5109310677926],[70.37324741623223,41.510935508798326],[70.3728283226335,41.51087756418373],[70.37241358765873,41.5108195815171],[70.37199440261675,41.51076161732274],[70.37157975782816,41.51070364726018],[70.37124084950472,41.51058329597771],[70.37107139526518,41.510333582899506],[70.37123194998004,41.51008382695126],[70.3715618679781,41.509892099421705],[70.37172242255066,41.509637933687074],[70.37138351431462,41.50939266588235],[70.37104914644638,41.50927230878964],[70.37062996037075,41.509214339681435],[70.37029550123567,41.50909389056702],[70.37020632420707,41.508781786004214]]]},"properties":{"glac_id":"G070372E41510N","glac_name":"None","src_date":"2002-07-10T00:00:00","anlys_time":"2018-07-01T00:00:00","area":0,"analysts":"Sakai, Akiko","region":"angren"}},{"type":"Feature","geometry":{"type":"Polygon","coordinates":[[[70.37088414191334,41.521160286578706],[70.37129878722317,41.521030967562105],[70.37162879599282,41.52090164280975],[70.37153516941912,41.520589472945595],[70.37144599259024,41.52027735489096],[70.37169118342933,41.52002317278231],[70.3721906459136,41.5200811824672],[70.37236454956364,41.5203308374255],[70.37245372624443,41.52070543790922],[70.37254290291085,41.52101755398522],[70.37255180241445,41.521329703294455],[70.37255180241445,41.52139211159454],[70.37172687230908,41.52171320177141],[70.37130777755824,41.52159276296753],[70.37097331883272,41.52147239985413],[70.37088414191334,41.521160286578706]]]},"properties":{"glac_id":"G070372E41521N","glac_name":"None","src_date":"2002-07-10T00:00:00","anlys_time":"2018-07-01T00:00:00","area":0,"analysts":"Sakai, Akiko","region":"angren"}},{"type":"Feature","geometry":{"type":"Polygon","coordinates":[[[70.37363091156979,41.46943916079089],[70.37367994955255,41.46914932037378],[70.373728987531,41.46885499537269],[70.37388954147436,41.468605314578674],[70.37393857943418,41.46827085978694],[70.37433097376713,41.46834668508864],[70.3746654304618,41.468511618315866],[70.3749463993559,41.46871676667274],[70.37523172702647,41.46896200292055],[70.37540117999086,41.46921172288411],[70.37540117999086,41.46925184891104],[70.37507571401545,41.46959074490477],[70.37468776994601,41.469595226092],[70.37429982560415,41.469639831218416],[70.37391188098992,41.46964871846445],[70.37363091156979,41.46943916079089]]]},"properties":{"glac_id":"G070374E41469N","glac_name":"None","src_date":"2002-07-10T00:00:00","anlys_time":"2018-07-01T00:00:00","area":0,"analysts":"Sakai, Akiko","region":"angren"}},{"type":"Feature","geometry":{"type":"Polygon","coordinates":[[[70.37245372624444,41.476796654997855],[70.37261428055814,41.476546944632034],[70.372832772383,41.47625266857886],[70.3730468143738,41.47599845816247],[70.37337673128935,41.47578444364911],[70.37376467627921,41.475699735689105],[70.3741526209968,41.47577551049767],[70.37443359015168,41.47598064137285],[70.37443803988826,41.47602522384078],[70.3746654304618,41.476480041710694],[70.37422399843622,41.476569248183324],[70.37389399121534,41.4766985232092],[70.37351049606029,41.47678776362803],[70.37318057922455,41.476997291307285],[70.37285057138074,41.47721135615521],[70.37251611358793,41.477090960520464],[70.37245372624444,41.476796654997855]]]},"properties":{"glac_id":"G070374E41476N","glac_name":"None","src_date":"2002-07-10T00:00:00","anlys_time":"2018-07-01T00:00:00","area":0,"analysts":"Sakai, Akiko","region":"angren"}},{"type":"Feature","geometry":{"type":"Polygon","coordinates":[[[70.37320727770414,41.48518422914624],[70.37332324353414,41.48470265950583],[70.37389844095628,41.484551048363755],[70.37412592256287,41.48454655933383],[70.374540565442,41.484733884446584],[70.3749329593474,41.48511732968646],[70.37526296594771,41.48554542259014],[70.37469221968055,41.485746094592415],[70.37425069686539,41.48608497399196],[70.37464318178762,41.48646842890452],[70.37528076486717,41.486410435127596],[70.37578912355917,41.48616522239609],[70.37631973039065,41.48612061816073],[70.37643124584677,41.48630345002445],[70.37631528066923,41.48678501490714],[70.37606555134744,41.487222042325854],[70.37584706080088,41.487609932925714],[70.37556618317575,41.48770804882943],[70.37505782427854,41.48795332374273],[70.37442015013072,41.48806036962533],[70.37389399121534,41.48806482411877],[70.37379591528341,41.48792654380908],[70.37362201208356,41.48759661572989],[70.37350604631622,41.48726217188904],[70.37333659277064,41.48701244543594],[70.3732608562817,41.48688759323537],[70.37343920933982,41.48667803600423],[70.37359967255628,41.486428283787596],[70.3737602265372,41.48617413784344],[70.37347934785107,41.48596904768844],[70.37321626800819,41.48570149875086],[70.37321626800819,41.48566579298932],[70.37320727770414,41.48518422914624]]]},"properties":{"glac_id":"G070374E41487N","glac_name":"None","src_date":"2002-07-10T00:00:00","anlys_time":"2018-07-01T00:00:00","area":0,"analysts":"Sakai, Akiko","region":"angren"}},{"type":"Feature","geometry":{"type":"Polygon","coordinates":[[[70.37636885894534,41.344423818182676],[70.37644904472856,41.3441339495479],[70.37669877387684,41.34393777017704],[70.37708671653326,41.34392880675465],[70.37738993275947,41.34408936806342],[70.37752814627001,41.34434795632607],[70.37766191003534,41.34460214762567],[70.37775117667128,41.34489641934026],[70.3778046639976,41.34521750779794],[70.3778046639976,41.3452487371196],[70.3772026815487,41.34532009837661],[70.37689946521955,41.34516395784815],[70.3766809750031,41.34494104179656],[70.37650262299172,41.34468242895665],[70.37636885894534,41.344423818182676]]]},"properties":{"glac_id":"G070377E41345N","glac_name":"None","src_date":"2000-09-15T00:00:00","anlys_time":"2018-07-01T00:00:00","area":0,"analysts":"Sakai, Akiko","region":"angren"}},{"type":"Feature","geometry":{"type":"Polygon","coordinates":[[[70.37497309775017,41.48298590319355],[70.37507571401545,41.482691580426064],[70.37540562971965,41.48256223267724],[70.37579357328484,41.48247305426248],[70.37606555134744,41.48226350452969],[70.37639555727084,41.48213416728086],[70.37666753503684,41.481920131706424],[70.37699754060031,41.4817105561753],[70.37732754596642,41.48153668713992],[70.37765746032473,41.48140732607247],[70.37798746529609,41.48127805273911],[70.37837095734136,41.48119336169073],[70.37875889882172,41.48118888363752],[70.37914684002908,41.48109968574576],[70.3795347809634,41.48109520428483],[70.37954368035429,41.48138509962739],[70.37948574350082,41.481385063736965],[70.37916018912475,41.48155899500246],[70.37882573515405,41.48172841074931],[70.37849582149462,41.48185770193],[70.37822384462997,41.48207174470567],[70.37806329194707,41.48232151559873],[70.37779122405871,41.482575655251715],[70.37751924684659,41.48278520995939],[70.37718933240562,41.48295916384692],[70.37680583953889,41.483088442469565],[70.37641789668506,41.48313302550665],[70.37602995355854,41.48318208858798],[70.37564201015945,41.483186551988034],[70.37525406648777,41.483191013752126],[70.37497309775017,41.48298590319355]]]},"properties":{"glac_id":"G070377E41482N","glac_name":"None","src_date":"2002-07-10T00:00:00","anlys_time":"2018-07-01T00:00:00","area":0,"analysts":"Sakai, Akiko","region":"angren"}},{"type":"Feature","geometry":{"type":"Polygon","coordinates":[[[70.37573118631136,41.47238214503653],[70.37605220217688,41.4720610713762],[70.3764089064331,41.471686488946766],[70.37681028925638,41.47134317550073],[70.37733644539294,41.47106227690906],[70.37781801312576,41.47077686528387],[70.378428894312,41.470647562074774],[70.37855375845213,41.47054501182219],[70.3789997275247,41.47094189436508],[70.37885252417085,41.47129410440047],[70.3789550489045,41.47165087805793],[70.3789550489045,41.47168652008537],[70.37843334401639,41.471945137096135],[70.37810787982919,41.472346492482714],[70.37753259598166,41.47253374462762],[70.37691281436963,41.47264970022188],[70.37628858233984,41.47265860201205],[70.37626179319854,41.472658638957256],[70.37604330272964,41.47251592496813],[70.37573118631136,41.47238214503653]]]},"properties":{"glac_id":"G070378E41471N","glac_name":"None","src_date":"2002-07-10T00:00:00","anlys_time":"2018-07-01T00:00:00","area":0,"analysts":"Sakai, Akiko","region":"angren"}},{"type":"Feature","geometry":{"type":"Polygon","coordinates":[[[70.38155475738797,41.35401532482608],[70.38172420840918,41.35375225162938],[70.3821076978535,41.35368534904116],[70.38249563670222,41.35368087154203],[70.38288357527742,41.35373884290246],[70.38322692611497,41.35383245509417],[70.383365138161,41.35409107481418],[70.38328486257475,41.35438096052451],[70.38328931223991,41.354675216399514],[70.38333834936373,41.354996278500955],[70.38347220252759,41.35528615748803],[70.38360596484941,41.35560275116152],[70.38309316370096,41.35554922115696],[70.38283008844424,41.3553619872878],[70.3825669222521,41.355170170553414],[70.38234843428269,41.35494280167502],[70.38212994622651,41.35471985032953],[70.38191145808362,41.35449689796996],[70.38168852017593,41.3542739680555],[70.38155475738797,41.35401532482608]]]},"properties":{"glac_id":"G070383E41355N","glac_name":"None","src_date":"2000-09-15T00:00:00","anlys_time":"2018-07-01T00:00:00","area":0,"analysts":"Sakai, Akiko","region":"angren"}},{"type":"Feature","geometry":{"type":"Polygon","coordinates":[[[70.37855375845213,41.47054501182219],[70.37883027566546,41.47030863858277],[70.37902642572286,41.46984492248999],[70.37901752632362,41.46938116057634],[70.37900417722449,41.46892189916409],[70.37912005102658,41.46845815357297],[70.37951698218119,41.46808806950787],[70.37996285966435,41.467744717687374],[70.38044442510288,41.46743251422239],[70.3809259901204,41.46714713109904],[70.38149682074604,41.46692868450098],[70.3821076978535,41.46688856118079],[70.38271857428296,41.46688407923154],[70.38337403748997,41.46687513125238],[70.3839850033226,41.46686624718214],[70.38459587766712,41.46685734298662],[70.38517106332547,41.46703571423236],[70.38520230168311,41.467049028886734],[70.38529592593623,41.467205154672406],[70.38559023834866,41.46767333374596],[70.38584441299575,41.468248549730234],[70.38595138607037,41.46871673997518],[70.38595583571394,41.46910021193778],[70.38571510086418,41.46900663796228],[70.3852424393377,41.46930088788818],[70.38525133863631,41.46976914427595],[70.3856927618271,41.47012581424814],[70.38612982583014,41.470446874937224],[70.38637945977848,41.47087493986304],[70.38638844986762,41.47134320116981],[70.38635721157743,41.47179802495132],[70.38625459741398,41.4717801739503],[70.3856348256211,41.47193176448267],[70.38521120098235,41.47226178243186],[70.38458697835792,41.472377668543096],[70.38422128927265,41.4723821513362],[70.38401170127901,41.472350965073346],[70.38333834936373,41.472284058002465],[70.38275871211886,41.47214582807733],[70.38217898345366,41.47197193648369],[70.38141209520697,41.471945133446134],[70.38083236512357,41.471806949894315],[70.38034190064633,41.47149032090387],[70.38019024796084,41.47102211696544],[70.37965519515855,41.470776891141604],[70.37903532512196,41.47085713769892],[70.3789997275247,41.47094189436508],[70.37855375845213,41.47054501182219]]]},"properties":{"glac_id":"G070383E41470N","glac_name":"None","src_date":"2002-07-10T00:00:00","anlys_time":"2018-07-01T00:00:00","area":0,"analysts":"Sakai, Akiko","region":"angren"}},{"type":"Feature","geometry":{"type":"Polygon","coordinates":[[[70.3850417510354,41.34400013484976],[70.38507743905109,41.34370584418991],[70.38541633887071,41.343473979792705],[70.38575968812646,41.343375926915364],[70.38605400029046,41.34320644856318],[70.38639734914766,41.34307266747233],[70.38673624815297,41.34297455959406],[70.38707959658362,41.34284077475851],[70.3874630822918,41.34280070516219],[70.38858229964514,41.342822949852675],[70.38858229964514,41.342854181823604],[70.38854661185727,41.34314398919499],[70.38842174998574,41.34343829373156],[70.38808285202103,41.34357205805387],[70.38773950421795,41.34367461300895],[70.38740060583193,41.343777215968665],[70.38710184475539,41.34397338535971],[70.38698143219042,41.34429888862697],[70.38654890931281,41.34430340169235],[70.38616097332427,41.344209725453595],[70.38577303706172,41.344151771758106],[70.38538510052523,41.344089323436165],[70.3850417510354,41.34400013484976]]]},"properties":{"glac_id":"G070387E41344N","glac_name":"None","src_date":"2000-09-15T00:00:00","anlys_time":"2018-07-01T00:00:00","area":0,"analysts":"Sakai, Akiko","region":"angren"}},{"type":"Feature","geometry":{"type":"Polygon","coordinates":[[[70.38520230168311,41.467049028886734],[70.38570620157309,41.467276454875716],[70.38620556055037,41.467606410913994],[70.386660422697,41.46794091654072],[70.38720000912703,41.46820845223704],[70.38781087989638,41.46826192812061],[70.38842619960928,41.46825746368138],[70.38903715982208,41.468279785548134],[70.38957220349226,41.46848932647958],[70.39010733744874,41.468698953971014],[70.39014747474462,41.46869451089285],[70.39078513066644,41.468846117671006],[70.39065127928552,41.46905565696801],[70.39057554517899,41.469372262375074],[70.39090990119152,41.4694926653697],[70.39132907183047,41.469550596763995],[70.3917437925521,41.469608548276206],[70.39207823865968,41.46972896346714],[70.3922521360256,41.469974234684145],[70.39242158374523,41.47022393640719],[70.39276047902717,41.47046919395409],[70.39309492451373,41.47059401489091],[70.39342936979591,41.470714425022955],[70.3940178949238,41.47083035519665],[70.39445050271469,41.47087051205371],[70.39473582026024,41.47116031091465],[70.39484733197851,41.47155718955977],[70.3947492597845,41.471677582425436],[70.39428105562325,41.472043282731576],[70.39375482490551,41.47226621427259],[70.39338024276618,41.47266748622359],[70.39280951530462,41.47300196575195],[70.39218966011146,41.473189224549195],[70.39177948013183,41.473323003414926],[70.3913736586365,41.47312684451327],[70.39088765317422,41.47284588424344],[70.39035251997954,41.47256049844265],[70.38977289013822,41.47235094892156],[70.3890995452871,41.47232420812397],[70.38847977670629,41.472440100204594],[70.38785546698848,41.472449064702786],[70.38736945840813,41.472163678345126],[70.38712418373512,41.472020950108224],[70.38687890895253,41.471847061056664],[70.38682097287162,41.47137441089006],[70.38681207359848,41.47090616514736],[70.387043908698,41.47043352038164],[70.38746753192312,41.47010355135981],[70.3868432210539,41.47000543565523],[70.38654445967404,41.46960858555398],[70.38625014777286,41.46921619411976],[70.38595583571394,41.46910021193778],[70.38595138607037,41.46871673997518],[70.38584441299575,41.468248549730234],[70.38559023834866,41.46767333374596],[70.38529592593623,41.467205154672406],[70.38520230168311,41.467049028886734]]]},"properties":{"glac_id":"G070390E41471N","glac_name":"None","src_date":"2002-07-10T00:00:00","anlys_time":"2018-07-01T00:00:00","area":0,"analysts":"Sakai, Akiko","region":"angren"}},{"type":"Feature","geometry":{"type":"Polygon","coordinates":[[[70.39220309969825,41.31081109449029],[70.39226993439519,41.310525654633885],[70.39249295881402,41.310298316131075],[70.39278726736447,41.31012439944395],[70.39316620868685,41.31023135542661],[70.39354524055467,41.31034289567805],[70.39400009661105,41.31033398017789],[70.39437467832603,41.310387463178046],[70.39468233458274,41.31055692781086],[70.39506136540014,41.31066389271843],[70.39543594638823,41.3107174455375],[70.3958149766832,41.310766476074306],[70.39589080087214,41.31076652676519],[70.39499898061429,41.31134620577977],[70.39461994975365,41.31129267581127],[70.39431665222989,41.31112766736304],[70.3939421612829,41.31113213059685],[70.39356312969001,41.31113660106923],[70.39318854741944,41.31114104519735],[70.39280951530462,41.31108750833054],[70.39243048292734,41.311038465905966],[70.39220309969825,41.31081109449029]]]},"properties":{"glac_id":"G070394E41311N","glac_name":"None","src_date":"2000-09-15T00:00:00","anlys_time":"2018-07-01T00:00:00","area":0,"analysts":"Sakai, Akiko","region":"angren"}},{"type":"Feature","geometry":{"type":"Polygon","coordinates":[[[70.39196227678235,41.31461911921727],[70.39230562194062,41.31451660230424],[70.39268910399326,41.31444527300648],[70.3929878620248,41.31424901764181],[70.39289423908473,41.3139592038742],[70.39276047902717,41.31370054899765],[70.39275157985044,41.31341073724757],[70.39300575117834,41.31317888982027],[70.39338923274053,41.31307630469403],[70.39377716361409,41.31313870861291],[70.3941249572112,41.31326359512228],[70.3944683010128,41.31335725618564],[70.39486068069246,41.313482055491086],[70.39511930060974,41.31366938478118],[70.3953824607792,41.313896797167054],[70.39547608329343,41.31418661155498],[70.39535122300174,41.314445280887014],[70.39514163926258,41.314677119410156],[70.39493205544308,41.31490453420845],[70.39494095458436,41.31519434061396],[70.39498999066637,41.315488655132754],[70.39507916367835,41.315778486673466],[70.39508370405534,41.315840973399666],[70.39396885875463,41.31598366034124],[70.39349620434315,41.315992516158694],[70.39310827327041,41.31599702657035],[70.39276047902717,41.31587213906613],[70.39267130563731,41.315577886559616],[70.39249295881402,41.3153236696296],[70.39222979725479,41.315131925538566],[70.39201131313128,41.31490901288806],[70.39196227678235,41.31461911921727]]]},"properties":{"glac_id":"G070394E41315N","glac_name":"None","src_date":"2000-09-15T00:00:00","anlys_time":"2018-07-01T00:00:00","area":0,"analysts":"Sakai, Akiko","region":"angren"}},{"type":"Feature","geometry":{"type":"Polygon","coordinates":[[[70.39817378508673,41.32521395177205],[70.39825405849189,41.32492409805028],[70.3985082272614,41.3246922893396],[70.39880698211249,41.32449605842281],[70.39919045960414,41.32442472809442],[70.39957393682633,41.324322152309065],[70.39996195411541,41.324286474203646],[70.40034988032183,41.32431326570019],[70.4007333567289,41.32434442814602],[70.40078239229075,41.324634279083185],[70.40066198273655,41.324892883035226],[70.4004969870976,41.32515599205166],[70.40050143662292,41.32541460745652],[70.40039446639202,41.325477069043124],[70.40011796005275,41.32569557801198],[70.39977906933346,41.32582488836992],[70.3995472396285,41.3259051641429],[70.39939114272111,41.325847167620445],[70.39908793865301,41.325691128897795],[70.3987401482147,41.32556626907441],[70.39843694378493,41.32540573334015],[70.39817378508673,41.32521395177205]]]},"properties":{"glac_id":"G070399E41325N","glac_name":"None","src_date":"2000-09-15T00:00:00","anlys_time":"2018-07-01T00:00:00","area":0,"analysts":"Sakai, Akiko","region":"angren"}},{"type":"Feature","geometry":{"type":"Polygon","coordinates":[[[70.39802222813914,41.47225725973969],[70.39817823463098,41.471793522134554],[70.39857960153552,41.471418997765866],[70.39902101398276,41.47110681262837],[70.39942238026754,41.47076351342542],[70.39990392861279,41.47048259062283],[70.40015809661381,41.47039785243792],[70.40021612208939,41.470607427155755],[70.40039001686581,41.47097755721556],[70.40056391158677,41.471289697128555],[70.40065308368851,41.47166425633344],[70.40066198273655,41.47197634410919],[70.40083587737078,41.472226082332575],[70.40092504942803,41.47253823943867],[70.40092949894985,41.47277898270463],[70.40044350198433,41.47287265763098],[70.4004524010358,41.47337655467461],[70.40022057161701,41.47381351314305],[70.3996987961526,41.47410781095196],[70.39902546352012,41.47429955315541],[70.39887390680899,41.473902670135196],[70.39849932817822,41.47351032290162],[70.39808461257981,41.473175847070344],[70.3980355767755,41.47271659898085],[70.39802222813914,41.47225725973969]]]},"properties":{"glac_id":"G070399E41472N","glac_name":"None","src_date":"2002-07-10T00:00:00","anlys_time":"2018-07-01T00:00:00","area":0,"analysts":"Sakai, Akiko","region":"angren"}},{"type":"Feature","geometry":{"type":"Polygon","coordinates":[[[70.3995472396285,41.30970077290482],[70.39971223555474,41.3094376581935],[70.39992181753992,41.309205779365435],[70.40022057161701,41.30897836606897],[70.40043905245855,41.30920135862703],[70.40057281063629,41.30945995478415],[70.40070656878122,41.30971862354292],[70.40084032689333,41.30997721748887],[70.40093403927821,41.310298318814716],[70.40097862530064,41.31032948204885],[70.40029185486046,41.31033839029865],[70.40002878786353,41.310146666690095],[70.39972558414979,41.30995493100496],[70.3995472396285,41.30970077290482]]]},"properties":{"glac_id":"G070400E41310N","glac_name":"None","src_date":"2000-09-15T00:00:00","anlys_time":"2018-07-01T00:00:00","area":0,"analysts":"Sakai, Akiko","region":"angren"}},{"type":"Feature","geometry":{"type":"Polygon","coordinates":[[[70.39802222813914,41.472252850132975],[70.39817823463098,41.471793522134554],[70.39857960153552,41.471418997765866],[70.39902101398276,41.47110681262837],[70.39942238026754,41.47076351342542],[70.39990392861279,41.47048259062283],[70.40047028994495,41.470290806618124],[70.40108559541694,41.47028192676018],[70.40169654148539,41.47027749099488],[70.4023073960626,41.47026855180872],[70.40292279026674,41.47025960219386],[70.40353364346893,41.4702551382051],[70.40410890002029,41.47042908184579],[70.40468860545485,41.47070104530883],[70.40506308902567,41.471062213883606],[70.40515235119668,41.47152601762903],[70.40524597203377,41.47198081274367],[70.40529500718934,41.47247579461239],[70.40506308902567,41.472908282119626],[70.40494722071267,41.473367585265954],[70.40495167020164,41.473412173646736],[70.40464392893016,41.47374218361838],[70.4043050410259,41.47380012841396],[70.4037298754879,41.473987423123745],[70.40370308768753,41.47400077005079],[70.4031590680397,41.47410338673023],[70.4026329366866,41.474326306464896],[70.4020130926421,41.474442270022436],[70.40162961713524,41.47444668726827],[70.40157168261655,41.47397852335758],[70.40155824326023,41.47351027987749],[70.40154934422681,41.47303761667264],[70.40106334781383,41.47275669820136],[70.40044350198433,41.47287265763098],[70.4004524010358,41.47337655467461],[70.40022057161701,41.47381351314305],[70.3996987961526,41.47410781095196],[70.39903000386431,41.474299547054684],[70.39902546352012,41.47429955315541],[70.39887390680899,41.473902670135196],[70.39849932817822,41.47351032290162],[70.39808461257981,41.473175847070344],[70.3980355767755,41.47271659898085],[70.39802222813914,41.472252850132975]]]},"properties":{"glac_id":"G070402E41472N","glac_name":"None","src_date":"2000-09-23T00:00:00","anlys_time":"2015-07-16T00:00:00","area":0.212,"analysts":"Bolch, Tobias; Cogley, Graham; Frey, Holger; Guo, Wanqing; Liu, Shiyin; Moelg, Nico; Nuimura, Takayuki; Paul, Frank; Raup, Bruce H.; Sakai, Akiko","region":"angren"}},{"type":"Feature","geometry":{"type":"Polygon","coordinates":[[[70.40015809661381,41.47039785243792],[70.40047028994495,41.470290806618124],[70.40108559541694,41.47028192676018],[70.40169654148539,41.47027749099488],[70.4023073960626,41.47026855180872],[70.40292279026674,41.47025960219386],[70.40353364346893,41.4702551382051],[70.40410890002029,41.47042908184579],[70.40468860545485,41.47070104530883],[70.40506308902567,41.471062213883606],[70.40515235119668,41.47152601762903],[70.40524597203377,41.47198081274367],[70.40529500718934,41.47247579461239],[70.40506308902567,41.472908282119626],[70.40494722071267,41.473367585265954],[70.40495167020164,41.473412173646736],[70.40464392893016,41.47374218361838],[70.4043050410259,41.47380012841396],[70.4037298754879,41.473987423123745],[70.40370308768753,41.47400077005079],[70.4031590680397,41.47410338673023],[70.4026329366866,41.474326306464896],[70.4020130926421,41.474442270022436],[70.40162961713524,41.47444668726827],[70.40157168261655,41.47397852335758],[70.40155824326023,41.47351027987749],[70.40154934422681,41.47303761667264],[70.40106334781383,41.47275669820136],[70.40092949894985,41.47277898270463],[70.40092504942803,41.47253823943867],[70.40083587737078,41.472226082332575],[70.40066198273655,41.47197634410919],[70.40065308368851,41.47166425633344],[70.40056391158677,41.471289697128555],[70.40039001686581,41.47097755721556],[70.40021612208939,41.470607427155755],[70.40015809661381,41.47039785243792]]]},"properties":{"glac_id":"G070403E41472N","glac_name":"None","src_date":"2002-07-10T00:00:00","anlys_time":"2018-07-01T00:00:00","area":0,"analysts":"Sakai, Akiko","region":"angren"}},{"type":"Feature","geometry":{"type":"Polygon","coordinates":[[[70.40564724292695,41.31263484736089],[70.40571861626594,41.3123539528435],[70.40609318993343,41.31223352143116],[70.40646776334292,41.31222910042181],[70.4068467859678,41.31233609519959],[70.40700288073818,41.31262146721596],[70.40715888465819,41.31290239956276],[70.40723915673928,41.313183304538036],[70.40724360620949,41.31324128448548],[70.40710540019937,41.31381205075032],[70.4067263777548,41.31381649727779],[70.40635180452348,41.3138209905806],[70.40589695876672,41.31376745987744],[70.40581668648746,41.31348655794421],[70.40566068218234,41.31320562737172],[70.40565623269916,41.31292027027169],[70.40564724292695,41.31263484736089]]]},"properties":{"glac_id":"G070406E41313N","glac_name":"None","src_date":"2000-09-15T00:00:00","anlys_time":"2018-07-01T00:00:00","area":0,"analysts":"Sakai, Akiko","region":"angren"}},{"type":"Feature","geometry":{"type":"Polygon","coordinates":[[[70.40644542515409,41.47249364521913],[70.40677541277688,41.47236429624072],[70.40710540019937,41.472235018951274],[70.40752010892973,41.472230506881736],[70.40793926680811,41.472226043828655],[70.40835397490204,41.47228407346128],[70.408438696267,41.472284042996314],[70.40772078897685,41.47379119726416],[70.40739080192799,41.473920544937876],[70.40723025779874,41.47417469905992],[70.40690027045204,41.474304043357726],[70.40689582097903,41.47399186542783],[70.40680664989976,41.47367971435421],[70.40671302933136,41.4733675842038],[70.40654358605016,41.473117906521516],[70.40645432410747,41.47280573492974],[70.40644542515409,41.47249364521913]]]},"properties":{"glac_id":"G070407E41473N","glac_name":"None","src_date":"2002-07-10T00:00:00","anlys_time":"2018-07-01T00:00:00","area":0,"analysts":"Sakai, Akiko","region":"angren"}},{"type":"Feature","geometry":{"type":"Polygon","coordinates":[[[70.4053128051336,41.31105187528039],[70.40545555188999,41.310766471490204],[70.40575430293194,41.31059255516407],[70.40612887657484,41.310414256699275],[70.40649900048346,41.31029826436732],[70.40687802308658,41.310351821516804],[70.40725704542541,41.31034287274437],[70.40763152722748,41.310342850563],[70.40801063984617,41.310449931583356],[70.40838966139499,41.31055692143749],[70.40869286028259,41.310726374192484],[70.40914770369918,41.31072188091299],[70.40952672445442,41.310828940200985],[70.40990129549665,41.310882437797886],[70.41028031572573,41.31093148588708],[70.41073506700724,41.31104291235964],[70.41111408665392,41.31109195730564],[70.41118990871244,41.31109199560421],[70.41254553268595,41.31119012058728],[70.41263025339646,41.31147100911282],[70.41233150613748,41.31164494851482],[70.41203266790919,41.31181879628198],[70.41158236715017,41.31193923380706],[70.41120779726842,41.311885742086126],[70.41082877768721,41.3117786893855],[70.41044975784122,41.31172522046898],[70.41007073773049,41.311676172548],[70.40969171735507,41.31162262704487],[70.4093171461682,41.31156912826026],[70.40893812526666,41.311462142215],[70.40855910410056,41.31135065859812],[70.40818008266997,41.311297107418426],[70.40780106097493,41.311306058420094],[70.40742648848422,41.31131048625945],[70.40705191573532,41.31131498628144],[70.40667289325344,41.31131943650021],[70.40629831998528,41.31132385974883],[70.40591929697807,41.31132830686483],[70.4055447231908,41.311274793809986],[70.4053128051336,41.31105187528039]]]},"properties":{"glac_id":"G070409E41311N","glac_name":"None","src_date":"2000-09-15T00:00:00","anlys_time":"2018-07-01T00:00:00","area":0,"analysts":"Sakai, Akiko","region":"angren"}},{"type":"Feature","geometry":{"type":"Polygon","coordinates":[[[70.4094152157403,41.46450288525033],[70.40945980106767,41.464208644595274],[70.40962479398864,41.4639588939744],[70.40983882160502,41.46370471630476],[70.41016880716641,41.46353525978439],[70.41049879252716,41.46340601039368],[70.41072616812401,41.463651250007636],[70.41089561010025,41.46390096010635],[70.41106950146246,41.4641907814798],[70.41124348357376,41.4644806174558],[70.41141292538842,41.46477045887775],[70.4114218242604,41.46506032446022],[70.41148420716496,41.46539469512985],[70.41148420716496,41.465434829575585],[70.41070392091527,41.465278816860774],[70.4103694862347,41.4650737034014],[70.41003505134802,41.464953268074396],[70.40974965100888,41.464748137390245],[70.4094152157403,41.46450288525033]]]},"properties":{"glac_id":"G070410E41464N","glac_name":"None","src_date":"2002-07-10T00:00:00","anlys_time":"2018-07-01T00:00:00","area":0,"analysts":"Sakai, Akiko","region":"angren"}},{"type":"Feature","geometry":{"type":"Polygon","coordinates":[[[70.4100661974784,41.47594492677651],[70.41018215550493,41.47548564639278],[70.41033379987186,41.475021933688375],[70.41081533855969,41.47464734041345],[70.4113415527977,41.47439763313557],[70.41195239653689,41.47426384658844],[70.41256333039257,41.47425942244685],[70.41317426355968,41.47425051105563],[70.41372717201091,41.474299554479565],[70.41397243471852,41.47462059616151],[70.41426673166022,41.475012984166156],[70.414610062756,41.475405427780814],[70.41493114659889,41.47569972173704],[70.4149400454131,41.476038628316104],[70.41495339363412,41.476551393937605],[70.41495339363412,41.47663613093182],[70.41454313999668,41.47674316784527],[70.41392340034676,41.476823430909036],[70.4132991197628,41.47676097494244],[70.41276400857484,41.476511275239965],[70.41213527722523,41.476413191279306],[70.41151099458173,41.4764220849065],[70.41089116065997,41.47646218556061],[70.41026687658461,41.47661379083112],[70.41016880716641,41.47665394214729],[70.41007963662449,41.476408681410696],[70.4100661974784,41.47594492677651]]]},"properties":{"glac_id":"G070413E41476N","glac_name":"None","src_date":"2002-07-10T00:00:00","anlys_time":"2018-07-01T00:00:00","area":0,"analysts":"Sakai, Akiko","region":"angren"}},{"type":"Feature","geometry":{"type":"Polygon","coordinates":[[[70.41290666256782,41.459325860050086],[70.41300927171842,41.45903602243922],[70.41333925535069,41.45882205550384],[70.41372272259386,41.45856783181733],[70.4140527057916,41.4584385500937],[70.41448965626584,41.45826463256803],[70.41491325816584,41.458086296915326],[70.41494894422715,41.45806399874395],[70.41519420638144,41.4578097723228],[70.41560890892711,41.45774292999453],[70.41601916175685,41.457609134037426],[70.41651858377256,41.45760466132753],[70.4169377346939,41.457600205790776],[70.4171071747272,41.45784993360542],[70.41703135349701,41.45816208607408],[70.41670137211507,41.458291380892874],[70.41637583992713,41.4586079714054],[70.41604585814535,41.45879975085623],[70.41593444157645,41.458973650871435],[70.4161172301163,41.45903605961374],[70.41650514478617,41.45907615888042],[70.4168931499818,41.45907172184811],[70.41728106409523,41.45914754691303],[70.41756646046689,41.459352674753895],[70.41745940279374,41.45964695504296],[70.41707593819773,41.45982083923697],[70.41674595684299,41.45999026743878],[70.41630455879427,41.460034899714024],[70.41591655317654,41.46004381712805],[70.41552863808474,41.4600482645356],[70.41514072271492,41.46000816055966],[70.41474826685426,41.45989219526536],[70.41435590151349,41.45976734919856],[70.4139679853035,41.459691512674596],[70.41357552859301,41.45961127086127],[70.41318761182423,41.459531020461924],[70.41290666256782,41.459325860050086]]]},"properties":{"glac_id":"G070415E41459N","glac_name":"None","src_date":"2002-07-10T00:00:00","anlys_time":"2018-07-01T00:00:00","area":0,"analysts":"Sakai, Akiko","region":"angren"}},{"type":"Feature","geometry":{"type":"Polygon","coordinates":[[[70.41599682396138,41.491458159241894],[70.4160770947343,41.49117726129469],[70.41619305147464,41.490896343275104],[70.41631345758589,41.49061091880757],[70.41634914355491,41.490298852798716],[70.41642487407675,41.4900178811621],[70.41650069539196,41.489732515367606],[70.41666123677639,41.48945159766968],[70.41678164278346,41.48916616401015],[70.41694218408453,41.488912061426575],[70.41705814063943,41.48863112895732],[70.41705814063943,41.48859990105085],[70.41756646046689,41.48893880004631],[70.41740591935113,41.48918849558669],[70.41737023345185,41.48947389772739],[70.41733454755021,41.489754816280644],[70.4172988616462,41.49003573332947],[70.41717854655813,41.490321105942066],[70.41697787001206,41.49057083488194],[70.41685746404868,41.49085618770376],[70.4168217781132,41.49113709835344],[70.41678609217537,41.491418007498666],[70.41654083074255,41.491640975506776],[70.41617071368634,41.49170788348603],[70.41599682396138,41.491458159241894]]]},"properties":{"glac_id":"G070417E41490N","glac_name":"None","src_date":"2002-07-10T00:00:00","anlys_time":"2018-07-01T00:00:00","area":0,"analysts":"Sakai, Akiko","region":"angren"}},{"type":"Feature","geometry":{"type":"Polygon","coordinates":[[[70.4192609472433,41.45566050015841],[70.41936346438546,41.45537068535013],[70.41958193752166,41.45511647936117],[70.41985398457851,41.4549024588121],[70.42017951467176,41.45469287554463],[70.42045147062429,41.45447883464729],[70.42072796660257,41.454264784157026],[70.4210579455256,41.45413994343348],[70.42149933969148,41.45405079074954],[70.42183376749324,41.454171199342696],[70.42222621820886,41.45433169648559],[70.42256064556008,41.45453680203412],[70.42268105025211,41.45482663036804],[70.42268105025211,41.45486677415285],[70.42191403739906,41.4552948314128],[70.42175358837855,41.45554906395737],[70.42142360988082,41.45567838737067],[70.42103560793839,41.45568277532755],[70.42064769652035,41.45568725119547],[70.42003677179311,41.45577647139553],[70.41959537643154,41.45582554181947],[70.4192609472433,41.45566050015841]]]},"properties":{"glac_id":"G070421E41455N","glac_name":"None","src_date":"2002-07-10T00:00:00","anlys_time":"2018-07-01T00:00:00","area":0,"analysts":"Sakai, Akiko","region":"angren"}},{"type":"Feature","geometry":{"type":"Polygon","coordinates":[[[70.4205317407357,41.487618877969375],[70.42065214588042,41.487333498214845],[70.42098212484981,41.487172989338056],[70.42131210361748,41.4870124784121],[70.42168221715207,41.48691438021601],[70.4220969147191,41.48690990127787],[70.42243579149584,41.487030257289426],[70.42273008382939,41.487217547363564],[70.42298424113355,41.48743162788057],[70.42323839831793,41.48767686302303],[70.42349255538251,41.487895350085815],[70.42353713954977,41.48792658484051],[70.42300212929943,41.488243140030335],[70.42262756732661,41.48821642114438],[70.4222931400169,41.488064814858674],[70.42203444223543,41.487850741807854],[70.42165987959068,41.487761561647396],[70.42128531668597,41.487766066867955],[70.4209107535213,41.48777049708357],[70.4205317407357,41.487618877969375]]]},"properties":{"glac_id":"G070422E41488N","glac_name":"None","src_date":"2002-07-10T00:00:00","anlys_time":"2018-07-01T00:00:00","area":0,"analysts":"Sakai, Akiko","region":"angren"}},{"type":"Feature","geometry":{"type":"Polygon","coordinates":[[[70.42312244309005,41.45236076809308],[70.42339893769956,41.45214677054264],[70.42372891498884,41.45201742638387],[70.42400095995491,41.451763302393985],[70.424272913981,41.45155364446794],[70.42460289073524,41.45142436815121],[70.42477232836266,41.4516740393893],[70.42494621526146,41.45191934759892],[70.4251157435834,41.45216903268851],[70.42528963037135,41.452458896316436],[70.42528963037135,41.45249904220891],[70.42458064409745,41.45292709443136],[70.42419264442631,41.452931573563966],[70.4238002859445,41.45293601727436],[70.4234122857116,41.45290034783624],[70.42313143257219,41.452650652182044],[70.42312244309005,41.45236076809308]]]},"properties":{"glac_id":"G070424E41452N","glac_name":"None","src_date":"2002-07-10T00:00:00","anlys_time":"2018-07-01T00:00:00","area":0,"analysts":"Sakai, Akiko","region":"angren"}},{"type":"Feature","geometry":{"type":"Polygon","coordinates":[[[70.42487493526012,41.48695897184248],[70.4249328672874,41.48667798528116],[70.42511120345765,41.48644168463148],[70.42529407969313,41.486205375136976],[70.42567308913144,41.486294518886936],[70.42580239176333,41.486575479831956],[70.42580684108086,41.486856379996254],[70.42594068379944,41.487132848776504],[70.42606998636705,41.48741380585348],[70.42644899525925,41.48755203225433],[70.42651137642895,41.48755201699789],[70.42639551270774,41.48806923499471],[70.42602086229131,41.48811827221107],[70.42565084253786,41.48812278740098],[70.42527174228141,41.48803355426677],[70.42508005819388,41.48780169924473],[70.42495075538861,41.48752081711243],[70.42487938458532,41.4872398691103],[70.42487493526012,41.48695897184248]]]},"properties":{"glac_id":"G070425E41487N","glac_name":"None","src_date":"2002-07-10T00:00:00","anlys_time":"2018-07-01T00:00:00","area":0,"analysts":"Sakai, Akiko","region":"angren"}},{"type":"Feature","geometry":{"type":"Polygon","coordinates":[[[70.42555713442744,41.4525346943425],[70.42579794244574,41.45229836347824],[70.42617250221497,41.45229385857767],[70.42654706172362,41.45233405708933],[70.42698854219653,41.452423191697406],[70.4270553726109,41.452704092838786],[70.42700189011963,41.452985017005744],[70.4268191052664,41.45322136457396],[70.42675663333016,41.45322585754731],[70.42588266107816,41.453283793309765],[70.42556603306653,41.453096539393954],[70.425561583747,41.452815617568056],[70.42555713442744,41.4525346943425]]]},"properties":{"glac_id":"G070426E41453N","glac_name":"None","src_date":"2002-07-10T00:00:00","anlys_time":"2018-07-01T00:00:00","area":0,"analysts":"Sakai, Akiko","region":"angren"}},{"type":"Feature","geometry":{"type":"Polygon","coordinates":[[[70.42771532250707,41.48687420557189],[70.42779114223553,41.486588800945604],[70.42812111683358,41.486397102089576],[70.42836637300107,41.48614291022194],[70.4286963472462,41.485982364109326],[70.42907090499784,41.48610282283027],[70.42920474690449,41.48638370280119],[70.42933404868768,41.486664662308286],[70.429338497976,41.4869143353909],[70.42830399204645,41.48723988418127],[70.42796956826098,41.487119450213385],[70.42771532250707,41.48687420557189]]]},"properties":{"glac_id":"G070429E41487N","glac_name":"None","src_date":"2002-07-10T00:00:00","anlys_time":"2018-07-01T00:00:00","area":0,"analysts":"Sakai, Akiko","region":"angren"}},{"type":"Feature","geometry":{"type":"Polygon","coordinates":[[[70.46453411538995,41.56361983200296],[70.46469464235088,41.56337009520787],[70.46507816358047,41.56324080497732],[70.4654081150973,41.56310699497239],[70.46580053377663,41.563102568489434],[70.46624198174344,41.563098114801],[70.46630000007279,41.56309813103705],[70.4663044490524,41.56338793738814],[70.46631334701149,41.56368226880348],[70.466317795991,41.56397207213695],[70.46632669394988,41.56426640049688],[70.46632669394988,41.56430647249139],[70.46515842698439,41.56427979133504],[70.46482402631955,41.56415939153325],[70.46459658290091,41.56391412812398],[70.46453411538995,41.56361983200296]]]},"properties":{"glac_id":"G070465E41564N","glac_name":"None","src_date":"2002-07-10T00:00:00","anlys_time":"2018-07-01T00:00:00","area":0,"analysts":"Sakai, Akiko","region":"angren"}},{"type":"Feature","geometry":{"type":"Polygon","coordinates":[[[70.46806578805408,41.55300267624407],[70.46816829582359,41.55266822379869],[70.46821741601433,41.552373991991345],[70.46843142019303,41.552119803724956],[70.46870344234999,41.55191018481098],[70.46903339160039,41.55173631014485],[70.46919391719297,41.55148657381235],[70.46924294649317,41.55119231782567],[70.46934999378277,41.55089799830278],[70.46939902306846,41.55060814348241],[70.4695595485497,41.55035399572016],[70.4694971724211,41.55006412293758],[70.46943470549017,41.54976982804103],[70.46926083310711,41.5495246297933],[70.46919836614816,41.54923473704618],[70.46947038790948,41.548980613061005],[70.4698583546179,41.54889137853546],[70.4702462302459,41.548927075579144],[70.47053168909315,41.54913216334183],[70.47070111211445,41.54938193773431],[70.47071000999938,41.549671722375955],[70.4707144589418,41.549966007906804],[70.47071890788416,41.550006140055636],[70.4715572150689,41.55024696433689],[70.47194518024058,41.55028267168615],[70.47195407810449,41.55057693106968],[70.47178910441954,41.550826630384655],[70.4716285796176,41.551080781762835],[70.4712450631506,41.551250231003955],[70.47091511528482,41.55137955716526],[70.4705851672124,41.551508881519894],[70.47019720103903,41.55159803776706],[70.46992517965282,41.55181214176343],[70.46965324892113,41.55206186304997],[70.46938122725417,41.55227588931228],[70.46922070171864,41.5525300266125],[70.46911365440279,41.552819858650224],[70.46889965050094,41.553118603693385],[70.46862762844518,41.553412929171664],[70.46824410979443,41.55354227341941],[70.4680702370188,41.55329253690144],[70.46806578805408,41.55300267624407]]]},"properties":{"glac_id":"G070470E41551N","glac_name":"None","src_date":"2002-07-10T00:00:00","anlys_time":"2018-07-01T00:00:00","area":0,"analysts":"Sakai, Akiko","region":"angren"}},{"type":"Feature","geometry":{"type":"Polygon","coordinates":[[[70.47189170225938,41.555330380211814],[70.47211015387661,41.55507617157644],[70.47227067853174,41.55482644399562],[70.47260516526897,41.55498699754284],[70.47294400992287,41.55515198735979],[70.4733364229927,41.55522774874531],[70.47367081825833,41.55543291319415],[70.47367980688729,41.55572723674448],[70.4736842558046,41.556017015944775],[70.47368870472188,41.55605714416045],[70.47285484985555,41.55607051983955],[70.47251591434983,41.55595014535223],[70.47218151835038,41.55582976146303],[70.47190060012421,41.55562461303848],[70.47189170225938,41.555330380211814]]]},"properties":{"glac_id":"G070473E41556N","glac_name":"None","src_date":"2002-07-10T00:00:00","anlys_time":"2018-07-01T00:00:00","area":0,"analysts":"Sakai, Akiko","region":"angren"}},{"type":"Feature","geometry":{"type":"Polygon","coordinates":[[[70.4787631697263,41.54960931778245],[70.47881219813455,41.54931944038056],[70.47891479460367,41.549025186208056],[70.47907531718059,41.548771004326476],[70.47934733383342,41.54856140275397],[70.47973520246161,41.54847225304719],[70.48006968444722,41.548592635547635],[70.48024355325612,41.548842379174275],[70.48024800211782,41.5491322012006],[70.48025699063425,41.54942649134313],[70.48026143949585,41.5497163103543],[70.48021232042993,41.55001065034204],[70.48022130894695,41.550345093471016],[70.48023020667073,41.55063488299263],[70.480181178395,41.550929233873525],[70.480181178395,41.55096931763895],[70.48041751280044,41.55154902352461],[70.48036839374916,41.551843353735606],[70.48031936548634,41.552137624816865],[70.4801588432901,41.55238731450137],[70.47994039501879,41.55264149123051],[70.47972630472944,41.55289569866335],[70.47944094166765,41.55269058405169],[70.4792715214627,41.5524408297428],[70.47926253292941,41.55215096116004],[70.47925808405932,41.55185667772642],[70.47930720321459,41.55156690102217],[70.479356231572,41.55127255509995],[70.4792358397084,41.550982750413674],[70.4789549252525,41.55073304321809],[70.47878096522317,41.55048776788686],[70.47877206747481,41.550193427432255],[70.47876761860057,41.54990361250941],[70.4787631697263,41.54960931778245]]]},"properties":{"glac_id":"G070480E41551N","glac_name":"None","src_date":"2002-07-10T00:00:00","anlys_time":"2018-07-01T00:00:00","area":0,"analysts":"Sakai, Akiko","region":"angren"}},{"type":"Feature","geometry":{"type":"Polygon","coordinates":[[[70.50139755349926,41.41508713113373],[70.50152238893087,41.41482850261499],[70.5016427756532,41.41456541108776],[70.50194156339319,41.414369203649635],[70.50228937716372,41.41446290290597],[70.50267731952549,41.41452081472504],[70.50302513280283,41.41464571754925],[70.50340862595029,41.4146412425227],[70.50345320337871,41.414672476750006],[70.5030786075982,41.41519414864726],[70.50273524302663,41.41529671121719],[70.50235184017065,41.41536809911089],[70.5018345227732,41.41537253941297],[70.50140645086192,41.41537697758303],[70.50139755349926,41.41508713113373]]]},"properties":{"glac_id":"G070502E41415N","glac_name":"None","src_date":"2002-07-10T00:00:00","anlys_time":"2018-07-01T00:00:00","area":0,"analysts":"Sakai, Akiko","region":"angren"}},{"type":"Feature","geometry":{"type":"Polygon","coordinates":[[[70.50845184311851,41.40013135966677],[70.50853209986339,41.39980584169928],[70.50887101197564,41.39970323507274],[70.5092589494089,41.39960069429354],[70.50959786104492,41.399466942375945],[70.50994122106685,41.39936437517728],[70.51028902946582,41.39948919387163],[70.51050746500472,41.39971660177144],[70.51064128623275,41.3999708231722],[70.5107794652392,41.40026063098804],[70.51095786317904,41.40055050423348],[70.51095786317904,41.4005817191198],[70.50997236132199,41.40072438430052],[70.50958442442388,41.40066643433622],[70.50923661555099,41.40054154074613],[70.50884867810099,41.40047917079184],[70.50846074036008,41.40042114288665],[70.50845184311851,41.40013135966677]]]},"properties":{"glac_id":"G070510E41400N","glac_name":"None","src_date":"2002-07-10T00:00:00","anlys_time":"2018-07-01T00:00:00","area":0,"analysts":"Sakai, Akiko","region":"angren"}},{"type":"Feature","geometry":{"type":"Polygon","coordinates":[[[70.53227683457631,41.412228882264074],[70.53231251267759,41.41177852879713],[70.53253102964567,41.41134595270604],[70.53284314470449,41.410958051937236],[70.53327119049784,41.41062360068479],[70.53383749952496,41.41028916883791],[70.53433690040846,41.41003943359292],[70.53488541468677,41.409807580231686],[70.53540714726806,41.40958015455964],[70.53597790231093,41.40941520546641],[70.53656645022622,41.40925020561532],[70.53718631763483,41.40924131034779],[70.53780609350771,41.409285840432844],[70.53838583337478,41.409433036865344],[70.53887179395527,41.4097049871142],[70.5391081923217,41.40990123992482],[70.5390769630507,41.40995922257311],[70.53865781884171,41.41041401395403],[70.53815388303723,41.41067711252342],[70.53765003751805,41.41094022200781],[70.53697225103134,41.4112077256805],[70.53638361280056,41.41147082843617],[70.5359644663796,41.41180081520148],[70.53563455968462,41.412188769976474],[70.53521541264898,41.41251425671653],[70.53505481669345,41.41296906099747],[70.53506825264868,41.41354432563134],[70.53507714942968,41.413927772459154],[70.53464910514847,41.413936709898465],[70.53405156744206,41.413878753568135],[70.53345402903716,41.41382521014886],[70.53327119049783,41.413767239235376],[70.53308835189313,41.413446188336536],[70.53270932925464,41.41306717897342],[70.53240611094165,41.41267481261793],[70.53227683457631,41.412228882264074]]]},"properties":{"glac_id":"G070535E41411N","glac_name":"None","src_date":"2002-07-10T00:00:00","anlys_time":"2018-07-01T00:00:00","area":0,"analysts":"Sakai, Akiko","region":"angren"}},{"type":"Feature","geometry":{"type":"Polygon","coordinates":[[[70.54183266650458,41.41054779891906],[70.54191291803065,41.41009292954465],[70.54234104699908,41.40978081354974],[70.54291179428164,41.40958018764156],[70.54350487329145,41.40952216603592],[70.54412464147995,41.40956680274845],[70.54465970952702,41.409780784737],[70.54496745964187,41.41017320585471],[70.54509228448788,41.410623603175935],[70.5453509214713,41.411033840814326],[70.54567192528037,41.4113414884439],[70.54567646435993,41.41141288136198],[70.54560066172601,41.4118632287195],[70.54561400662166,41.412376012169155],[70.54562735151697,41.41295570588953],[70.54555154887572,41.4134060402856],[70.54556044547373,41.4136780531138],[70.54547574622318,41.413789530561715],[70.54505660728046,41.41411506228318],[70.54492279503498,41.41427115302369],[70.54447242669639,41.41451192602103],[70.5440532869269,41.41483744657491],[70.54345576023881,41.414908807689876],[70.54277353314882,41.41491769441463],[70.54250154987837,41.41489093214637],[70.54247032081534,41.414859768925005],[70.54234104699908,41.41453869524055],[70.54232761123541,41.41402584798005],[70.54240341435695,41.41357552702293],[70.54239006937708,41.413062760418164],[70.54237672439689,41.41254991556629],[70.54219388905456,41.412099525721445],[70.54201550197658,41.411653666504286],[70.54185055061274,41.4113771908366],[70.5418415631676,41.411011516170205],[70.54183266650458,41.41054779891906]]]},"properties":{"glac_id":"G070544E41412N","glac_name":"None","src_date":"2002-07-10T00:00:00","anlys_time":"2018-07-01T00:00:00","area":0,"analysts":"Sakai, Akiko","region":"angren"}},{"type":"Feature","geometry":{"type":"Polygon","coordinates":[[[70.54450810394476,41.581460634065365],[70.5446686969224,41.58120653157522],[70.54494067903455,41.58099691419477],[70.54527067048735,41.58078286209402],[70.54554265227756,41.58056883682728],[70.54581463392228,41.58031466324816],[70.54620263418764,41.58031025995083],[70.54637648072426,41.580559896589754],[70.54660388824504,41.58080519930803],[70.5467198161117,41.58109502546678],[70.54672880347066,41.581389364236074],[70.54684917959652,41.58171930567853],[70.54684917959652,41.581763927970144],[70.54601535192526,41.58173264973485],[70.54562290321859,41.581697005442074],[70.54523499329247,41.581656871353495],[70.5448469922887,41.58158105152588],[70.54450810394476,41.581460634065365]]]},"properties":{"glac_id":"G070546E41581N","glac_name":"None","src_date":"2002-07-10T00:00:00","anlys_time":"2018-07-01T00:00:00","area":0,"analysts":"Sakai, Akiko","region":"angren"}},{"type":"Feature","geometry":{"type":"Polygon","coordinates":[[[70.54579239243812,41.41397236588716],[70.54591721708161,41.413713774493615],[70.54608216712712,41.41345065519099],[70.54633190702263,41.41325443589917],[70.54645673153364,41.41296013682894],[70.54657719850537,41.41266588200063],[70.54657265943385,41.412376002313785],[70.54669312637812,41.412112956686705],[70.5468625244594,41.4118542868644],[70.54711226397141,41.411658131361165],[70.54741102525473,41.411488672840036],[70.54792384845172,41.41145300769346],[70.54792829672998,41.41151540389889],[70.54802189212666,41.41180528601546],[70.54807091395703,41.41209508692048],[70.54820917364941,41.41241612761873],[70.54825828624283,41.41271043200583],[70.5481333713933,41.41300030422381],[70.54788363238329,41.41320094771262],[70.54762953575087,41.41339714526211],[70.5473753482101,41.41362902761307],[70.54708103519147,41.41379402992688],[70.5467822737141,41.41402590108072],[70.54648796035197,41.4141908995131],[70.54618919852594,41.41435585282132],[70.54584141448358,41.41426222828921],[70.54579239243812,41.41397236588716]]]},"properties":{"glac_id":"G070547E41413N","glac_name":"None","src_date":"2002-07-10T00:00:00","anlys_time":"2018-07-01T00:00:00","area":0,"analysts":"Sakai, Akiko","region":"angren"}},{"type":"Feature","geometry":{"type":"Polygon","coordinates":[[[70.54704980640959,41.428888091367064],[70.5470854834771,41.428593787446026],[70.54720585951844,41.42829945731281],[70.54737534821008,41.428040813648835],[70.54754029778229,41.42777776665466],[70.54755818168977,41.42761280949104],[70.54757597481536,41.42748794530897],[70.54748237933651,41.42719806496528],[70.54747348277215,41.42687253752098],[70.54763843231251,41.426578279150384],[70.54789261972165,41.4263820830069],[70.54792829672998,41.42608776429565],[70.54787918410464,41.42579794357653],[70.54778558868166,41.4255080550755],[70.54753140121896,41.42532522620007],[70.54732632631259,41.42507997969751],[70.54711226397141,41.424651957334106],[70.54709891911509,41.42419264224712],[70.54746004714406,41.423818074939675],[70.54781681741832,41.42344796481413],[70.54821807020087,41.42307342594173],[70.54831175632528,41.42299312871791],[70.54850348601433,41.42313579860176],[70.54889593249587,41.423260715504526],[70.5493239648033,41.42325180254429],[70.54953357794798,41.42302437108061],[70.54956925484099,41.42273003177174],[70.5495201423744,41.42240898593944],[70.54951569411008,41.42216377242622],[70.54962272478534,41.422101340024625],[70.55010431715425,41.421820420037484],[70.55071518078508,41.42171781372283],[70.55132613446081,41.42170891641193],[70.5517408199836,41.422043368560935],[70.55203957854212,41.42246695861426],[70.55204847502642,41.42293074242506],[70.55222241034127,41.42338552785076],[70.55242748326891,41.423626358174445],[70.55236511714166,41.42371104191164],[70.55220452659817,41.424161392385706],[70.55221796210067,41.42474114197502],[70.55222685858185,41.42519151224753],[70.55197712158669,41.42538769853935],[70.55157578099612,41.42576222415634],[70.55128147041316,41.425851386582536],[70.55098271140795,41.42601638414167],[70.55068395222675,41.42618137987084],[70.55034506777692,41.42634640950203],[70.55013554574826,41.42657825906623],[70.54992593285223,41.426805675110536],[70.54976098405507,41.42706873396734],[70.54968073376786,41.427363042107025],[70.54964505688268,41.42765294089338],[70.5495201423744,41.42791601702338],[70.54944434031404,41.428205800492904],[70.5493195165373,41.42846888919016],[70.54917236061269,41.42862944741502],[70.54910990330423,41.42869629346118],[70.54886025555552,41.42895943948443],[70.54851683083375,41.429061982910504],[70.54808879784582,41.42906646592662],[70.54770088980197,41.429070912810054],[70.5473128906806,41.429075342152636],[70.54704980640959,41.428888091367064]]]},"properties":{"glac_id":"G070550E41425N","glac_name":"None","src_date":"2002-07-10T00:00:00","anlys_time":"2018-07-01T00:00:00","area":0,"analysts":"Sakai, Akiko","region":"angren"}},{"type":"Feature","geometry":{"type":"Polygon","coordinates":[[[70.5490786746471,41.579730567342104],[70.54912778715641,41.579436274855055],[70.54945777588962,41.57922219637231],[70.54978322536547,41.579052751926675],[70.55005974377983,41.578838762965475],[70.55038973190702,41.57870945085796],[70.55083110771297,41.57858006652782],[70.5512725739154,41.57853106550981],[70.55160700949952,41.57865141814701],[70.55183886292103,41.57890116937638],[70.55184340194545,41.57919100206968],[70.55201724655021,41.57944071128639],[70.55219118187578,41.579685958140324],[70.5523605781219,41.579935619387626],[70.55258798296138,41.58018091535697],[70.55281992671449,41.58043060211259],[70.55304733134784,41.58072044645752],[70.55327918411044,41.5810058579088],[70.55327918411044,41.581050408494036],[70.55262365963951,41.5815587695533],[70.55229376374649,41.58172824261204],[70.55190576813689,41.581817365118674],[70.55151786301087,41.581821879264346],[70.55129045769137,41.58157658748496],[70.55122800064363,41.58124219303524],[70.55105406498764,41.5809969511087],[70.55093813811072,41.58070705161682],[70.55070628427738,41.580457378892916],[70.55053679669787,41.580212106018],[70.55019791214971,41.580091705503165],[70.54975199674979,41.57997132903575],[70.5494131116775,41.579850925819066],[70.5490786746471,41.579730567342104]]]},"properties":{"glac_id":"G070551E41580N","glac_name":"None","src_date":"2002-07-10T00:00:00","anlys_time":"2018-07-01T00:00:00","area":0,"analysts":"Sakai, Akiko","region":"angren"}},{"type":"Feature","geometry":{"type":"Polygon","coordinates":[[[70.5516426862467,41.41605477320391],[70.5522490997841,41.41622423055804],[70.55225808704513,41.416282191071],[70.55226698352561,41.41660771160788],[70.55231600494581,41.41689756478568],[70.55261921140243,41.41708479410199],[70.55301165469953,41.41714727832654],[70.5530651242809,41.41714280529957],[70.55334608913616,41.41741483670824],[70.55392127227623,41.41759316743165],[70.5544965455431,41.41779830473473],[70.55499592614636,41.41809702816065],[70.55533035927256,41.41852512003344],[70.55546416877313,41.419011187007584],[70.55531701463251,41.41928765069607],[70.55491122847101,41.41929210277028],[70.55452323486611,41.41929650428597],[70.55409520694816,41.41930103213244],[70.55366263966037,41.4193099154977],[70.55327473587911,41.4192162822924],[70.55288683180085,41.41925197617632],[70.55275302161931,41.41939908589702],[70.55236956538097,41.41920737371979],[70.55191021638024,41.41884617015624],[70.55186119492079,41.41838688069785],[70.5518077252124,41.41792761811821],[70.55167391474598,41.41746833784106],[70.5516650182551,41.41700899991446],[70.55165158273797,41.41654525621894],[70.55164268624668,41.41608598441627],[70.5516426862467,41.41605477320391]]]},"properties":{"glac_id":"G070553E41418N","glac_name":"None","src_date":"2002-07-10T00:00:00","anlys_time":"2018-07-01T00:00:00","area":0,"analysts":"Sakai, Akiko","region":"angren"}},{"type":"Feature","geometry":{"type":"Polygon","coordinates":[[[70.55577182155437,41.40496496737225],[70.55581194621729,41.40467512888823],[70.55610625416786,41.404505712012465],[70.55649415577952,41.40443882796644],[70.55687769967362,41.40436749757074],[70.55726115249739,41.40429614939178],[70.55760448051285,41.404193549502615],[70.55794789907456,41.404059818758796],[70.55833135108668,41.40392602749341],[70.55871480280787,41.40388589054741],[70.55914736577574,41.40388144647866],[70.55953526505402,41.40390820413931],[70.5598786823036,41.40400183266704],[70.56022645671096,41.40412670552055],[70.560190780569,41.404421014046065],[70.56002583511653,41.40467958236693],[70.55977165379647,41.40487584471907],[70.55947289980284,41.405045231541145],[70.55926329077263,41.4052726345212],[70.55905822061519,41.405535803447094],[70.55884861141294,41.40576320273779],[70.55863900212374,41.40599501785804],[70.55859442950057,41.40599501774916],[70.55734140158374,41.405816692300895],[70.55703819795531,41.40566059469726],[70.55673499414512,41.40550007843803],[70.55638721733541,41.40534405128835],[70.5560794741486,41.40518796541778],[70.55577182155437,41.40496496737225]]]},"properties":{"glac_id":"G070558E41405N","glac_name":"None","src_date":"2002-07-10T00:00:00","anlys_time":"2018-07-01T00:00:00","area":0,"analysts":"Sakai, Akiko","region":"angren"}},{"type":"Feature","geometry":{"type":"Polygon","coordinates":[[[70.56801205618228,41.4469652990872],[70.5680789592557,41.44667542285409],[70.56845795546694,41.44655502415088],[70.56884149026429,41.44649258656014],[70.56922493399183,41.44654608772779],[70.56953257838099,41.44671552100154],[70.56976896243408,41.44694296711483],[70.569853657615,41.4472283287451],[70.57009004151715,41.4474557727138],[70.5703218864499,41.44768315695998],[70.5704021334573,41.44774112571831],[70.56934085667105,41.44815582498605],[70.56895741303188,41.448160299893296],[70.56864522941753,41.4479952970674],[70.56840893561377,41.447767941858075],[70.5682528890494,41.447482528332365],[70.56801650428378,41.44725508139656],[70.56801205618228,41.4469652990872]]]},"properties":{"glac_id":"G070569E41447N","glac_name":"None","src_date":"2002-07-10T00:00:00","anlys_time":"2018-07-01T00:00:00","area":0,"analysts":"Sakai, Akiko","region":"angren"}},{"type":"Feature","geometry":{"type":"Polygon","coordinates":[[[70.56946576627823,41.438345826444596],[70.56950144176355,41.43805602806965],[70.56958168890192,41.43773046468327],[70.56961736437901,41.43743617397024],[70.56978230669183,41.437173114842295],[70.57021486016102,41.437199805794606],[70.57047793237221,41.437391551086336],[70.57078112791758,41.43755212460248],[70.57108441405703,41.437708150445644],[70.57112898557541,41.43770815005764],[70.57058495860508,41.43842609126644],[70.57029065910419,41.4385910806642],[70.56986255378537,41.43869806488506],[70.56947466245546,41.43863569738003],[70.56946576627823,41.438345826444596]]]},"properties":{"glac_id":"G070570E41438N","glac_name":"None","src_date":"2002-07-10T00:00:00","anlys_time":"2018-07-01T00:00:00","area":0,"analysts":"Sakai, Akiko","region":"angren"}},{"type":"Feature","geometry":{"type":"Polygon","coordinates":[[[70.56703102189859,41.430332779190714],[70.56704000889665,41.430310506771306],[70.5673119789838,41.42987796084825],[70.56736099894381,41.429467768245104],[70.56774453457734,41.42946328648775],[70.56813242724148,41.429458829776465],[70.5684758386344,41.4293562808604],[70.56851151418994,41.42906202030537],[70.56833313638698,41.42880779501568],[70.56815475852076,41.428549152601406],[70.56793180879349,41.428294999115515],[70.56779800259866,41.42803635385878],[70.5677310994879,41.427911520437206],[70.5676642871459,41.427782213008435],[70.56752603277414,41.4275235966094],[70.56730753087606,41.427264991340884],[70.56716927640632,41.42701078874843],[70.56729418655269,41.426747739740335],[70.56767763145947,41.42667633390024],[70.56802540048665,41.42680123515569],[70.56811463483936,41.426868079963704],[70.56828856462073,41.42699295224043],[70.568466851662,41.42725158474413],[70.56860510577525,41.4275726155744],[70.56865412560929,41.427862497578026],[70.56874780794551,41.42815231955368],[70.56888161388773,41.42841096392262],[70.56910456319407,41.428665115642175],[70.56953702646902,41.428727553084336],[70.56992056044344,41.42868743874171],[70.5703084514293,41.428651765206524],[70.57056262743369,41.428451083004795],[70.57059830284116,41.42816123043994],[70.57050471162685,41.42784021723043],[70.57045560119609,41.42754590202104],[70.5704467050362,41.427256046705885],[70.57043780887616,41.42696618991158],[70.570647413258,41.426671878848396],[70.57098628408103,41.42644000537296],[70.57112453750146,41.42634635955016],[70.57144552494151,41.426341953184235],[70.57198065484728,41.42650242488016],[70.57193608340445,41.42665405055949],[70.57186473277696,41.42710887057631],[70.57191375229313,41.42739875684168],[70.57196286258137,41.4276885839755],[70.5721010249562,41.42794718167465],[70.57227495335823,41.42820136444523],[70.57241320642397,41.42845997578834],[70.57254692061355,41.42871860141924],[70.57272529692096,41.42897282312393],[70.5728591018041,41.429231388803736],[70.5732068672461,41.4293874773675],[70.57355472322375,41.42948116771599],[70.57394270217954,41.42947670255448],[70.57433059005889,41.429472219876374],[70.5748032627609,41.42946328606994],[70.57493261904978,41.429463322479265],[70.57493706709,41.429565890006124],[70.57495041121041,41.43008313002151],[70.57495485925047,41.43037293324034],[70.57491028807176,41.430399726851356],[70.57461599110604,41.430569181469394],[70.574317245922,41.43076538187825],[70.57406307181799,41.430961577219634],[70.5737687743553,41.431131026255095],[70.57338079526505,41.43123352024575],[70.57331843172867,41.431282590393884],[70.57293045229032,41.43132723427655],[70.57225262226197,41.431402997818275],[70.5721010249562,41.43143424437918],[70.57201188208796,41.43144315347868],[70.57157933016563,41.43145202494385],[70.5711512259446,41.43145652097985],[70.57067864058153,41.43149665293222],[70.57029065910419,41.43153230607914],[70.56990721618936,41.43160363641201],[70.56947911054404,41.43167502323075],[70.56909112814095,41.43171067081916],[70.56870323621601,41.431715127975934],[70.56831525321444,41.431688363074564],[70.56792736069124,41.43159920344816],[70.56757950081867,41.43147436378244],[70.56731642709147,41.431251393591],[70.56717817262417,41.43096151276195],[70.56717372451526,41.43063602658325],[70.56703102189859,41.430332779190714]]]},"properties":{"glac_id":"G070571E41429N","glac_name":"None","src_date":"2002-07-10T00:00:00","anlys_time":"2018-07-01T00:00:00","area":0,"analysts":"Sakai, Akiko","region":"angren"}},{"type":"Feature","geometry":{"type":"Polygon","coordinates":[[[70.5738534688618,41.42364416946659],[70.57408985088145,41.42321163817272],[70.57453129672827,41.422899482396744],[70.57497274218663,41.42258739532425],[70.57549888148516,41.42236439266916],[70.57606523405718,41.42220392241194],[70.57610535710343,41.422203874917145],[70.57724686550073,41.42203440580005],[70.57733155941975,41.422025518382696],[70.577995947769,41.42201659696795],[70.5785935243496,41.42213702362471],[70.57874956769899,41.42216821917772],[70.57919545744387,41.42225290885584],[70.57979303259276,41.422373328399495],[70.5803949642445,41.42256060923888],[70.5809969859473,41.422680989876284],[70.58116192451716,41.422801408257186],[70.58100588191998,41.42312693401773],[70.58067591384766,41.423519350963154],[70.5805465590419,41.42358616323545],[70.58024781739425,41.423590666921754],[70.57957008803612,41.42359962175909],[70.57888781897955,41.423608513804716],[70.57820554899321,41.42361740079129],[70.57752781687051,41.42381809129373],[70.5770194717888,41.42408116212284],[70.57668950108922,41.42447355093251],[70.57618560318625,41.42473665401746],[70.57603845509921,41.42473667424426],[70.57579762596535,41.42466532096607],[70.57522246779207,41.42451817935569],[70.57464721818278,41.42433980917975],[70.57411209111949,41.42410346047704],[70.5738534688618,41.42364416946659]]]},"properties":{"glac_id":"G070577E41423N","glac_name":"None","src_date":"2002-07-10T00:00:00","anlys_time":"2018-07-01T00:00:00","area":0,"analysts":"Sakai, Akiko","region":"angren"}},{"type":"Feature","geometry":{"type":"Polygon","coordinates":[[[70.57685444107818,41.44546256437607],[70.57693023901858,41.445012195766246],[70.57700603694752,41.44456182320831],[70.57742524013665,41.444231860673774],[70.57783990418478,41.44390632356308],[70.57843294216673,41.443576371193295],[70.5791152118432,41.443567465001884],[70.57979748058983,41.4435585537509],[70.5803949642445,41.44361648522741],[70.5809925379609,41.44367001393652],[70.58159002018822,41.44372793813903],[70.58227228555953,41.44371908266088],[70.58304369092077,41.443705649803356],[70.58389533993765,41.44375915075982],[70.58457760216139,41.443750278358976],[70.58517517087657,41.44380819628673],[70.58577709604593,41.44399100960546],[70.58612939122752,41.444370054428695],[70.5861427350494,41.44488283804378],[70.58558538055274,41.446497048370446],[70.58456870625227,41.446831531362676],[70.58396668885142,41.44671109401833],[70.58353414725222,41.44639447357213],[70.58301246436773,41.44608234816688],[70.58249522891168,41.44583265828485],[70.58181296384463,41.44584158305427],[70.5812199298681,41.44591290743729],[70.58062689518836,41.44618046612342],[70.58003376903018,41.44638111874444],[70.57952987449191,41.44664417126068],[70.57919990544626,41.447099001294376],[70.57878079451815,41.44742455375614],[70.57818330893679,41.44737102203293],[70.57758128385002,41.44724620510054],[70.57714873672991,41.4469340531672],[70.57705069871584,41.44648367191838],[70.57695256990661,41.445908480846974],[70.57685444107818,41.44546256437607]]]},"properties":{"glac_id":"G070581E41445N","glac_name":"None","src_date":"2002-07-10T00:00:00","anlys_time":"2018-07-01T00:00:00","area":0,"analysts":"Sakai, Akiko","region":"angren"}},{"type":"Feature","geometry":{"type":"Polygon","coordinates":[[[70.59491826297186,41.45842513633544],[70.59495393664078,41.458130844966526],[70.5952526694777,41.45796588323904],[70.59564063157521,41.45796137227974],[70.59602859336974,41.45795693325531],[70.59646112411946,41.45798367687883],[70.59684908527312,41.45804169470237],[70.59723704612368,41.458037250737654],[70.597665037211,41.45806393149884],[70.5981422264145,41.45812194085918],[70.59844985299468,41.45830922710327],[70.59849896067246,41.4585990632225],[70.59841862740774,41.458924544477924],[70.59829826364438,41.45925009072783],[70.59829826364438,41.45928577119029],[70.5981422264145,41.45986992311604],[70.59775426627137,41.45987436797215],[70.59736630582499,41.45987881119432],[70.59697834507544,41.45985206045991],[70.59659047479515,41.45979413172917],[70.59619806558875,41.459700464052105],[70.59581010392655,41.4596112505631],[70.59550683279527,41.45945076452153],[70.59532855539614,41.45919662353893],[70.59510552701195,41.45897365052039],[70.59492715869615,41.45871500383024],[70.59491826297186,41.45842513633544]]]},"properties":{"glac_id":"G070597E41459N","glac_name":"None","src_date":"2002-07-10T00:00:00","anlys_time":"2018-07-01T00:00:00","area":0,"analysts":"Sakai, Akiko","region":"angren"}}]}