{"type":"FeatureCollection","features":[{"type":"Feature","geometry":{"type":"Point","coordinates":[68.831,36.69]},"properties":{"plant_id":54778,"name":"","country":"Afghanistan","treatment_level":"Primary","population_served":"62796","wastewater_discharge_m3_d":"2047.163","dilution_factor":"1059.218","river_discharge_cms":"82.2720","hyriv_id":40454088,"system_id":"amu_darya","hybas_id_level12":4120560040,"reported_by_register":0}},{"type":"Feature","geometry":{"type":"Point","coordinates":[65.96,37.727]},"properties":{"plant_id":54873,"name":"","country":"Turkmenistan","treatment_level":"Secondary","population_served":"5968","wastewater_discharge_m3_d":"944.533","dilution_factor":"27.985","river_discharge_cms":"0.2950","hyriv_id":40421835,"system_id":"amu_darya","hybas_id_level12":4121341840,"reported_by_register":0}},{"type":"Feature","geometry":{"type":"Point","coordinates":[68.865,37.885]},"properties":{"plant_id":56046,"name":"","country":"Tajikistan","treatment_level":"Primary","population_served":"136445","wastewater_discharge_m3_d":"2575.143","dilution_factor":"17457.061","river_discharge_cms":"672.2320","hyriv_id":40414321,"system_id":"amu_darya","hybas_id_level12":4120521540,"reported_by_register":0}},{"type":"Feature","geometry":{"type":"Point","coordinates":[68.731,38.456]},"properties":{"plant_id":56079,"name":"","country":"Tajikistan","treatment_level":"Primary","population_served":"886060","wastewater_discharge_m3_d":"16722.777","dilution_factor":"410.484","river_discharge_cms":"102.4040","hyriv_id":40397435,"system_id":"amu_darya","hybas_id_level12":4120505030,"reported_by_register":0}},{"type":"Feature","geometry":{"type":"Point","coordinates":[68.177,38.44]},"properties":{"plant_id":56080,"name":"","country":"Tajikistan","treatment_level":"Primary","population_served":"158948","wastewater_discharge_m3_d":"2999.849","dilution_factor":"148.923","river_discharge_cms":"6.6360","hyriv_id":40398017,"system_id":"amu_darya","hybas_id_level12":4120505540,"reported_by_register":0}},{"type":"Feature","geometry":{"type":"Point","coordinates":[62.969,39.365]},"properties":{"plant_id":56110,"name":"","country":"Turkmenistan","treatment_level":"Secondary","population_served":"10766","wastewater_discharge_m3_d":"1704.013","dilution_factor":"101522.475","river_discharge_cms":"2002.2440","hyriv_id":40370533,"system_id":"amu_darya","hybas_id_level12":4120474910,"reported_by_register":0}},{"type":"Feature","geometry":{"type":"Point","coordinates":[68.806,40.306]},"properties":{"plant_id":56148,"name":"","country":"Uzbekistan","treatment_level":"Secondary","population_served":"32727","wastewater_discharge_m3_d":"2440.800","dilution_factor":"5.000","river_discharge_cms":"0.1130","hyriv_id":40350716,"system_id":"syr_darya","hybas_id_level12":4121307920,"reported_by_register":0}},{"type":"Feature","geometry":{"type":"Point","coordinates":[69.21,40.24]},"properties":{"plant_id":56154,"name":"","country":"Uzbekistan","treatment_level":"Secondary","population_served":"112928","wastewater_discharge_m3_d":"8422.317","dilution_factor":"4074.521","river_discharge_cms":"397.0890","hyriv_id":40345239,"system_id":"syr_darya","hybas_id_level12":4120448560,"reported_by_register":0}},{"type":"Feature","geometry":{"type":"Point","coordinates":[69.485,40.473]},"properties":{"plant_id":56167,"name":"","country":"Tajikistan","treatment_level":"Primary","population_served":"11408","wastewater_discharge_m3_d":"215.311","dilution_factor":"208.151","river_discharge_cms":"0.6670","hyriv_id":40339580,"system_id":"syr_darya","hybas_id_level12":4120441410,"reported_by_register":0}},{"type":"Feature","geometry":{"type":"Point","coordinates":[71.49,40.56]},"properties":{"plant_id":56168,"name":"","country":"Uzbekistan","treatment_level":"Secondary","population_served":"1158","wastewater_discharge_m3_d":"86.400","dilution_factor":"5.000","river_discharge_cms":"0.0040","hyriv_id":40335381,"system_id":"syr_darya","hybas_id_level12":4120431730,"reported_by_register":0}},{"type":"Feature","geometry":{"type":"Point","coordinates":[69.544,40.494]},"properties":{"plant_id":56170,"name":"","country":"Tajikistan","treatment_level":"Primary","population_served":"27981","wastewater_discharge_m3_d":"528.098","dilution_factor":"52.916","river_discharge_cms":"0.4100","hyriv_id":40336890,"system_id":"syr_darya","hybas_id_level12":4120441410,"reported_by_register":0}},{"type":"Feature","geometry":{"type":"Point","coordinates":[72.831,40.485]},"properties":{"plant_id":56171,"name":"","country":"Kyrgyzstan","treatment_level":"Secondary","population_served":"409158","wastewater_discharge_m3_d":"8310.069","dilution_factor":"122.316","river_discharge_cms":"12.5350","hyriv_id":40338010,"system_id":"syr_darya","hybas_id_level12":4120433430,"reported_by_register":0}},{"type":"Feature","geometry":{"type":"Point","coordinates":[69.181,40.527]},"properties":{"plant_id":56173,"name":"","country":"Uzbekistan","treatment_level":"Secondary","population_served":"68793","wastewater_discharge_m3_d":"5130.696","dilution_factor":"5.008","river_discharge_cms":"0.2380","hyriv_id":40335376,"system_id":"syr_darya","hybas_id_level12":4120436970,"reported_by_register":0}},{"type":"Feature","geometry":{"type":"Point","coordinates":[72.315,40.856]},"properties":{"plant_id":56197,"name":"","country":"Uzbekistan","treatment_level":"Secondary","population_served":"397368","wastewater_discharge_m3_d":"29636.243","dilution_factor":"215.771","river_discharge_cms":"73.6690","hyriv_id":40325527,"system_id":"syr_darya","hybas_id_level12":4120424100,"reported_by_register":0}},{"type":"Feature","geometry":{"type":"Point","coordinates":[69.406,40.835]},"properties":{"plant_id":56201,"name":"","country":"Uzbekistan","treatment_level":"Secondary","population_served":"87889","wastewater_discharge_m3_d":"6554.859","dilution_factor":"62.925","river_discharge_cms":"4.6980","hyriv_id":40325927,"system_id":"syr_darya","hybas_id_level12":4121302050,"reported_by_register":0}},{"type":"Feature","geometry":{"type":"Point","coordinates":[73.023,41.027]},"properties":{"plant_id":56208,"name":"","country":"Kyrgyzstan","treatment_level":"Secondary","population_served":"189107","wastewater_discharge_m3_d":"3840.804","dilution_factor":"197.857","river_discharge_cms":"9.4010","hyriv_id":40323239,"system_id":"syr_darya","hybas_id_level12":4120420630,"reported_by_register":0}},{"type":"Feature","geometry":{"type":"Point","coordinates":[71.756,40.902]},"properties":{"plant_id":56213,"name":"","country":"Uzbekistan","treatment_level":"Secondary","population_served":"322288","wastewater_discharge_m3_d":"24036.674","dilution_factor":"1634.470","river_discharge_cms":"454.4350","hyriv_id":40324333,"system_id":"syr_darya","hybas_id_level12":4120422090,"reported_by_register":0}},{"type":"Feature","geometry":{"type":"Point","coordinates":[69.91,40.919]},"properties":{"plant_id":56215,"name":"","country":"Uzbekistan","treatment_level":"Secondary","population_served":"45234","wastewater_discharge_m3_d":"3373.578","dilution_factor":"921.170","river_discharge_cms":"35.9290","hyriv_id":40323488,"system_id":"syr_darya","hybas_id_level12":4120420770,"reported_by_register":0}},{"type":"Feature","geometry":{"type":"Point","coordinates":[70.052,40.969]},"properties":{"plant_id":56217,"name":"","country":"Uzbekistan","treatment_level":"Secondary","population_served":"85328","wastewater_discharge_m3_d":"6363.907","dilution_factor":"433.672","river_discharge_cms":"31.8690","hyriv_id":40321713,"system_id":"syr_darya","hybas_id_level12":4120418720,"reported_by_register":0}},{"type":"Feature","geometry":{"type":"Point","coordinates":[69.365,41.031]},"properties":{"plant_id":56223,"name":"","country":"Uzbekistan","treatment_level":"Secondary","population_served":"96195","wastewater_discharge_m3_d":"7174.346","dilution_factor":"29.891","river_discharge_cms":"2.3990","hyriv_id":40319626,"system_id":"syr_darya","hybas_id_level12":4120416340,"reported_by_register":0}},{"type":"Feature","geometry":{"type":"Point","coordinates":[68.977,40.985]},"properties":{"plant_id":56225,"name":"","country":"Uzbekistan","treatment_level":"Secondary","population_served":"66403","wastewater_discharge_m3_d":"4952.410","dilution_factor":"4183.464","river_discharge_cms":"239.7370","hyriv_id":40321028,"system_id":"syr_darya","hybas_id_level12":4121299790,"reported_by_register":0}},{"type":"Feature","geometry":{"type":"Point","coordinates":[70.965,40.994]},"properties":{"plant_id":56226,"name":"","country":"Uzbekistan","treatment_level":"Secondary","population_served":"18049","wastewater_discharge_m3_d":"1346.100","dilution_factor":"39.896","river_discharge_cms":"0.6060","hyriv_id":40324894,"system_id":"syr_darya","hybas_id_level12":4120423330,"reported_by_register":0}},{"type":"Feature","geometry":{"type":"Point","coordinates":[69.235,41.035]},"properties":{"plant_id":56227,"name":"","country":"Uzbekistan","treatment_level":"Secondary","population_served":"144909","wastewater_discharge_m3_d":"10807.498","dilution_factor":"156.852","river_discharge_cms":"19.4950","hyriv_id":40319897,"system_id":"syr_darya","hybas_id_level12":4120422710,"reported_by_register":0}},{"type":"Feature","geometry":{"type":"Point","coordinates":[61.898,41.06]},"properties":{"plant_id":56230,"name":"","country":"Uzbekistan","treatment_level":"Secondary","population_served":"44610","wastewater_discharge_m3_d":"3327.076","dilution_factor":"51314.513","river_discharge_cms":"1975.9720","hyriv_id":40318785,"system_id":"amu_darya","hybas_id_level12":4120411070,"reported_by_register":0}},{"type":"Feature","geometry":{"type":"Point","coordinates":[69.11,41.081]},"properties":{"plant_id":56244,"name":"","country":"Uzbekistan","treatment_level":"Secondary","population_served":"208496","wastewater_discharge_m3_d":"15549.925","dilution_factor":"1328.633","river_discharge_cms":"238.9420","hyriv_id":40318206,"system_id":"syr_darya","hybas_id_level12":4121299790,"reported_by_register":0}},{"type":"Feature","geometry":{"type":"Point","coordinates":[69.073,41.052]},"properties":{"plant_id":56247,"name":"","country":"Uzbekistan","treatment_level":"Secondary","population_served":"52804","wastewater_discharge_m3_d":"3938.223","dilution_factor":"5250.808","river_discharge_cms":"239.2930","hyriv_id":40319248,"system_id":"syr_darya","hybas_id_level12":4121299790,"reported_by_register":0}},{"type":"Feature","geometry":{"type":"Point","coordinates":[68.877,41.085]},"properties":{"plant_id":56249,"name":"","country":"Uzbekistan","treatment_level":"Secondary","population_served":"61471","wastewater_discharge_m3_d":"4584.594","dilution_factor":"67.638","river_discharge_cms":"3.5360","hyriv_id":40318204,"system_id":"syr_darya","hybas_id_level12":4121298640,"reported_by_register":0}},{"type":"Feature","geometry":{"type":"Point","coordinates":[75.865,41.156]},"properties":{"plant_id":56250,"name":"","country":"Kyrgyzstan","treatment_level":"Secondary","population_served":"4408","wastewater_discharge_m3_d":"89.537","dilution_factor":"15287.320","river_discharge_cms":"17.0180","hyriv_id":40315942,"system_id":"syr_darya","hybas_id_level12":4121297340,"reported_by_register":0}},{"type":"Feature","geometry":{"type":"Point","coordinates":[75.865,41.156]},"properties":{"plant_id":56251,"name":"","country":"Kyrgyzstan","treatment_level":"Secondary","population_served":"2384","wastewater_discharge_m3_d":"48.426","dilution_factor":"28264.397","river_discharge_cms":"17.0180","hyriv_id":40315942,"system_id":"syr_darya","hybas_id_level12":4121297340,"reported_by_register":0}},{"type":"Feature","geometry":{"type":"Point","coordinates":[69.148,41.094]},"properties":{"plant_id":56252,"name":"","country":"Uzbekistan","treatment_level":"Secondary","population_served":"543951","wastewater_discharge_m3_d":"40568.602","dilution_factor":"505.679","river_discharge_cms":"236.9690","hyriv_id":40318321,"system_id":"syr_darya","hybas_id_level12":4120414820,"reported_by_register":0}},{"type":"Feature","geometry":{"type":"Point","coordinates":[69.606,41.152]},"properties":{"plant_id":56253,"name":"","country":"Uzbekistan","treatment_level":"Secondary","population_served":"67438","wastewater_discharge_m3_d":"5029.649","dilution_factor":"67.033","river_discharge_cms":"3.8440","hyriv_id":40316995,"system_id":"syr_darya","hybas_id_level12":4120414220,"reported_by_register":0}},{"type":"Feature","geometry":{"type":"Point","coordinates":[73.923,41.223]},"properties":{"plant_id":56256,"name":"","country":"Kyrgyzstan","treatment_level":"Secondary","population_served":"846","wastewater_discharge_m3_d":"17.188","dilution_factor":"17893.957","river_discharge_cms":"3.8240","hyriv_id":40314012,"system_id":"syr_darya","hybas_id_level12":4120405740,"reported_by_register":0}},{"type":"Feature","geometry":{"type":"Point","coordinates":[69.169,41.119]},"properties":{"plant_id":56258,"name":"","country":"Uzbekistan","treatment_level":"Secondary","population_served":"837451","wastewater_discharge_m3_d":"62458.197","dilution_factor":"328.645","river_discharge_cms":"236.8530","hyriv_id":40317701,"system_id":"syr_darya","hybas_id_level12":4120414820,"reported_by_register":0}},{"type":"Feature","geometry":{"type":"Point","coordinates":[69.265,41.202]},"properties":{"plant_id":56288,"name":"","country":"Uzbekistan","treatment_level":"Secondary","population_served":"783351","wastewater_discharge_m3_d":"58423.328","dilution_factor":"350.384","river_discharge_cms":"236.2520","hyriv_id":40314925,"system_id":"syr_darya","hybas_id_level12":4120414820,"reported_by_register":0}},{"type":"Feature","geometry":{"type":"Point","coordinates":[61.402,41.219]},"properties":{"plant_id":56295,"name":"","country":"Uzbekistan","treatment_level":"Secondary","population_served":"61052","wastewater_discharge_m3_d":"4553.356","dilution_factor":"37438.064","river_discharge_cms":"1972.9660","hyriv_id":40314126,"system_id":"amu_darya","hybas_id_level12":4121295960,"reported_by_register":0}},{"type":"Feature","geometry":{"type":"Point","coordinates":[61.402,41.219]},"properties":{"plant_id":56298,"name":"","country":"Uzbekistan","treatment_level":"Secondary","population_served":"81069","wastewater_discharge_m3_d":"6046.264","dilution_factor":"28194.323","river_discharge_cms":"1972.9660","hyriv_id":40314126,"system_id":"amu_darya","hybas_id_level12":4121295960,"reported_by_register":0}},{"type":"Feature","geometry":{"type":"Point","coordinates":[69.165,41.173]},"properties":{"plant_id":56307,"name":"","country":"Uzbekistan","treatment_level":"Secondary","population_served":"192673","wastewater_discharge_m3_d":"14369.766","dilution_factor":"11.396","river_discharge_cms":"1.7290","hyriv_id":40318207,"system_id":"syr_darya","hybas_id_level12":4120414570,"reported_by_register":0}},{"type":"Feature","geometry":{"type":"Point","coordinates":[68.06,41.323]},"properties":{"plant_id":56309,"name":"","country":"Kazakhstan","treatment_level":"Secondary","population_served":"21105","wastewater_discharge_m3_d":"4415.613","dilution_factor":"","river_discharge_cms":"","hyriv_id":40311251,"system_id":"syr_darya","hybas_id_level12":4121294450,"reported_by_register":0}},{"type":"Feature","geometry":{"type":"Point","coordinates":[69.065,41.185]},"properties":{"plant_id":56311,"name":"","country":"Uzbekistan","treatment_level":"Secondary","population_served":"126224","wastewater_discharge_m3_d":"9413.926","dilution_factor":"21.834","river_discharge_cms":"2.2700","hyriv_id":40315068,"system_id":"syr_darya","hybas_id_level12":4120411720,"reported_by_register":0}},{"type":"Feature","geometry":{"type":"Point","coordinates":[73.977,41.456]},"properties":{"plant_id":56339,"name":"","country":"Kyrgyzstan","treatment_level":"Secondary","population_served":"4624","wastewater_discharge_m3_d":"93.923","dilution_factor":"167926.624","river_discharge_cms":"196.1050","hyriv_id":40306637,"system_id":"syr_darya","hybas_id_level12":4121291530,"reported_by_register":0}},{"type":"Feature","geometry":{"type":"Point","coordinates":[69.498,41.356]},"properties":{"plant_id":56346,"name":"","country":"Uzbekistan","treatment_level":"Secondary","population_served":"126696","wastewater_discharge_m3_d":"9449.168","dilution_factor":"2140.233","river_discharge_cms":"233.9580","hyriv_id":40310998,"system_id":"syr_darya","hybas_id_level12":4121295730,"reported_by_register":0}},{"type":"Feature","geometry":{"type":"Point","coordinates":[74.006,41.431]},"properties":{"plant_id":56350,"name":"","country":"Kyrgyzstan","treatment_level":"Secondary","population_served":"5337","wastewater_discharge_m3_d":"108.390","dilution_factor":"126910.900","river_discharge_cms":"171.0350","hyriv_id":40307546,"system_id":"syr_darya","hybas_id_level12":4120402500,"reported_by_register":0}},{"type":"Feature","geometry":{"type":"Point","coordinates":[69.51,41.369]},"properties":{"plant_id":56354,"name":"","country":"Uzbekistan","treatment_level":"Secondary","population_served":"94471","wastewater_discharge_m3_d":"7045.749","dilution_factor":"2867.753","river_discharge_cms":"233.7780","hyriv_id":40310998,"system_id":"syr_darya","hybas_id_level12":4121295730,"reported_by_register":0}},{"type":"Feature","geometry":{"type":"Point","coordinates":[70.081,41.602]},"properties":{"plant_id":56365,"name":"","country":"Uzbekistan","treatment_level":"Secondary","population_served":"33833","wastewater_discharge_m3_d":"2523.302","dilution_factor":"4260.288","river_discharge_cms":"124.3920","hyriv_id":40302336,"system_id":"syr_darya","hybas_id_level12":4120396800,"reported_by_register":0}},{"type":"Feature","geometry":{"type":"Point","coordinates":[72.69,41.619]},"properties":{"plant_id":56366,"name":"","country":"Kyrgyzstan","treatment_level":"Secondary","population_served":"27446","wastewater_discharge_m3_d":"557.443","dilution_factor":"241.222","river_discharge_cms":"1.6650","hyriv_id":40301977,"system_id":"syr_darya","hybas_id_level12":4120396820,"reported_by_register":0}},{"type":"Feature","geometry":{"type":"Point","coordinates":[59.619,42.352]},"properties":{"plant_id":56380,"name":"","country":"Uzbekistan","treatment_level":"Secondary","population_served":"49427","wastewater_discharge_m3_d":"3686.361","dilution_factor":"39948.864","river_discharge_cms":"1704.4240","hyriv_id":40278731,"system_id":"amu_darya","hybas_id_level12":4121279060,"reported_by_register":0}},{"type":"Feature","geometry":{"type":"Point","coordinates":[69.506,42.415]},"properties":{"plant_id":56382,"name":"","country":"Kazakhstan","treatment_level":"Secondary","population_served":"70202","wastewater_discharge_m3_d":"14688.000","dilution_factor":"5.000","river_discharge_cms":"0.6800","hyriv_id":40276630,"system_id":"syr_darya","hybas_id_level12":4120368780,"reported_by_register":0}},{"type":"Feature","geometry":{"type":"Point","coordinates":[59.619,42.352]},"properties":{"plant_id":56384,"name":"","country":"Uzbekistan","treatment_level":"Secondary","population_served":"46388","wastewater_discharge_m3_d":"3459.701","dilution_factor":"42566.023","river_discharge_cms":"1704.4240","hyriv_id":40278731,"system_id":"amu_darya","hybas_id_level12":4121279060,"reported_by_register":0}},{"type":"Feature","geometry":{"type":"Point","coordinates":[59.66,42.515]},"properties":{"plant_id":56386,"name":"","country":"Uzbekistan","treatment_level":"Secondary","population_served":"1448","wastewater_discharge_m3_d":"108.000","dilution_factor":"5.000","river_discharge_cms":"0.0050","hyriv_id":40273472,"system_id":"amu_darya","hybas_id_level12":4120361650,"reported_by_register":0}},{"type":"Feature","geometry":{"type":"Point","coordinates":[70.369,42.527]},"properties":{"plant_id":56387,"name":"","country":"Kazakhstan","treatment_level":"Secondary","population_served":"17614","wastewater_discharge_m3_d":"3685.223","dilution_factor":"120.382","river_discharge_cms":"5.0920","hyriv_id":40272739,"system_id":"syr_darya","hybas_id_level12":4120365390,"reported_by_register":0}},{"type":"Feature","geometry":{"type":"Point","coordinates":[59.577,42.61]},"properties":{"plant_id":56388,"name":"","country":"Uzbekistan","treatment_level":"Secondary","population_served":"290","wastewater_discharge_m3_d":"21.600","dilution_factor":"5.000","river_discharge_cms":"0.0010","hyriv_id":40271381,"system_id":"amu_darya","hybas_id_level12":4121276230,"reported_by_register":0}},{"type":"Feature","geometry":{"type":"Point","coordinates":[59.36,45.19]},"properties":{"plant_id":56512,"name":"","country":"Uzbekistan","treatment_level":"Secondary","population_served":"471","wastewater_discharge_m3_d":"35.125","dilution_factor":"","river_discharge_cms":"","hyriv_id":40182395,"system_id":"amu_darya","hybas_id_level12":4121238060,"reported_by_register":0}},{"type":"Feature","geometry":{"type":"Point","coordinates":[59.36,45.19]},"properties":{"plant_id":56515,"name":"","country":"Uzbekistan","treatment_level":"Secondary","population_served":"289","wastewater_discharge_m3_d":"21.554","dilution_factor":"","river_discharge_cms":"","hyriv_id":40182395,"system_id":"amu_darya","hybas_id_level12":4121238060,"reported_by_register":0}}]}
